{"type":"FeatureCollection", "features": [
{"type":"Feature","geometry":{"type":"Polygon","coordinates":[[[3.3601695,36.7819275],[3.085869,36.7497638],[3.0126301,36.8197851],[2.9023771,36.8059213],[2.803332,36.6986945],[2.8111775,36.6433138],[2.922739,36.5967112],[3.1113806,36.5815537],[3.2235673,36.6690178],[3.3601695,36.7819275]]]},"properties":{"@id":"relation/157062","ISO3166-2":"DZ-16","admin_level":"4","alt_name":"إيكوسيم;الجزائر العاصمة","alt_name:ar":"إيكوسيم;الجزائر العاصمة","alt_name:ckb":"ئەلجەزیرە","alt_name:en":"Al Djazāir","alt_name:fr":"Icosium;El Bahdja;El Mahrussa;El Beida","alt_name:grc":"Ἰκόσιον","alt_name:la":"Icosium","alt_name:ur":"الجزائر شہر","boundary":"administrative","capital":"yes","long_name":"Wilaya d'Alger","long_name:ar":"ولاية الجزائر","long_name:de":"Provinz Algier","long_name:en":"Algiers Province","long_name:es":"Provincia de Argel","long_name:fa":"استان الجزیره","long_name:fr":"Wilaya d'Alger","long_name:pnb":"صوبہ الجزائر","long_name:ur":"صوبہ الجزائر","name":"Alger","name:af":"Algiers","name:am":"አልጀርስ","name:an":"Alcher","name:ar":"الجزائر","name:arc":"ܓܙܐܐܪ","name:ast":"Arxel","name:az":"Əlcəzair","name:azb":"الجزیره","name:bat-smg":"Alžīrs","name:be":"Алжыр","name:be-tarask":"Альжыр","name:ber":"ⴷⵣⴰⵢⴻⵔ","name:bg":"Алжир","name:bn":"আলজিয়ার্স","name:bo":"ཨཱལ་ཇི་ཡར་སི།","name:bs":"Alžir","name:ca":"Alger","name:ckb":"جەزائیر","name:cs":"Alžír","name:cv":"Алжир","name:cy":"Alger","name:da":"Algier","name:de":"Algier","name:diq":"Cezayir","name:el":"Αλγέρι","name:en":"Algiers","name:eo":"Alĝero","name:es":"Argel","name:et":"Alžiir","name:eu":"Aljer","name:ext":"Argel","name:fa":"الجزیره","name:fi":"Alger","name:fo":"Alger","name:fr":"Alger","name:frp":"Alg·èr","name:fy":"Algiers","name:gd":"Algiers","name:gl":"Alxer","name:grc":"Ἀλγέριον","name:he":"אלג'יר","name:hi":"आल्जेर","name:hif":"Algiers","name:hr":"Alžir","name:hsb":"Alžěr","name:ht":"Alje","name:hu":"Algír","name:hy":"Ալժիր","name:id":"Aljir","name:ie":"Alger","name:io":"Aljer","name:is":"Algeirsborg","name:it":"Algeri","name:ja":"アルジェ","name:jv":"Aljir","name:ka":"ალჟირი","name:kab":"Dzayer","name:kab-Arab":"دزاير","name:kk":"Алжир","name:kk-Arab":"الجىير","name:kmr":"جەزایر","name:kn":"ಆಲ್ಜೇರ್","name:ko":"알제","name:ks":"الجزائر","name:ku":"Cezayir","name:ku-Arab":"جەزایر","name:ky":"Алжир шаары","name:la":"Algeria","name:lad":"Arjel","name:lb":"Alger","name:lij":"Algè","name:lmo":"Algeri","name:ln":"Alje","name:lt":"Alžyras","name:lv":"Alžīra","name:mdf":"Алжир","name:mk":"Алжир","name:ml":"അൾജിയേഴ്സ്","name:mr":"अल्जीयर्स","name:mrj":"Алжир","name:ms":"Algiers","name:nah":"Argel","name:nan":"Algiers","name:nl":"Algiers","name:nn":"Alger","name:no":"Alger","name:nov":"Algiers","name:oc":"Argièr","name:os":"Алжир","name:ota":"الجزائر","name:pap":"Algiers","name:pl":"Algier","name:pms":"Algeri","name:pnb":"الجیرز","name:ps":"الجزيره","name:pt":"Argel","name:ro":"Alger","name:roa-rup":"Alger","name:ru":"Алжир","name:scn":"Algeri","name:sco":"Algiers","name:se":"Algiers","name:sh":"Alžir","name:sk":"Alžír","name:sl":"Alžir","name:so":"Algiers","name:sr":"Алжир","name:su":"Aljir","name:sv":"Alger","name:sw":"Algiers","name:syc":"ܓܙܐܐܪ","name:ta":"அல்ஜியர்ஸ்","name:tg":"Алҷазоир","name:th":"แอลเจียร์","name:tl":"Algiers","name:tr":"Cezayir","name:udm":"Алжир","name:ug":"ئالجىر","name:uk":"Алжир","name:ur":"الجزائر","name:vec":"Algeri","name:vep":"Alžir","name:vi":"Algiers","name:vo":"Cäsair","name:war":"Algiers","name:wo":"Alse","name:yo":"Algiers","name:yue":"阿爾及爾","name:zh":"阿爾及爾","name:zu":"Algiers","ref":"16","type":"boundary","wikidata":"Q141026","wikipedia":"fr:Wilaya d'Alger"},"id":"relation/157062"},
{"type":"Feature","geometry":{"type":"Polygon","coordinates":[[[-1.1241824,32.4114674],[-1.1879504,32.4071575],[-1.2487208,32.3202627],[-1.2569676,32.1602683],[-1.2213043,32.0798892],[-1.576713,32.092069],[-2.014916,32.182183],[-2.180236,32.142248],[-2.277609,32.168605],[-2.5424404,32.1450817],[-2.600034,32.112911],[-2.873435,32.111359],[-2.9309077,32.0351615],[-2.8414292,31.8807281],[-2.8206956,31.7936425],[-3.664666,31.633535],[-3.660905,31.377957],[-3.764633,31.334038],[-3.759482,31.175868],[-3.536344,31.013687],[-3.556745,30.932137],[-3.6517081,30.8425051],[-3.6295874,30.7446488],[-3.6694002,30.6647953],[-3.6003076,30.5934043],[-3.5798548,30.3556891],[-3.0987604,30.471305],[-2.7933819,30.5268639],[-2.5526349,30.7088052],[-2.4290067,30.7430647],[-2.3503201,30.6876604],[-1.963307,30.7315365],[-1.8121458,30.7848625],[-1.5867755,30.8187184],[-1.3164267,30.8044976],[-1.0238465,30.8559326],[-0.5750841,30.8800925],[-0.29775,30.7413894],[-0.1065487,30.7152588],[0.0750879,30.7400523],[0.383871,30.701657],[-0.242397,31.148978],[-0.224791,31.277254],[-0.359408,31.367414],[-0.409381,31.485291],[-0.357351,31.558748],[-0.415873,31.636651],[-0.355348,31.8044],[-0.398562,32.000522],[-0.338565,32.143724],[-0.209602,32.169159],[-0.151792,32.331056],[-0.225032,32.236341],[-0.336511,32.255016],[-0.418315,32.201905],[-0.731866,32.270541],[-0.997056,32.145526],[-1.075869,32.206772],[-1.060022,32.323705],[-1.1241824,32.4114674]]]},"properties":{"@id":"relation/1258647","ISO3166-2":"DZ-08","admin_level":"4","alt_name:el":"Μπέτσαρ","alt_name:fa":"بشار","alt_name:kab":"Beccar","alt_name:pnb":"بشار","boundary":"administrative","long_name":"ولاية بشار","long_name:ar":"ولاية بشار","long_name:en":"Bechar Province","long_name:es":"Provincia de Béchar","long_name:fr":"Wilaya de Béchar","long_name:ur":"صوبہ بشار","name":"Béchar","name:ar":"بشار","name:ast":"Provincia de Béchar","name:az":"Beşar vilayəti","name:az-Arab":"بشار","name:azb":"بشار","name:be":"Бешар","name:be-tarask":"Бэшар","name:ber":"ⴱⵛⴰⵔ","name:bg":"Бешар","name:ca":"Província de Bechar","name:ceb":"Wilaya de Béchar","name:da":"Béchar","name:de":"Baschar","name:el":"Επαρχία Μπεσάρ","name:en":"Bechar","name:eo":"Provinco Beŝar","name:es":"Béchar","name:eu":"Bexarreko probintzia","name:fa":"استان بشار","name:fi":"Bécharin maakunta","name:fr":"Béchar","name:gl":"Vilaia de Bechar","name:hi":"बेचार प्रांत","name:id":"Provinsi Bechar","name:it":"Provincia di Béchar","name:ja":"ベシャール県","name:ka":"ბეშარის პროვინცია","name:kab":"Tawilayt n Beccar","name:ko":"베샤르주","name:ks":"بشار","name:lad":"Beshar","name:lt":"Bešaro vilaja","name:ms":"Wilayah Béchar","name:nan":"Béchar Séng","name:nl":"Béchar","name:no":"Béchar","name:ota":"بشار","name:pl":"Prowincja Baszszar","name:pnb":"صوبہ بشار","name:pt":"Béchar","name:ro":"Provincia Béchar","name:ru":"Бешар","name:se":"Béchar eanangoddi","name:sh":"Bešar","name:sq":"Bechar","name:sr":"Бешар","name:sv":"Béchar","name:sw":"Wilaya ya Bechar","name:tg":"Вилояти Бишор","name:tl":"Lalawigan ng Béchar","name:tr":"Beşar Vilayeti","name:uk":"Бешар","name:ur":"بشار","name:vi":"Béchar","name:war":"Béchar","name:wuu":"贝沙尔省","name:zh":"贝沙尔省","name:zu":"Bechar Province","old_name":"كولومب بشار","old_name:ar":"كولومب بشار","old_name:fr":"Colomb-Béchar","ref":"08","type":"boundary","wikidata":"Q215467","wikipedia":"ar:ولاية بشار","wikipedia:es":"Provincia de Béchar"},"id":"relation/1258647"},
{"type":"Feature","geometry":{"type":"Polygon","coordinates":[[[-1.125253,34.279905],[-1.270888,34.200909],[-1.486185,34.199877],[-1.6514166,34.0966739],[-1.6987466,33.8696876],[-1.5881567,33.5290641],[-1.6635493,33.3781218],[-1.6702666,33.2840801],[-1.576055,33.148891],[-1.461762,33.042215],[-1.543783,32.957761],[-1.3989913,32.7626626],[-1.2714915,32.6957002],[-1.000257,32.519593],[-1.1241824,32.4114674],[-1.060022,32.323705],[-1.075869,32.206772],[-0.997056,32.145526],[-0.731866,32.270541],[-0.418315,32.201905],[-0.336511,32.255016],[-0.225032,32.236341],[-0.151792,32.331056],[-0.017973,32.557528],[-0.022129,32.710613],[-0.094726,32.815175],[-0.083102,32.88719],[-0.01136,32.921395],[0.023327,33.073965],[-0.017859,33.117167],[0.015618,33.335278],[0.11165,33.646898],[0.074148,33.764465],[0.157292,33.802623],[0.064366,33.898359],[0.071767,33.994497],[-0.046787,33.99358],[-0.071266,34.086853],[-0.211543,34.065193],[-0.29479,33.964164],[-0.368677,33.935425],[-0.407453,34.052698],[-0.471269,34.139345],[-0.50247,34.274726],[-0.602729,34.325875],[-0.779664,34.228759],[-0.974557,34.280208],[-1.072909,34.217397],[-1.125253,34.279905]]]},"properties":{"@id":"relation/1258648","ISO3166-2":"DZ-45","admin_level":"4","alt_name:azb":"نعامه اوستانی","alt_name:el":"Επαρχία Ναάμα","alt_name:fa":"استان نعامه","alt_name:kab":"Tawilayt n Nnɛama","alt_name:pnb":"صوبہ نعامہ","alt_name:ur":"صوبہ النعامہ","boundary":"administrative","long_name":"ولاية النعامة","long_name:ar":"ولاية النعامة","long_name:en":"Naâma Province","long_name:fr":"Wilaya de Naâma","name":"Naâma ⵏⵄⴰⵎⴰ النعامة","name:ar":"النعامة","name:ast":"Provincia de Naama","name:azb":"نعامه","name:be":"Наама","name:be-tarask":"Наама","name:ber":"ⵏⵄⴰⵎⴰ","name:bg":"Наама","name:ca":"Província de Naama","name:ceb":"Wilaya de Naama","name:da":"Naama","name:de":"Naama","name:el":"Ναάμα","name:en":"Naâma","name:eo":"Provinco Naama","name:es":"Provincia de Naama","name:eu":"Naâmako probintzia","name:fa":"نعامه","name:fr":"Naâma","name:gl":"Vilaia de Naama","name:hi":"नामा प्रांत","name:ia":"Provincia de Naâma","name:id":"Provinsi Naama","name:it":"Provincia di Naâma","name:ja":"ナーマ県","name:ka":"ნაამის პროვინცია","name:kab":"Nɛama","name:ko":"나마주","name:lad":"Naama","name:lt":"Naamos vilaja","name:ms":"Wilayah Naama","name:nl":"Naama","name:no":"Naâma","name:pl":"Prowincja An-Na’ama","name:pnb":"نعامہ","name:pt":"Naâma","name:ro":"Provincia Naâma","name:ru":"Наама","name:sco":"Naama Province","name:se":"Naâma eanangoddi","name:sh":"Nama","name:sr":"Нама","name:sv":"Naâma","name:sw":"Wilaya ya Naama","name:tg":"Вилояти Наома","name:tl":"Lalawigan ng Naâma","name:tr":"Niame Vilayeti","name:uk":"Наама","name:ur":"النعامہ","name:vi":"Naâma","name:war":"Naâma","name:zh":"纳马省","name:zu":"Naâma Province","ref":"45","type":"boundary","wikidata":"Q233675","wikipedia":"ar:ولاية النعامة"},"id":"relation/1258648"},
{"type":"Feature","geometry":{"type":"Polygon","coordinates":[[[0.856444,34.415387],[0.726974,34.442019],[0.580809,34.351437],[0.50333,34.337685],[0.423153,34.404661],[0.291002,34.329033],[0.188937,34.337912],[-0.020544,34.448165],[0.03962,34.242288],[-0.071266,34.086853],[-0.046787,33.99358],[0.071767,33.994497],[0.064366,33.898359],[0.157292,33.802623],[0.074148,33.764465],[0.11165,33.646898],[0.015618,33.335278],[-0.017859,33.117167],[0.023327,33.073965],[-0.01136,32.921395],[-0.083102,32.88719],[-0.094726,32.815175],[-0.022129,32.710613],[-0.017973,32.557528],[-0.151792,32.331056],[-0.209602,32.169159],[-0.338565,32.143724],[-0.398562,32.000522],[-0.355348,31.8044],[-0.415873,31.636651],[-0.357351,31.558748],[-0.409381,31.485291],[-0.359408,31.367414],[-0.224791,31.277254],[-0.242397,31.148978],[0.383871,30.701657],[1.098219,31.142572],[2.058992,31.659608],[2.27273,31.860117],[2.24162,32.196768],[2.360306,32.26157],[2.27686,32.549634],[2.2399407,32.8040543],[2.106606,33.060232],[2.098555,33.16353],[2.269445,33.159007],[2.279689,33.311119],[2.183434,33.293873],[2.020169,33.338734],[2.029961,33.403932],[1.884866,33.415428],[1.93222,33.591396],[1.807711,33.700994],[1.795471,33.840674],[1.708469,33.902557],[1.569911,33.864681],[1.37319,33.975198],[1.335249,34.073319],[1.272314,34.206315],[1.012777,34.193947],[1.04311,34.384098],[0.856444,34.415387]]]},"properties":{"@id":"relation/1258649","ISO3166-2":"DZ-32","admin_level":"4","alt_name:el":"Επαρχία Ελ Μπαγιάντ","alt_name:kab":"Tawilayt n Lbeyyeḍ","boundary":"administrative","long_name":"ولاية البيض","long_name:ar":"ولاية البيض","long_name:azb":"البیض اوستانی","long_name:en":"El Bayadh Province","long_name:fa":"استان البیض","long_name:fr":"Wilaya d'El Bayadh","long_name:pnb":"صوبہ بیض","long_name:ur":"صوبہ البیض","name":"El Bayadh","name:ar":"البيض","name:ast":"Provincia d'El Bayadh","name:azb":"البیض","name:be":"Эль-Баяд","name:be-tarask":"Эль-Баяд","name:ber":"ⵍⴱⴰⵢⴻⴹ","name:bg":"Ел-Баяд","name:ceb":"El Bayadh","name:da":"El Bayadh","name:de":"El Bayadh","name:el":"Ελ Μπαγιάντ","name:en":"El Bayadh","name:eo":"Provinco El Bajdah","name:es":"Provincia de El Bayadh","name:eu":"El Bayadheko probintzia","name:fa":"البیض","name:fr":"El Bayadh","name:gl":"Vilaia de El Bayadh","name:hi":"एल बयादा प्रांत","name:id":"Provinsi El Bayadh","name:it":"Provincia di El Bayadh","name:ja":"エル・バヤード県","name:ka":"ელ-ბაიადის პროვინცია","name:kab":"Lbayeḍ","name:kab-Arab":"لبيض","name:ko":"엘바야드주","name:lad":"El Bayadh","name:lt":"Bajado vilaja","name:ms":"Wilayah El Bayadh","name:nl":"El Bayadh","name:no":"El Bayadh","name:pl":"Prowincja Al-Bajad","name:pnb":"بیض","name:pt":"El Bayadh","name:ro":"Provincia El Bayadh","name:ru":"Эль-Баяд","name:sco":"El Bayadh Province","name:se":"El Bayadh eanangoddi","name:sh":"El Bajad","name:sr":"Ел Бајад","name:sv":"El Bayadh","name:sw":"Wilaya ya El Bayadh","name:tg":"Вилояти Ал-Баяз","name:tl":"Lalawigan ng El Bayadh","name:tr":"El Beyaz Vilayeti","name:uk":"Ель-Баяд","name:ur":"البیض","name:vi":"El Bayadh","name:war":"El Bayadh","name:zh":"巴亚兹省","name:zu":"El Bayadh Province","old_name":"جيريفيل","old_name:ar":"جيريفيل","old_name:fr":"Géryville","ref":"32","type":"boundary","wikidata":"Q235703","wikipedia":"ar:ولاية البيض"},"id":"relation/1258649"},
{"type":"Feature","geometry":{"type":"Polygon","coordinates":[[[1.4379783,24.6367227],[1.42701,24.99292],[1.424835,25.526308],[1.052196,26.000568],[0.933021,26.236555],[1.189689,26.468476],[1.29797,26.626834],[1.418054,26.667109],[1.534117,26.622653],[1.630576,26.654334],[1.668614,27.030747],[1.779706,27.277275],[1.698698,27.386302],[1.696593,27.62985],[1.778505,27.75429],[1.814714,28.149153],[1.955206,28.346125],[2.0013061,28.4770458],[1.756058,28.556446],[1.188303,28.564756],[0.977867,28.481159],[0.395805,28.381924],[0.016856,28.482651],[-0.216612,28.525105],[-0.660615,28.836451],[-0.920353,28.980902],[-1.418585,28.952885],[-2.003547,28.796756],[-2.293748,28.424182],[-2.575738,28.222683],[-2.646516,28.072691],[-2.905482,27.769097],[-3.035772,27.34794],[-2.982572,27.300564],[-2.984909,27.259138],[-3.109459,26.866455],[-3.185377,26.822225],[-3.51069,26.833682],[-3.690586,26.760574],[-3.784515,26.681684],[-4.125969,26.205585],[-4.195355,26.019612],[-4.810158,26.000414],[-5.105131,25.713664],[-5.668261,25.513483],[-4.8333344,25.0000001],[-4.024153,25.242573],[-3.242237,25.080599],[-2.853737,25.003246],[-2.043305,24.828209],[-1.361783,24.676205],[-0.63003,24.501106],[0.00047,24.363655],[0.088665,24.324694],[0.346668,24.25783],[0.855661,24.138941],[1.426958,23.997652],[1.4379783,24.6367227]]]},"properties":{"@id":"relation/1258650","ISO3166-2":"DZ-01","admin_level":"4","alt_name:ar":"أدرار","alt_name:azb":"ادرار","alt_name:fa":"ادرار","alt_name:kab":"Adrar","alt_name:ur":"ادرار","boundary":"administrative","long_name":"ولاية أدرار","long_name:ar":"ولاية أدرار","long_name:en":"Adrar Province","long_name:fr":"Wilaya d'Adrar","name":"Adrar","name:ar":"أدرار","name:az":"Adrar vilayəti","name:azb":"ادرار اوستانی","name:be":"Адрар","name:be-tarask":"Адрар","name:ber":"ⴰⴷⵔⴰⵔ","name:bg":"Адрар","name:bs":"Adrar","name:ca":"Província d'Adrar","name:ce":"Адрар","name:ceb":"Adrar","name:da":"Adrar","name:de":"Adrar","name:el":"Επαρχία Αντράρ","name:en":"Adrar","name:es":"Provincia de Adrar","name:eu":"Adrarreko probintzia","name:fa":"استان ادرار","name:fi":"Adrarin maakunta","name:fr":"Adrar","name:frr":"Adrar","name:gl":"Vilaia de Adrar","name:hi":"अद्रर प्रांत","name:ia":"Provincia de Adrar","name:id":"Provinsi Adrar","name:it":"Provincia di Adrar","name:ja":"アドラール県","name:ka":"ადრარის პროვინცია","name:kab":"Tawilayt n Wedrar","name:ko":"아드라르주","name:ks":"ادرار","name:lad":"Adrar","name:lt":"Adraro vilaja","name:ms":"Wilayah Adrar","name:nan":"Adrar Séng","name:nl":"Adrar","name:no":"Adrar","name:pl":"Prowincja Adrar","name:pnb":"صوبہ ادرار","name:pt":"Adrar","name:ro":"Provincia Adrar","name:ru":"Адрар","name:sco":"Adrar Province","name:se":"Adrar eanangoddi","name:sh":"Adrar","name:sq":"Vilajeti Adrar","name:sr":"Адрар","name:sv":"Adrar","name:sw":"Wilaya ya Adrar","name:tg":"Вилояти Адрор","name:tl":"Lalawigan ng Adrar","name:tr":"Adrar Vilayeti","name:uk":"Адрар","name:ur":"صوبہ ادرار","name:vec":"Adrar","name:vi":"Adrar","name:wuu":"阿德拉尔省","name:xmf":"ადრარიშ ვილაიეთი","name:zh":"阿德拉爾省","name:zu":"Adrar Province","population":"399714","population:date":"2008","ref":"01","source:population":"الديوان الوطني للإحصائيات (الجزائر)","type":"boundary","war":"Adrar (lalawigan)","wikidata":"Q188166","wikipedia":"ar:ولاية أدرار"},"id":"relation/1258650"},
{"type":"Feature","geometry":{"type":"Polygon","coordinates":[[[-5.668261,25.513483],[-5.105131,25.713664],[-4.810158,26.000414],[-4.195355,26.019612],[-4.125969,26.205585],[-3.784515,26.681684],[-3.690586,26.760574],[-3.51069,26.833682],[-3.185377,26.822225],[-3.109459,26.866455],[-2.984909,27.259138],[-2.982572,27.300564],[-3.5652745,27.3447988],[-3.7015376,27.4344205],[-3.9719687,27.7021049],[-3.9912148,28.0011889],[-4.3174621,28.484821],[-4.4998013,28.9992234],[-4.6217905,29.3024891],[-4.889025,29.414617],[-5.2655967,29.410204],[-5.499998,29.563009],[-5.565482,29.476586],[-5.650809,29.504543],[-5.727504,29.591038],[-5.8136751,29.6077195],[-6.069839,29.562125],[-6.165324,29.582295],[-6.4681976,29.5601692],[-6.5276439,29.521511],[-6.720969,29.505695],[-6.77725,29.462101],[-6.908631,29.495616],[-7.149831,29.522714],[-7.256894,29.474204],[-7.3451886,29.3920886],[-7.488727,29.3601303],[-7.6136128,29.3653904],[-7.6344467,29.3009769],[-7.7732321,29.2551038],[-7.9579174,29.1216715],[-8.2019746,28.9844426],[-8.4581584,28.7920251],[-8.5734093,28.7477457],[-8.6687494,28.6671925],[-8.667651,27.935486],[-8.668117,27.314942],[-8.231291,27.056794],[-7.578652,26.669793],[-6.832909,26.223265],[-6.034448,25.736231],[-5.668261,25.513483]]]},"properties":{"@id":"relation/1258651","ISO3166-2":"DZ-37","admin_level":"4","alt_name":"تيندوف","alt_name:ar":"تيندوف","alt_name:azb":"تندوف اوستانی","alt_name:es":"Provincia de Tinduf","alt_name:fa":"استان تندوف","alt_name:kab":"Tawilayt n Tinduf","alt_name:pnb":"صوبہ تندوف","alt_name:pt":"Tindouf","alt_name:ur":"صوبہ تندوف","boundary":"administrative","long_name":"ولاية تندوف","long_name:ar":"ولاية تندوف","long_name:en":"Tinduf Province","long_name:fr":"Wilaya de Tindouf","name":"Tindouf","name:ar":"تندوف","name:arz":"ولايه تندوف","name:ast":"Provincia de Tindouf","name:az":"Tinduf vilayəti","name:azb":"تندوف","name:be":"Тындуф","name:be-tarask":"Тындуф","name:ber":"ⵜⵉⵏⴷⵓⴼ","name:bg":"Тиндуф","name:ca":"Província de Tindouf","name:ceb":"Wilaya de Tindouf","name:cs":"Tindúf","name:de":"Tinduf","name:el":"Επαρχία Τιντούφ","name:en":"Tinduf","name:eo":"Provinco Tinduf","name:es":"Tinduf","name:eu":"Tindufeko probintzia","name:fa":"تندوف","name:fi":"Tindoufin maakunta","name:fr":"Tindouf","name:frr":"Tindouf","name:gl":"Vilaia de Tinduf","name:hi":"टिन्डोउफ प्रांत","name:id":"Provinsi Tindouf","name:it":"Provincia di Tindouf","name:ja":"ティンドゥフ県","name:ka":"ტინდუფის პროვინცია","name:kab":"Tinduf","name:ko":"틴두프주","name:ks":"تندوف","name:lad":"Tinduf","name:lt":"Tindufo vilaja","name:ms":"Tindouf","name:nl":"Tindouf","name:no":"Tindouf","name:ota":"تندوف","name:pl":"Prowincja Tinduf","name:pnb":"تندوف","name:ps":"تندوف","name:pt":"Tindufe","name:ro":"Provincia Tindouf","name:ru":"Тиндуф","name:sco":"Tindouf Province","name:se":"Tindouf eanangoddi","name:sh":"Tinduf","name:sr":"Тиндуф","name:sv":"Tindouf","name:sw":"Wilaya ya Tindouf","name:tg":"Вилояти Тиндуф","name:tl":"Lalawigan ng Tindouf","name:tr":"Tinduf Vilayeti","name:uk":"Тіндуф","name:ur":"تندوف","name:vi":"Tindouf","name:war":"Tindouf","name:zh":"廷杜夫省","name:zu":"Tindouf Province","ref":"37","type":"boundary","wikidata":"Q231151","wikipedia":"ar:ولاية تندوف"},"id":"relation/1258651"},
{"type":"Feature","geometry":{"type":"Polygon","coordinates":[[[-0.113693,35.7891061],[-0.3032739,35.8391531],[-0.3488393,35.905548],[-0.4706393,35.8863269],[-0.5001654,35.7945309],[-0.6339017,35.7099828],[-0.7943013,35.76333],[-0.9367019,35.7280339],[-1.0615437,35.6388567],[-0.9669618,35.5664398],[-1.021012,35.467844],[-0.853306,35.47333],[-0.736998,35.517343],[-0.62654,35.519809],[-0.582419,35.424361],[-0.618665,35.359438],[-0.521517,35.439807],[-0.403268,35.526574],[-0.390697,35.593264],[-0.2675903,35.6765333],[-0.1892521,35.6949319],[-0.115647,35.784642],[-0.113693,35.7891061]]]},"properties":{"@id":"relation/1259187","ISO3166-2":"DZ-31","admin_level":"4","alt_name:el":"Επαρχία Οράν","alt_name:it":"Provincia di Orano","alt_name:ja":"オラン県","alt_name:kab":"Tawilayt n Wehran","alt_name:lt":"Orano vilaja","boundary":"administrative","long_name":"ولاية وهران","long_name:ar":"ولاية وهران","long_name:azb":"وهران اوستانی","long_name:de":"Provinz Oran","long_name:en":"Oran Province","long_name:es":"Provincia de Orán","long_name:fa":"استان وهران","long_name:fr":"Wilaya d'Oran","long_name:pnb":"صوبہ وہران","long_name:ur":"صوبہ وھران","name":"Oran","name:ar":"وهران","name:arz":"ولاية وهران","name:ast":"Provincia d'Orán","name:azb":"وهران","name:be":"Аран","name:be-tarask":"Аран","name:ber":"ⵡⴻⵀⵔⴰⵏ","name:bg":"Оран","name:ca":"Província d'Orà","name:ceb":"Oran","name:da":"Oran","name:de":"Oran","name:el":"Οράν","name:en":"Oran","name:eo":"Provinco Oran","name:es":"Orán","name:eu":"Orango probintzia","name:fa":"وهران","name:fi":"Oranin maakunta","name:fr":"Oran","name:gl":"Vilaia de Orán","name:he":"אוראן","name:hi":"ओरान प्रांत","name:hu":"Orán","name:ia":"Provincia de Oran","name:it":"Orano","name:ja":"オラン","name:ka":"ორანის პროვინცია","name:kab":"Wehran","name:kab-Arab":"وهران","name:ko":"오랑","name:lad":"Wahran","name:lt":"Oranas","name:ms":"Wilayah Oran","name:nl":"Oran","name:no":"Oran","name:pa":"ਵਹਿਰਾਨ","name:pl":"Prowincja Oran","name:pnb":"وہران","name:pt":"Orã","name:ro":"Provincia Oran","name:ru":"Оран","name:sco":"Oran Province","name:se":"Oran eanangoddi","name:sh":"Oran","name:sr":"Оран","name:sv":"Oran","name:sw":"Jimbo la Oran","name:tg":"Вилояти Вуҳрон","name:tl":"Lalawigan ng Oran","name:tr":"Vahran","name:uk":"Оран","name:ur":"وہران","name:vi":"Oran","name:war":"Oran","name:zh":"瓦赫蘭","name:zu":"Oran Province","ref":"31","type":"boundary","wikidata":"Q231331","wikipedia":"ar:ولاية وهران"},"id":"relation/1259187"},
{"type":"Feature","geometry":{"type":"Polygon","coordinates":[[[-0.618665,35.359438],[-0.582419,35.424361],[-0.62654,35.519809],[-0.736998,35.517343],[-0.853306,35.47333],[-1.021012,35.467844],[-0.9669618,35.5664398],[-1.0615437,35.6388567],[-1.2147829,35.5156346],[-1.2750886,35.365415],[-1.5876237,35.238079],[-1.506234,35.152324],[-1.4063162,35.2075146],[-1.251398,35.206584],[-1.005036,35.093473],[-0.901261,35.186018],[-0.873994,35.279807],[-0.740165,35.341569],[-0.618665,35.359438]]]},"properties":{"@id":"relation/1259188","ISO3166-2":"DZ-46","admin_level":"4","boundary":"administrative","long_name":"ولاية عين تموشنت","long_name:ar":"ولاية عين تموشنت","long_name:en":"Aïn Témouchent Province","long_name:es":"Provincia de Aín Temushent","long_name:fa":"استان عین تموشنت","long_name:fr":"Wilaya d'Aïn Témouchent","long_name:ur":"صوبہ عین تموشنت","name":"Aïn Témouchent","name:ar":"عين تموشنت","name:arz":"عين تموشنت","name:az-Arab":"عین تموشنت","name:azb":"عین تموشنت","name:ber":"ⵄⵉⵏ ⵜⵉⵎⵓⵛⴻⵏⵜ","name:bg":"Айн Темушент","name:ca":"Aïn Témouchent","name:de":"Ain Tumuschant","name:el":"Αΐν Τεμουσέντ","name:en":"Aïn Témouchent","name:es":"Aín Temushent","name:fa":"عین تموشنت","name:fr":"Aïn Témouchent","name:it":"ʿAyn Temūshent","name:ja":"アイン・ティムシェント","name:kab":"Ɛin Timucent","name:kab-Arab":"عين تموشنت","name:ko":"아인테무셴트","name:ks":"عین تموشنت","name:lt":"Ain Temušentas","name:ms":"Aïn Témouchent","name:nl":"Aïn Témouchent","name:no":"Aïn Témouchent","name:pa-Arab":"عین تموشنت","name:pl":"Ajn Tumuszanat","name:pnb":"عین تموشنت","name:pt":"Aïn Témouchent","name:ro":"Aïn Témouchent","name:ru":"Айн-Темушент","name:sh":"Ajn Temušent","name:sq":"Ain Temouchent","name:uk":"Айн-Темушент","name:ur":"عین تموشنت","name:vi":"Aïn Témouchent","name:war":"Aïn Témouchent","name:zh":"艾因泰穆尚特","ref":"46","type":"boundary","wikidata":"Q233670","wikipedia":"fr:Wilaya d'Aïn Témouchent"},"id":"relation/1259188"},
{"type":"Feature","geometry":{"type":"Polygon","coordinates":[[[-0.618665,35.359438],[-0.740165,35.341569],[-0.873994,35.279807],[-0.901261,35.186018],[-1.005036,35.093473],[-0.912221,35.053841],[-0.9721657,34.9699095],[-0.869709,34.855375],[-0.888914,34.739817],[-0.79266,34.749614],[-0.782952,34.674388],[-0.845015,34.504167],[-1.026831,34.378637],[-1.125253,34.279905],[-1.072909,34.217397],[-0.974557,34.280208],[-0.779664,34.228759],[-0.602729,34.325875],[-0.50247,34.274726],[-0.471269,34.139345],[-0.407453,34.052698],[-0.368677,33.935425],[-0.29479,33.964164],[-0.211543,34.065193],[-0.071266,34.086853],[0.03962,34.242288],[-0.020544,34.448165],[-0.07786,34.504402],[-0.196942,34.460172],[-0.23805,34.640645],[-0.034109,34.572413],[-0.103813,34.695534],[-0.302907,34.796197],[-0.347956,34.88426],[-0.310804,34.982347],[-0.230628,34.99495],[-0.238823,35.089887],[-0.174487,35.119495],[-0.179849,35.351199],[-0.400126,35.436222],[-0.521517,35.439807],[-0.618665,35.359438]]]},"properties":{"@id":"relation/1259189","ISO3166-2":"DZ-22","admin_level":"4","alt_name:azb":"سیدی بلعباس","alt_name:el":"Σίντι Μπελ Αμπές","alt_name:fa":"سیدی بلعباس","alt_name:kab":"Sidi bel ɛebbas","alt_name:pnb":"سیدی بلعباس","alt_name:ur":"سیدی بلعباس","boundary":"administrative","long_name":"ولاية سيدي بلعباس","long_name:ar":"ولاية سيدي بلعباس","long_name:en":"Sidi Bel Abbès Province","long_name:fr":"Wilaya de Sidi Bel Abbès","name":"Sidi Bel Abbès","name:ar":"سيدي بلعباس","name:ast":"Provincia de Sidi Bel Abbes","name:azb":"سیدی بلعباس اوستانی","name:be":"Сідзі-Бель-Абес","name:be-tarask":"Сыдзі-Бэль-Абэс","name:ber":"ⵙⵉⴷⵉ ⴱⴻⵍ ⵄⴻⴱⴱⴰⵙ","name:bg":"Сиди Бел Абес","name:ca":"Província de Sidi Bel Abbès","name:ceb":"Wilaya de Sidi Bel Abbès","name:da":"Sidi Bel Abbes","name:de":"Sidi Bel Abbès","name:el":"Επαρχία Σιντί Μπελ Αμπές","name:en":"Sidi Bel Abbès","name:eo":"Provinco Sidi Bel Abbes","name:es":"Provincia de Sidi Bel Abbes","name:eu":"Sidi Bel Abbesko probintzia","name:fa":"استان سیدی بلعباس","name:fr":"Sidi Bel Abbès","name:gl":"Vilaia de Sidi Bel Abbes","name:hi":"सिदी बेल अब्बास प्रांत","name:id":"Provinsi Sidi Bil `Abbas","name:it":"Provincia di Sidi Bel Abbes","name:ja":"シディ・ベル・アッベス県","name:ka":"სიდი-ბელ-აბესის პროვინცია","name:kab":"Tawilayt n Sidi Belɛebbas","name:ks":"سیدی بلعباس","name:lt":"Sidi bel Abeso vilaja","name:ms":"Wilayah Sidi Bel Abbès","name:nan":"Sidi Bel Abbès Séng","name:nl":"Sidi-bel-Abbès","name:no":"Sidi bel Abbès","name:pl":"Prowincja Sidi Bu-l-Abbas","name:pnb":"صوبہ سیدی بلعباس","name:pt":"Sidi Bel Abbès","name:ro":"Provincia Sidi Bel Abbès","name:ru":"Сиди-Бель-Аббес","name:sco":"Sidi Bel Abbès Province","name:se":"Sidi Bel Abbes eanangoddi","name:sh":"Sidi Bel Abes","name:sr":"Сиди Бел Абес","name:sv":"Sidi Bel Abbès","name:sw":"Wilaya ya Sidi Bel Abbes","name:tg":"Вилояти Сиди Бил-Аббос","name:tl":"Lalawigan ng Sidi Bel Abbès","name:tr":"Sidi Belabbas Vilayeti","name:uk":"Сіді-Бель-Аббес","name:ur":"صوبہ سیدی بلعباس","name:vi":"Sidi Bel Abbès","name:war":"Sidi Bel Abbes","name:zh":"西迪贝勒阿巴斯省","name:zu":"Sidi Bel Abbès Province","ref":"22","type":"boundary","wikidata":"Q235714","wikipedia":"ar:ولاية سيدي بلعباس"},"id":"relation/1259189"},
{"type":"Feature","geometry":{"type":"Polygon","coordinates":[[[-0.174487,35.119495],[0.176048,35.053393],[0.330419,35.076483],[0.439578,35.046918],[0.486753,35.097522],[0.5933947,35.1916462],[0.680226,35.31007],[0.798363,35.279016],[0.864088,35.336197],[0.830927,35.445208],[0.504237,35.5117771],[0.438248,35.573504],[0.344807,35.551962],[0.227202,35.704474],[-0.018354,35.718509],[-0.115647,35.784642],[-0.1892521,35.6949319],[-0.2675903,35.6765333],[-0.390697,35.593264],[-0.403268,35.526574],[-0.521517,35.439807],[-0.400126,35.436222],[-0.179849,35.351199],[-0.174487,35.119495]]]},"properties":{"@id":"relation/1259190","ISO3166-2":"DZ-29","admin_level":"4","alt_name":"أم عسكر;ولاية أم عسكر","alt_name:ar":"أم عسكر;ولاية أم عسكر","alt_name:pt":"Muaskar","boundary":"administrative","long_name":"ولاية معسكر","long_name:ar":"ولاية معسكر","long_name:de":"Wilaya Muaskar","long_name:en":"Mascara Province","long_name:fa":"استان معسکر","long_name:fr":"Wilaya de Mascara","long_name:pnb":"صوبہ معسکر","long_name:ur":"صوبہ معسکر","name":"Mascara","name:ar":"معسكر","name:azb":"معسکر","name:be":"Маскара","name:ber":"ⵎⵄⴻⵙⴽⴻⵔ","name:bg":"Маскара","name:ca":"Mascara","name:da":"Muaskar","name:de":"Muaskar","name:el":"Μασκάρα","name:en":"Mascara","name:eo":"Muaskar","name:es":"Muaskar","name:fa":"معسکر","name:fr":"Mascara","name:gl":"Mascara","name:hi":"मस्कारा प्रांत","name:it":"Mascara","name:ja":"マスカラ県","name:ka":"მასკარის პროვინცია","name:kab":"Mɛesker","name:kab-Arab":"معسكر","name:ko":"마스카라주","name:ks":"معسکر","name:lt":"Maskaros vilaja","name:ms":"Mascara","name:nl":"Mascara","name:no":"Muaskar","name:pl":"Mu’askar","name:pnb":"معسکر","name:pt":"Mascara","name:ro":"Mascara","name:ru":"Маскара","name:se":"Mascara","name:sr":"Маскара","name:sv":"Muaskar","name:sw":"Mascara","name:tg":"Муаскар","name:tl":"Mascara","name:tr":"Muaskar","name:uk":"Маскара","name:ur":"معسکر","name:vi":"Mascara","name:zh":"穆阿斯凯尔省","population":"966000","population:date":"2018","ref":"29","type":"boundary","wikidata":"Q236776","wikipedia":"ar:ولاية معسكر"},"id":"relation/1259190"},
{"type":"Feature","geometry":{"type":"Polygon","coordinates":[[[0.693788,36.206003],[0.7404979,36.3340333],[0.6584877,36.3303086],[0.4512441,36.220973],[0.3466802,36.1955695],[0.1348414,36.0409652],[0.025099,35.860027],[-0.113693,35.7891061],[-0.115647,35.784642],[-0.018354,35.718509],[0.227202,35.704474],[0.310317,35.782224],[0.40275,35.801072],[0.462825,35.872286],[0.43225,35.934223],[0.631806,36.004064],[0.603786,36.118539],[0.693788,36.206003]]]},"properties":{"@id":"relation/1259191","ISO3166-2":"DZ-27","admin_level":"4","alt_name:el":"Επαρχία Μοσταγκανέμ","alt_name:es":"Provincia de Mostaganem","alt_name:kab":"Tawilayt n Mestɣanem","alt_name:lt":"Mostaganemo vilaja","alt_name:pl":"Prowincja Mustaghanim","boundary":"administrative","long_name":"ولاية مستغانم","long_name:ar":"ولاية مستغانم","long_name:azb":"مستغانم اوستانی","long_name:en":"Mostaganem Province","long_name:fa":"استان مستغانم","long_name:fr":"Wilaya de Mostaganem","long_name:pnb":"صوبہ مستاغانم","long_name:ur":"صوبہ مستغانم","name":"Mostaganem","name:ar":"مستغانم","name:ast":"Provincia de Mostaganem","name:azb":"مستغانم","name:be":"Мастаганем","name:be-tarask":"Мастаганэм","name:ber":"ⵎⵓⵙⵜⵖⴰⵏⴻⵎ","name:bg":"Мостаганем","name:ceb":"Wilaya de Mostaganem","name:da":"Mostaganem","name:de":"Mostaganem","name:el":"Μοσταγκάνεμ","name:en":"Mostaganem","name:eo":"Provinco Mostaganem","name:es":"Mostaganem","name:eu":"Mostaganemgo probintzia","name:fa":"مستغانم","name:fr":"Mostaganem","name:gl":"Vilaia de Mostaganem","name:hi":"मोस्तगनेम प्रांत","name:id":"Provinsi Mostaganem","name:it":"Provincia di Mostaganem","name:ja":"モスタガネム県","name:ka":"მოსთაღანემის პროვინცია","name:kab":"Mustɣanem","name:kab-Arab":"مستغانم","name:ko":"모스타가넴주","name:ks":"مستغانم","name:lad":"Mostaganem","name:lt":"Mostaganemas","name:ms":"Wilayah Mostaganem","name:nl":"Mostaganem","name:no":"Mostaganem","name:pl":"Mustaghanam","name:pnb":"مستغانم","name:pt":"Mostaganem","name:ro":"Provincia Mostaganem","name:ru":"Мостаганем","name:se":"Mostaganem eanangoddi","name:sh":"Mostaganem","name:sr":"Мостаганем","name:sv":"Mostaganem","name:sw":"Wilaya ya Mostaganem","name:tg":"Вилояти Мустағоним","name:tl":"Lalawigan ng Mostaganem","name:tr":"Mostaganem Vilayeti","name:uk":"Мостаганем","name:ur":"مستغانم","name:vi":"Mostaganem","name:war":"Mostaganem","name:zh":"穆斯塔加奈姆","name:zu":"Mostaganem Province","ref":"27","type":"boundary","wikidata":"Q221445","wikipedia":"ar:ولاية مستغانم"},"id":"relation/1259191"},
{"type":"Feature","geometry":{"type":"Polygon","coordinates":[[[6.94853,36.419475],[6.833933,36.469795],[6.83093,36.525656],[6.718888,36.578712],[6.510703,36.5814],[6.507414,36.520267],[6.349959,36.491333],[6.316648,36.369645],[6.425681,36.323119],[6.531723,36.170606],[6.655739,36.144134],[6.818809,36.155827],[7.000277,36.14205],[7.049118,36.221488],[6.94853,36.419475]]]},"properties":{"@id":"relation/1273368","admin_level":"4","alt_name:el":"Επαρχία Κωνσταντίνης","alt_name:es":"Provincia de Constantina","alt_name:fa":"استان قسنطینه","alt_name:kab":"Tawilayt n Qsenṭina","alt_name:la":"Constantina;Qacentina","alt_name:lt":"Konstantinos vilaja","alt_name:pnb":"صوبہ قسنطینہ","alt_name:tr":"Konstantine Vilayeti","alt_name:ur":"صوبہ قسنطینہ","boundary":"administrative","long_name":"ولاية قسنطينة","long_name:ar":"ولاية قسنطينة","long_name:en":"Constantine Province","long_name:fr":"Wilaya de Constantine","name":"Constantine","name:ar":"قسنطينة","name:ast":"Provincia de Constantina","name:azb":"قسنطینه","name:be":"Канстанціна","name:be-tarask":"Канстантына","name:ber":"ⵇⵙⴻⵏⵟⵉⵏⴰ","name:bg":"Константин","name:ca":"Província de Constantina","name:ceb":"Wilaya de Constantine","name:da":"Constantine","name:de":"Constantine","name:diq":"Konstantin","name:el":"Κωνσταντίνη","name:en":"Constantine","name:eo":"Provinco Konstantina","name:es":"Constantina","name:eu":"Konstantinako probintzia","name:fa":"قسنطینه","name:fr":"Constantine","name:gl":"Vilaia de Constantina","name:hi":"कॉन्स्टैन्टाइन प्रांत","name:id":"Provinsi Qusnathinah","name:it":"Provincia di Costantina","name:ja":"コンスタンティーヌ県","name:ka":"კონსტანტინის პროვინცია","name:kab":"Qsenṭina","name:ko":"콩스탕틴주","name:la":"Cirta","name:lad":"Konstantin","name:lt":"Konstantina","name:ms":"Wilayah Constantine","name:nl":"Constantine","name:no":"Constantine","name:pl":"Prowincja Konstantyna","name:pnb":"قسنطینہ","name:pt":"Constantina","name:ro":"Provincia Constantina","name:ru":"Константина","name:se":"Constantine eanangoddi","name:sh":"Konstantin","name:sk":"Constantine","name:sr":"Константин","name:sv":"Constantine","name:sw":"Wilaya ya Constantine","name:tg":"Вилояти Қустантина","name:tl":"Lalawigan ng Constantine","name:tr":"Konstantin","name:uk":"Константіна","name:ur":"قسنطینہ","name:vi":"Constantine","name:war":"Constantine","name:zh":"君士坦丁省","name:zu":"Constantine Province","ref":"25","type":"boundary","wikidata":"Q232043","wikipedia":"ar:ولاية قسنطينة"},"id":"relation/1273368"},
{"type":"Feature","geometry":{"type":"Polygon","coordinates":[[[7.6583947,36.6484577],[7.554292,36.608051],[7.497625,36.660528],[7.346692,36.65973],[7.07138,36.561292],[7.082045,36.501538],[6.954671,36.47902],[6.94853,36.419475],[7.049118,36.221488],[7.000277,36.14205],[7.0816322,36.0244092],[7.315404,36.141907],[7.30312,36.227215],[7.445311,36.203898],[7.610282,36.231978],[7.836592,36.301298],[7.867732,36.405633],[7.959225,36.461609],[7.924794,36.530763],[7.794057,36.539185],[7.763889,36.622373],[7.6583947,36.6484577]]]},"properties":{"@id":"relation/1273369","ISO3166-2":"DZ-24","admin_level":"4","alt_name":"ڤالمة;ولاية ڤالمة","alt_name:azb":"قالمه اوستانی","alt_name:el":"Επαρχία Γκελμά","alt_name:fa":"استان قالمه","alt_name:kab":"Tawilayt n Galma","alt_name:pnb":"صوبہ قالمہ","alt_name:ur":"صوبہ قالمہ","boundary":"administrative","long_name":"ولاية قالمة","long_name:ar":"ولاية قالمة","long_name:en":"Guelma Province","long_name:fr":"Wilaya de Guelma","name":"Guelma","name:ar":"قالمة","name:ast":"Provincia de Guelma","name:azb":"قالمه","name:be":"Гельма","name:be-tarask":"Гельма","name:ber":"ⴳⴰⵍⵎⴰ","name:bg":"Гелма","name:ca":"Província de Guelma","name:ceb":"Wilaya de Guelma","name:da":"Guelma","name:de":"Guelma","name:el":"Γκουέλμα","name:en":"Guelma","name:eo":"Provinco Gelma","name:es":"Provincia de Guelma","name:eu":"Guelmako probintzia","name:fa":"قالمه","name:fr":"Guelma","name:gl":"Vilaia de Guelma","name:hi":"गुएलमा प्रांत","name:ia":"Provincia de Guelma","name:id":"Provinsi Guelma","name:it":"Provincia di Guelma","name:ja":"ゲルマ県","name:ka":"გუელმის პროვინცია","name:kab":"Galma","name:ko":"겔마주","name:lt":"Gelmos vilaja","name:ms":"Wilayah Guelma","name:nl":"Guelma","name:no":"Guelma","name:pl":"Prowincja Kalima","name:pnb":"قالمہ","name:pt":"Guelma","name:ro":"Provincia Guelma","name:ru":"Гельма","name:se":"Guelma eanangoddi","name:sh":"Gelma","name:sr":"Гелма","name:sv":"Guelma","name:sw":"Wilaya ya Guelma","name:tg":"Вилояти Қолма","name:tl":"Lalawigan ng Guelma","name:tr":"Kalime Vilayeti","name:uk":"Гельма","name:ur":"قالمہ","name:vi":"Guelma","name:war":"Guelma","name:zh":"盖勒马省","name:zu":"Guelma Province","old_name":"مالقا;مالكا","old_name:ar":"مالقا;مالكا","old_name:fr":"Calama;Malacca","ref":"24","type":"boundary","wikidata":"Q235727","wikipedia":"ar:ولاية قالمة"},"id":"relation/1273369"},
{"type":"Feature","geometry":{"type":"Polygon","coordinates":[[[6.463991,36.576147],[6.254993,36.610335],[6.241528,36.58226],[5.992201,36.617436],[5.928452,36.55464],[5.7361265,36.5565599],[5.746818,36.46486],[5.892575,36.257002],[5.938111,36.234656],[5.915674,36.110112],[5.975519,36.101544],[6.026243,35.94017],[5.9686444,35.8927053],[6.160791,35.884681],[6.202784,35.965377],[6.343262,35.975461],[6.40493,36.033961],[6.417139,36.14081],[6.531723,36.170606],[6.425681,36.323119],[6.316648,36.369645],[6.349959,36.491333],[6.507414,36.520267],[6.510703,36.5814],[6.463991,36.576147]]]},"properties":{"@id":"relation/1273544","ISO3166-2":"DZ-43","admin_level":"4","alt_name:el":"Επαρχία Μίλα","alt_name:kab":"Tawilayt n Mila","boundary":"administrative","long_name:ar":"ولاية ميلة","long_name:en":"Mila Province","long_name:fr":"Wilaya de Mila","name":"Mila","name:ar":"ميلة","name:ast":"Provincia de Mila","name:be":"Міла","name:be-tarask":"Міла","name:ber":"ⵎⵉⵍⴰ","name:bg":"Мила","name:ca":"Província de Mila","name:ceb":"Wilaya de Mila","name:da":"Mila","name:de":"Mila","name:el":"Μίλα","name:en":"Mila","name:eo":"Provinco Mila","name:es":"Provincia de Mila","name:eu":"Milako probintzia","name:fa":"استان میله","name:fr":"Mila","name:gl":"Vilaia de Mila","name:hi":"मिला प्रांत","name:ia":"Provincia de Mila","name:id":"Provinsi Mila","name:it":"Provincia di Mila","name:ja":"ミラ県","name:ka":"მილის პროვინცია","name:kab":"Mila","name:ko":"밀라주","name:lt":"Milos vilaja","name:ms":"Wilayah Mila","name:nl":"Mila","name:no":"Mila","name:pl":"Prowincja Mila","name:pnb":"صوبہ میلہ","name:pt":"Mila","name:ro":"Provincia Mila","name:ru":"Мила","name:se":"Mila eanangoddi","name:sh":"Mila","name:sr":"Мила","name:sv":"Mila","name:sw":"Wilaya ya Mila","name:tg":"Вилояти Мила","name:tl":"Lalawigan ng Mila","name:tr":"Mila Vilayeti","name:uk":"Міла","name:ur":"صوبہ میلہ","name:vi":"Mila","name:war":"Mila","name:zh":"米拉省","name:zu":"Mila Province","ref":"43","type":"boundary","wikidata":"Q235723","wikipedia":"fr:Wilaya de Mila"},"id":"relation/1273544"},
{"type":"Feature","geometry":{"type":"Polygon","coordinates":[[[7.2875762,37.0757507],[7.2455209,36.9881054],[7.1609008,36.9167461],[6.9307032,36.8807701],[6.8387991,36.9553177],[6.7202707,36.945155],[6.5838494,36.9752998],[6.4722821,37.088322],[6.2660694,37.0271275],[6.2566244,36.9397419],[6.343298,36.854807],[6.370739,36.725894],[6.510529,36.665678],[6.463991,36.576147],[6.510703,36.5814],[6.718888,36.578712],[6.83093,36.525656],[6.833933,36.469795],[6.94853,36.419475],[6.954671,36.47902],[7.082045,36.501538],[7.07138,36.561292],[7.346692,36.65973],[7.398407,36.725787],[7.372845,36.902309],[7.2875762,37.0757507]]]},"properties":{"@id":"relation/1273552","ISO3166-2":"DZ-21","admin_level":"4","alt_name:azb":"سکیکده اوستانی","alt_name:el":"Επαρχία Σκικντά","alt_name:fa":"استان سکیکده","alt_name:kab":"Tawilayt n Skikda","alt_name:pl":"Prowincja Sukajkida","alt_name:pnb":"صوبہ سکیکدہ","alt_name:ur":"صوبہ سکیکدہ","boundary":"administrative","long_name":"ولاية سكيكدة","long_name:ar":"ولاية سكيكدة","long_name:en":"Skikda Province","long_name:fr":"Wilaya de Skikda","name":"Skikda","name:ar":"سكيكدة","name:ast":"Provincia de Skikda","name:azb":"سکیکده","name:be":"Скікда","name:be-tarask":"Скікда","name:ber":"ⵙⴽⵉⴽⴷⴰ","name:bg":"Скикда","name:ca":"Província de Skikda","name:ceb":"Wilaya de Skikda","name:de":"Skikda","name:el":"Σκίκντα","name:en":"Skikda","name:eo":"Provinco Skikda","name:es":"Provincia de Skikda","name:eu":"Skikdako probintzia","name:fa":"سکیکده","name:fr":"Skikda","name:gl":"Vilaia de Skikda","name:hi":"स्किक्डा प्रांत","name:id":"Provinsi Skikda","name:it":"Provincia di Skikda","name:ja":"スキクダ県","name:ka":"სკიკდის პროვინცია","name:kab":"Skikda","name:ko":"스킥다주","name:la":"Rusicade","name:lad":"Skikda","name:lt":"Skikdos vilaja","name:ms":"Wilayah Skikda","name:nl":"Skikda","name:no":"Skikda","name:pl":"Sukajkida","name:pnb":"سکیکدہ","name:pt":"Skikda","name:ro":"Provincia Skikda","name:ru":"Скикда","name:se":"Skikda eanangoddi","name:sh":"Skikda","name:sr":"Скикда","name:sv":"Skikda","name:sw":"Wilaya ya Skikda","name:tg":"Вилояти Скикда","name:tl":"Lalawigan ng Skikda","name:tr":"Sekikda Vilayeti","name:uk":"Скікда","name:ur":"سکیکدہ","name:vi":"Skikda","name:war":"Skikda","name:zh":"斯基克达","name:zu":"Skikda Province","old_name":"فليب فيل","old_name:ar":"فليب فيل","old_name:fr":"Philippeville","ref":"21","type":"boundary","wikidata":"Q234227","wikipedia":"ar:ولاية سكيكدة"},"id":"relation/1273552"},
{"type":"Feature","geometry":{"type":"Polygon","coordinates":[[[6.463991,36.576147],[6.510529,36.665678],[6.370739,36.725894],[6.343298,36.854807],[6.2566244,36.9397419],[6.0005169,36.8411666],[5.791393,36.8075595],[5.7422713,36.8288186],[5.5570705,36.7462983],[5.423783,36.6542817],[5.470178,36.595281],[5.522256,36.523182],[5.7361265,36.5565599],[5.928452,36.55464],[5.992201,36.617436],[6.241528,36.58226],[6.254993,36.610335],[6.463991,36.576147]]]},"properties":{"@id":"relation/1278746","ISO3166-2":"DZ-18","admin_level":"4","alt_name":"إجيلجلي","alt_name:ar":"إجيلجلي","alt_name:el":"Επαρχία Τζιτζέλ","alt_name:fr":"Djidjelli","alt_name:kab":"Tawilayt n Ǧiǧel","boundary":"administrative","long_name":"ولاية جيجل","long_name:ar":"ولاية جيجل","long_name:azb":"جیجل اوستانی","long_name:de":"Provinz Jijel","long_name:en":"Jijel Province","long_name:es":"Provincia de Jijel","long_name:fa":"استان جیجل","long_name:fr":"Wilaya de Jijel","long_name:pnb":"صوبہ جیجل","long_name:ur":"صوبہ جیجل","name":"Jijel","name:ar":"جيجل","name:ary":"ولاية جيجل","name:ast":"Provincia de Jijel","name:az-Arab":"جیجل","name:azb":"جیجل","name:be":"Джыджэль","name:be-tarask":"Джыджэль","name:ber":"ⵉⵖⵉⵍ ⴳⵉⵍⵉ","name:bg":"Джиджел","name:ca":"Província de Jijel","name:ceb":"Wilaya de Jijel","name:da":"Jijel","name:de":"Jijel","name:el":"Τζιτζέλ","name:en":"Jijel","name:eo":"Provinco Jijel","name:es":"Jijel","name:eu":"Jijelgo probintzia","name:fa":"جیجل","name:fr":"Jijel","name:gl":"Vilaia de Jijel","name:hi":"जिजेल प्रांत","name:ia":"Provincia de Jijel","name:id":"Provinsi Jijel","name:it":"Provincia di Jijel","name:ja":"ジジェル県","name:ka":"ჯიჯელის პროვინცია","name:kab":"Ighil Gili","name:ko":"지젤주","name:ks":"جیجل","name:lad":"Jiyel","name:lt":"Džidželio vilaja","name:ms":"Wilayah Jijel","name:nl":"Jijel","name:no":"Jijel","name:ota":"جیجل","name:pl":"Prowincja Dżidżal","name:pnb":"جیجل","name:pt":"Jijel","name:ro":"Provincia Jijel","name:ru":"Джиджель","name:se":"Jijel eanangoddi","name:sh":"Džidžel","name:sr":"Џиџел","name:sv":"Jijel","name:sw":"Wilaya ya Jijel","name:tg":"Вилояти Ҷиҷал","name:tl":"Lalawigan ng Jijel","name:tr":"Cicel Vilayeti","name:uk":"Джиджель","name:ur":"جیجل","name:vi":"Jijel","name:war":"Jijel","name:zh":"吉杰勒省","name:zu":"Jijel Province","ref":"18","type":"boundary","wikidata":"Q235718","wikipedia":"ar:ولاية جيجل","wikipedia:ar":"ولاية جيجل","wikipedia:es":"Provincia de Jijel"},"id":"relation/1278746"},
{"type":"Feature","geometry":{"type":"Polygon","coordinates":[[[5.7361265,36.5565599],[5.522256,36.523182],[5.470178,36.595281],[5.459429,36.538711],[5.353354,36.474309],[5.262399,36.365452],[5.193522,36.3611],[5.1445466,36.5660211],[5.052424,36.565922],[4.973181,36.508512],[4.7282847,36.4310375],[4.791875,36.39716],[4.814881,36.29498],[4.992413,36.324257],[5.162457,36.197066],[5.185064,36.044698],[5.121697,35.990062],[5.13203,35.85233],[5.032957,35.784205],[5.171974,35.653867],[5.33783,35.631179],[5.420876,35.723251],[5.5373218,35.7848341],[5.6457283,35.7451904],[5.7393729,35.8124144],[5.688238,35.863679],[5.809652,35.922747],[5.8928393,35.8436518],[5.9686444,35.8927053],[6.026243,35.94017],[5.975519,36.101544],[5.915674,36.110112],[5.938111,36.234656],[5.892575,36.257002],[5.746818,36.46486],[5.7361265,36.5565599]]]},"properties":{"@id":"relation/1278747","ISO3166-2":"DZ-19","admin_level":"4","alt_name:el":"Επαρχία Σετίφ","alt_name:eo":"Provinco Setif","alt_name:es":"Provincia de Sétif","alt_name:gl":"Vilaia de Setif","alt_name:ia":"Provincia de Sétif","alt_name:id":"Provinsi Sathif","alt_name:it":"Provincia di Sétif","alt_name:kab":"Tawilayt n Sṭif","alt_name:ms":"Wilayah Sétif","alt_name:pl":"Prowincja Satif","alt_name:ro":"Provincia Sétif","alt_name:se":"Sétif eanangoddi","alt_name:sw":"Wilaya ya Setif","alt_name:tg":"Вилояти Ситиф","alt_name:tl":"Lalawigan ng Sétif","alt_name:tr":"Setif Vilayeti","boundary":"administrative","long_name":"ولاية سطيف","long_name:ar":"ولاية سطيف","long_name:en":"Sétif Province","long_name:fa":"استان سطیف","long_name:fr":"Wilaya de Sétif","long_name:pnb":"صوبہ سطیف","long_name:ur":"صوبہ سطیف","name":"Sétif","name:ar":"سطيف","name:ast":"Provincia de Sétif","name:azb":"سطیف","name:be":"Сетыф","name:be-tarask":"Сэтыф","name:ber":"ⵙⵟⵉⴼ","name:bg":"Сетиф","name:ceb":"Wilaya de Sétif","name:da":"Sétif","name:de":"Sétif","name:el":"Σετίφ","name:en":"Setif","name:eo":"Setif","name:es":"Sétif","name:et":"Sétifi provints","name:eu":"Setifeko probintzia","name:fa":"سطیف","name:fr":"Sétif","name:gl":"Setif","name:hi":"सेतिफ प्रांत","name:ia":"Setif","name:id":"Sathif","name:it":"Sétif","name:ja":"セティフ県","name:ka":"სეტიფის პროვინცია","name:kab":"Sṭif","name:kab-Arab":"سطيف","name:ko":"세티프 주","name:ks":"سطیف","name:lad":"Setif","name:lt":"Setifo vilaja","name:ms":"Sétif","name:nl":"Sétif","name:no":"Sétif","name:pl":"Satif","name:pnb":"سطیف","name:pt":"Sétif","name:ro":"Sétif","name:ru":"Сетиф","name:se":"Sétif","name:sh":"Setif","name:sr":"Сетиф","name:sv":"Sétif","name:sw":"Sétif","name:tg":"Ситиф","name:tl":"Sétif","name:tr":"Setif","name:uk":"Сетіф","name:ur":"سطیف","name:vi":"Sétif","name:war":"Sétif","name:zh":"塞提夫省","name:zu":"Sétif Province","ref":"19","type":"boundary","wikidata":"Q237164","wikipedia":"ar:ولاية سطيف"},"id":"relation/1278747"},
{"type":"Feature","geometry":{"type":"Polygon","coordinates":[[[5.9686444,35.8927053],[5.8928393,35.8436518],[5.809652,35.922747],[5.688238,35.863679],[5.7393729,35.8124144],[5.6457283,35.7451904],[5.5373218,35.7848341],[5.420876,35.723251],[5.33783,35.631179],[5.207293,35.51934],[4.913294,35.481752],[4.868414,35.266272],[4.749992,35.146758],[4.887851,35.141545],[4.986539,35.085079],[5.286743,35.004789],[5.303588,35.047355],[5.489262,35.046785],[5.585441,35.090724],[5.554679,35.156331],[5.613946,35.226114],[5.7481339,35.2856456],[5.879556,35.209447],[5.897796,35.034405],[5.991604,35.007945],[6.0498483,35.0702713],[6.144894,34.982735],[6.265815,35.049715],[6.4060858,35.0807084],[6.458921,35.022789],[6.421477,34.956668],[6.424164,34.835735],[6.533835,34.758549],[6.583368,34.771088],[6.597327,34.885002],[6.499641,35.108384],[6.55141,35.145108],[6.5802558,35.3443628],[6.572545,35.4357631],[6.7601908,35.5043959],[6.7918838,35.5733826],[6.7734133,35.6728814],[6.6761783,35.7698295],[6.4988825,35.77077],[6.478171,35.842311],[6.35459,35.85658],[6.2728306,35.8298038],[6.160791,35.884681],[5.9686444,35.8927053]]]},"properties":{"@id":"relation/1278748","ISO3166-2":"DZ-05","admin_level":"4","alt_name:el":"Επαρχία Μπάτνα","alt_name:kab":"Tawilayt n Tbatent","boundary":"administrative","long_name:ar":"ولاية باتنة","long_name:en":"Batna Province","long_name:fr":"Wilaya de Batna","name":"Batna","name:ar":"باتنة","name:az":"Batna vilayəti","name:be":"Батна (правінцыя)","name:be-tarask":"Батна","name:ber":"ⵜⴱⴰⵜⴻⵏⵜ","name:bg":"Батна","name:br":"Batna","name:ca":"Província de Batna","name:ceb":"Wilaya de Batna","name:da":"Batna","name:de":"Batna","name:el":"Μπάτνα","name:en":"Batna","name:eo":"Provinco Batna","name:es":"Provincia de Batna","name:eu":"Batnako probintzia","name:fa":"استان باتنه","name:fr":"Batna","name:gl":"Vilaia de Batna","name:hi":"बटना प्रांत","name:ia":"Provincia de Batna","name:id":"Provinsi Batnah","name:it":"Provincia di Batna","name:ja":"バトナ県","name:ka":"ბატნის პროვინცია","name:kab":"Batna","name:ko":"바트나주","name:lt":"Batnos vilaja","name:ms":"Wilayah Batna","name:nl":"Batna","name:no":"Batna","name:pl":"Prowincja Batina","name:pnb":"صوبہ باتنہ","name:pt":"Batna","name:ro":"Provincia Batna","name:ru":"Батна","name:se":"Batna eanangoddi","name:sh":"Batna","name:sq":"Batna","name:sr":"Батна","name:sv":"Batna","name:sw":"Wilaya ya Batna","name:tg":"Вилояти Ботна","name:tl":"Lalawigan ng Batna","name:tr":"Batna Vilayeti","name:uk":"Батна","name:ur":"صوبہ باتنہ","name:vi":"Batna","name:war":"Batna","name:wuu":"巴特纳省","name:zh":"巴特纳省","name:zu":"Batna Province","ref":"05","type":"boundary","wikidata":"Q215452","wikipedia":"ar:ولاية باتنة"},"id":"relation/1278748"},
{"type":"Feature","geometry":{"type":"Polygon","coordinates":[[[7.547043,35.427981],[7.834243,35.63171],[7.812572,35.742168],[7.71904,35.895517],[7.647965,35.825248],[7.4381801,35.9122078],[7.315404,36.141907],[7.0816322,36.0244092],[7.000277,36.14205],[6.818809,36.155827],[6.655739,36.144134],[6.531723,36.170606],[6.417139,36.14081],[6.40493,36.033961],[6.343262,35.975461],[6.202784,35.965377],[6.160791,35.884681],[6.2728306,35.8298038],[6.35459,35.85658],[6.478171,35.842311],[6.4988825,35.77077],[6.6761783,35.7698295],[6.7734133,35.6728814],[6.808553,35.61022],[7.00121,35.627062],[7.084964,35.545249],[7.134652,35.621452],[7.224049,35.629761],[7.482934,35.506236],[7.547043,35.427981]]]},"properties":{"@id":"relation/1278749","ISO3166-2":"DZ-04","admin_level":"4","alt_name:el":"Επαρχία Ουμ ελ-Μπουαγκί","alt_name:kab":"Tawilayt n Um Lebwaqi","boundary":"administrative","long_name":"ولاية أم البواقي","long_name:ar":"ولاية أم البواقي","long_name:azb":"ام‌البواقی اوستانی","long_name:de":"Wilayat Umm al-Buwaqi","long_name:en":"Oum El Bouaghi Province","long_name:fa":"استان ام‌البواقی","long_name:fr":"Wilaya d'Oum El Bouaghi","long_name:pnb":"صوبہ ام البواقی","long_name:ur":"صوبہ ام البواقی","name":"Oum El Bouaghi","name:ar":"أم البواقي","name:ast":"Provincia d'Oum el-Bouaghi","name:az":"Umm-el-Buaqi vilayəti","name:azb":"ام‌البواقی","name:be":"Ум-эль-Буахі","name:be-tarask":"Ум-эль-Буагі","name:ber":"ⵓⵎⵍⴻⴱⵡⴰⵖⵉ","name:bg":"Ум ел-Буаги","name:ceb":"Oum el Bouaghi","name:da":"Oum el-Bouaghi","name:de":"Umm al-Buwaqi","name:el":"Ουμ Ελ Μπουαγκί","name:en":"Oum El Bouaghi","name:eo":"Provinco Um el-Buaghi","name:es":"Provincia de Oum el-Bouaghi","name:eu":"Oum-El-Bouaghiko probintzia","name:fa":"ام‌البواقی","name:fr":"Oum El Bouaghi","name:gl":"Vilaia de Oum El Bouaghi","name:hi":"ओउम एल बोअघी प्रांत","name:id":"Provinsi Oum el Bouaghi","name:it":"Provincia di Oum el-Bouaghi","name:ja":"ウメル・ブアーギ県","name:ka":"უმ-ელ-ბუახის პროვინცია","name:kab":"Umlebwaɣi","name:kab-Arab":"أملبواغي","name:ko":"움엘부아기주","name:ks":"ام البواقی","name:la":"Makumidas","name:lad":"Oum El Buaghi","name:lt":"Um el Buagio vilaja","name:ms":"Wilayah Oum El Bouaghi","name:nl":"Oum el-Bouaghi","name:no":"Oum el-Bouaghi","name:pl":"Prowincja Umm al-Bawaki","name:pnb":"ام البواقی","name:pt":"Oum el Bouaghi","name:ro":"Provincia Oum El Bouaghi","name:ru":"Умм-эль-Буаги","name:se":"Oum El Bouaghi eanangoddi","name:sh":"Um el Buagi","name:sr":"Ум ел Буаги","name:sv":"Oum El Bouaghi","name:sw":"Jimbo ya Oum el-Bouaghi","name:tg":"Вилояти Омм-ал-Буоағӣ","name:tl":"Lalawigan ng Oum El Bouaghi","name:tr":"Em El Buvaki Vilayeti","name:uk":"Ум-ель-Буакі","name:ur":"ام البواقی","name:vi":"Oum El Bouaghi","name:war":"Oum el-Bouaghi","name:wuu":"乌姆布瓦吉省","name:zh":"乌姆布瓦吉省","name:zu":"Oum El Bouaghi Province","old_name:ar":"كانروبير","old_name:fr":"Canrobert","ref":"04","type":"boundary","wikidata":"Q235705","wikipedia":"ar:ولاية أم البواقي"},"id":"relation/1278749"},
{"type":"Feature","geometry":{"type":"Polygon","coordinates":[[[4.583175,36.8830147],[4.649921,36.759111],[4.554499,36.592502],[4.436994,36.490862],[4.364041,36.466856],[4.39225,36.400281],[4.3745752,36.284345],[4.3976152,36.2212874],[4.610363,36.256531],[4.632152,36.36052],[4.7282847,36.4310375],[4.973181,36.508512],[5.052424,36.565922],[5.1445466,36.5660211],[5.193522,36.3611],[5.262399,36.365452],[5.353354,36.474309],[5.459429,36.538711],[5.470178,36.595281],[5.423783,36.6542817],[5.2410069,36.6424276],[5.084709,36.7068288],[5.0480416,36.782266],[4.7894892,36.8908707],[4.583175,36.8830147]]]},"properties":{"@id":"relation/1278765","ISO3166-2":"DZ-06","admin_level":"4","alt_name:be":"Беджая","alt_name:el":"Επαρχία Μπετζάγια","alt_name:ja":"ベジャイア県","alt_name:kab":"Tawilayt n Bgayet","alt_name:lt":"Bedžajos vilaja","alt_name:pl":"Prowincja Bidżaja","alt_name:sw":"Wilaya ya Bejaia","boundary":"administrative","long_name":"ولاية بجاية","long_name:ar":"ولاية بجاية","long_name:azb":"بجایه اوستانی","long_name:en":"Bejaia Province","long_name:es":"Provincia de Bugía","long_name:fa":"استان بجایه","long_name:fr":"Wilaya de Béjaïa","long_name:pnb":"صوبہ بجایہ","long_name:ur":"صوبہ بجایہ","name":"Béjaïa","name:ar":"بجاية","name:az":"Becaya vilayəti","name:azb":"بجایه","name:be":"Правінцыя Беджая","name:be-tarask":"Бэджая","name:ber":"ⴲⴳⴰⵢⴻⵝ","name:bg":"Бежая","name:ca":"Província de Bejaïa","name:ceb":"Wilaya de Bejaïa","name:cs":"Bidžája","name:da":"Béjaïa","name:de":"Bejaia","name:el":"Μπετζάια","name:en":"Bejaia","name:eo":"Provinco Beĵaja","name:es":"Provincia Bugía","name:eu":"Bejaia probintzia","name:fa":"بجایه","name:fr":"Béjaïa","name:gl":"Vilaia de Buxía","name:hi":"बेजैअ प्रांत","name:id":"Provinsi Bajayah","name:it":"Provincia di Béjaïa","name:ja":"ベジャイア","name:ka":"ბეჯაიის პროვინცია","name:kab":"Bgayet","name:kab-Arab":"بجاية","name:kk-Arab":"بەدجايا","name:ko":"베자이아 주","name:ks":"بجایہ","name:la":"Saldae","name:lad":"Bedjaya","name:lt":"Bedžaja","name:mk":"Беџаја","name:ms":"Wilayah Béjaïa","name:nl":"Béjaïa","name:no":"Béjaïa","name:ota":"بجایه","name:pl":"Bidżaja","name:pnb":"بجایہ","name:pt":"Bugia","name:ro":"Provincia Béjaïa","name:ru":"Беджая","name:se":"Béjaïa eanangoddi","name:sh":"Bedžaja","name:sr":"Беџаја","name:sv":"Béjaïa","name:sw":"Jimbo ya Béjaïa","name:tg":"Вилояти Баҷоя","name:tl":"Lalawigan ng Béjaïa","name:tr":"Becaye Vilayeti","name:uk":"Беджая","name:ur":"بجایہ","name:vi":"Béjaïa","name:war":"Béjaïa","name:wuu":"贝贾亚省","name:zh":"贝贾亚","name:zu":"Bejaia Province","old_name":"بوجي","old_name:ar":"بوجي","old_name:fr":"Bougie","population":"912577","population:date":"2008","postal_code":"06000","ref":"06","reg_name":"صالدى;الناصرية","reg_name:ar":"صالدى;الناصرية","reg_name:kab":"Vgayet","source:population":"الديوان الوطني للإحصائيات (الجزائر)","type":"boundary","wikidata":"Q233665","wikipedia":"ar:ولاية بجاية"},"id":"relation/1278765"},
{"type":"Feature","geometry":{"type":"Polygon","coordinates":[[[4.7282847,36.4310375],[4.632152,36.36052],[4.610363,36.256531],[4.3976152,36.2212874],[4.3745752,36.284345],[4.270625,36.254179],[4.152456,36.153168],[4.069475,36.0353381],[4.365102,35.986104],[4.492938,36.036983],[4.5239698,35.9324661],[4.418161,35.82597],[4.612797,35.804545],[4.711366,35.860696],[4.831141,35.87536],[4.896255,35.822537],[5.032957,35.784205],[5.13203,35.85233],[5.121697,35.990062],[5.185064,36.044698],[5.162457,36.197066],[4.992413,36.324257],[4.814881,36.29498],[4.791875,36.39716],[4.7282847,36.4310375]]]},"properties":{"@id":"relation/1278766","ISO3166-2":"DZ-34","admin_level":"4","alt_name:el":"Επαρχία Μπορτζ Μπου Αρερίτζ","alt_name:kab":"Tawilayt n Burǧ Buɛririǧ","boundary":"administrative","long_name:ar":"ولاية برج بوعريريج","long_name:en":"Bordj Bou Arreridj Province","long_name:fr":"Wilaya de Bordj Bou Arreridj","name":"Bordj Bou Arreridj","name:ar":"برج بوعريريج","name:ast":"Provincia de Bordj Bou Arréridj","name:az":"Borc-Bu-Arreric vilayəti","name:azb":"برج بوعریریج اوستانی","name:be":"Бордж-Бу-Арэрыдж","name:be-tarask":"Бордж-Бу-Арэрыдж","name:ber":"ⴱⵓⵔⴵ ⴱⵓ ⵄⵔⵉⵔⵉⴵ","name:bg":"Бордж Бу Ареридж","name:ca":"Província de Bordj Bou Arreridj","name:ceb":"Wilaya de Bordj Bou Arréridj","name:da":"Bordj Bou Arréridj","name:de":"Bordj Bou Arreridj","name:el":"Μπορντζ Μπου Αρερίτζ","name:en":"Bordj Bou Arreridj","name:eo":"Provinco Borĝ Bu Areriĝ","name:es":"Provincia de Bordj Bou Arréridj","name:eu":"Bordj Bou Arreridjeko probintzia","name:fa":"استان برج بوعریریج","name:fr":"Bordj Bou Arreridj","name:gl":"Vilaia de Bordj Bou Arreridj","name:hi":"बोर्दज बोउ अर्रेरिदज प्रांत","name:id":"Provinsi Bordj Bou Arreridj","name:it":"Provincia di Bordj Bou Arreridj","name:ja":"ボルジ・ブ・アレリジ県","name:ka":"ბორჯ-ბუ-არერიჯის პროვინცია","name:kab":"Burǧ bu ɛririǧ","name:ko":"보르즈부아레리즈주","name:lad":"Bordj Bu Arreridj","name:lt":"Bordž Bu Areridžo vilaja","name:ms":"Wilayah Bordj Bou Arréridj","name:nl":"Bordj Bou Arréridj","name:no":"Bordj Bou Arréridj","name:pl":"Prowincja Burdż Bu Urajridż","name:pnb":"صوبہ برج بو عریریج","name:pt":"Bordj Bou Arreridj","name:ro":"Provincia Bordj Bou Arréridj","name:ru":"Бордж-Бу-Арреридж","name:se":"Bordj Bou Arréridj eanangoddi","name:sh":"Bordž Bu Areridž","name:sr":"Борџ Бу Арериџ","name:sv":"Bordj Bou Arréridj","name:sw":"Wilaya ya Bordj Bou Arréridj","name:tg":"Вилояти Бурҷ-Бу-Аририҷ","name:tl":"Lalawigan ng Bordj Bou Arréridj","name:tr":"Burc Bu Ariric Vilayeti","name:uk":"Бордж-Бу-Арреридж","name:ur":"صوبہ برج بو عریریج","name:vi":"Bordj Bou Arréridj (tỉnh)","name:war":"Bordj Bou Arréridj","name:zh":"布阿拉里季堡省","name:zu":"Bordj Bou Arréridj Province","ref":"34","type":"boundary","wikidata":"Q266411","wikipedia":"fr:Wilaya de Bordj Bou Arreridj"},"id":"relation/1278766"},
{"type":"Feature","geometry":{"type":"Polygon","coordinates":[[[5.032957,35.784205],[4.896255,35.822537],[4.831141,35.87536],[4.711366,35.860696],[4.612797,35.804545],[4.418161,35.82597],[4.5239698,35.9324661],[4.492938,36.036983],[4.365102,35.986104],[4.069475,36.0353381],[4.0124197,35.9137405],[3.805096,35.860342],[3.715808,35.937457],[3.616687,35.913394],[3.520354,35.806826],[3.511882,35.677802],[3.369487,35.760112],[3.473539,35.636609],[3.677398,35.508903],[3.665948,35.315422],[3.460634,35.177971],[3.566878,35.00684],[3.563934,34.936371],[3.656243,34.789011],[3.890057,34.768102],[3.920204,34.602406],[3.904362,34.523227],[3.988808,34.444794],[3.972267,34.363895],[4.170678,34.221107],[4.272859,34.266611],[4.1732627,34.3890993],[4.1540667,34.5122093],[4.284589,34.657982],[4.569772,34.684167],[4.703367,34.810155],[4.925189,34.860752],[4.995957,34.89341],[5.015375,34.986282],[4.986539,35.085079],[4.887851,35.141545],[4.749992,35.146758],[4.868414,35.266272],[4.913294,35.481752],[5.207293,35.51934],[5.33783,35.631179],[5.171974,35.653867],[5.032957,35.784205]]]},"properties":{"@id":"relation/1278767","ISO3166-2":"DZ-28","admin_level":"4","alt_name:el":"Επαρχία Μ'Σιλά","alt_name:fa":"استان مسیله","alt_name:kab":"Tawilayt n Temsilt","alt_name:pnb":"صوبہ مسیلہ","boundary":"administrative","long_name":"ولاية المسيلة","long_name:ar":"ولاية المسيلة","long_name:en":"M'Sila Province","long_name:fr":"Wilaya de M'Sila","name":"M'Sila","name:ar":"المسيلة","name:be":"Мсіла","name:be-tarask":"М’Сыла","name:ber":"ⵎⵙⵉⵍⴰ","name:bg":"М'сила","name:ceb":"Wilaya de M'Sila","name:da":"M'Sila","name:de":"M'Sila","name:el":"Μ'Σιλά","name:en":"M'Sila","name:eo":"Provinco M'Sila","name:es":"Provincia de M'Sila","name:eu":"M'Silako probintzia","name:fa":"مسیله","name:fr":"M'Sila","name:gl":"Vilaia de M'Sila","name:hi":"म'सिला प्रांत","name:id":"Provinsi M'Sila","name:it":"Provincia di M'Sila","name:ja":"ムシラ県","name:ka":"მ’სილის პროვინცია","name:kab":"Msila","name:ko":"음실라주","name:lad":"M'sila","name:lt":"Msilos vilaja","name:ms":"Wilayah M'Sila","name:nl":"M'Sila","name:no":"M’Sila","name:pl":"Prowincja Al-Masila","name:pnb":"مسیلہ","name:pt":"Massila","name:ro":"Provincia M'Sila","name:ru":"Мсила","name:se":"M'Sila eanangoddi","name:sh":"Msila","name:sr":"Мсила","name:sv":"M'Sila","name:sw":"Wilaya ya M'Sila","name:tg":"Вилояти Масила","name:tl":"Lalawigan ng M'Sila","name:tr":"M'Sila Vilayeti","name:uk":"Мсіла","name:ur":"مسیلہ","name:vi":"M'Sila","name:war":"M'Sila","name:zh":"姆西拉省","ref":"28","type":"boundary","wikidata":"Q240870","wikipedia":"ar:ولاية المسيلة"},"id":"relation/1278767"},
{"type":"Feature","geometry":{"type":"Polygon","coordinates":[[[2.2399407,32.8040543],[2.27686,32.549634],[2.5229183,32.341023],[2.9573504,32.1808375],[3.3541671,32.0963126],[3.8819356,32.0081604],[4.146573,31.9421413],[4.2321891,31.8765789],[4.4192141,31.7983751],[4.43253,32.029891],[4.469903,32.2139256],[4.78118,32.495112],[5.025157,32.852914],[4.479801,32.990462],[3.883893,33.030049],[3.668213,33.068205],[3.569787,33.026099],[3.211704,33.016698],[3.379737,32.927779],[3.393155,32.814297],[2.99902,32.898099],[2.722714,32.83983],[2.2399407,32.8040543]]]},"properties":{"@id":"relation/1279666","ISO3166-2":"DZ-47","admin_level":"4","alt_name:azb":"غردایه اوستانی","alt_name:el":"Επαρχία Γκαρντάια","alt_name:fa":"استان غردایه","alt_name:kab":"Tawilayt n Tɣerdayt","alt_name:lt":"Gardajos vilaja","alt_name:ur":"صوبہ غرادیہ","boundary":"administrative","long_name":"ولاية غرداية","long_name:ar":"ولاية غرداية","long_name:en":"Ghardaia Province","long_name:fr":"Wilaya de Ghardaïa","name":"Ghardaïa","name:ar":"غرداية","name:azb":"غردایه","name:be":"Гардая","name:be-tarask":"Гардая","name:ber":"ⵜⴰⵖⴻⵔⴷⴰⵢⵜ","name:bg":"Гардая","name:ceb":"Wilaya de Ghardaïa","name:cs":"Ghardája","name:da":"Ghardaïa","name:de":"Ghardaia","name:el":"Γκαρντάια","name:en":"Ghardaia","name:eo":"Provinco Ghardaia","name:es":"Provincia de Gardaya","name:eu":"Ghardaiako probintzia","name:fa":"غردایه","name:fi":"Ghardaïan maakunta","name:fr":"Ghardaïa","name:gl":"Vilaia de Ghardaïa","name:hi":"घर्डै प्रांत","name:id":"Provinsi Ghardaia","name:it":"Provincia di Ghardaïa","name:ja":"ガルダイア県","name:ka":"გარდაიის პროვინცია","name:kab":"Taɣerdayt","name:ko":"가르다이아주","name:lad":"Ghardaya","name:lt":"Gardaja","name:ms":"Wilayah Ghardaïa","name:nl":"Ghardaïa","name:no":"Ghardaïa","name:pl":"Prowincja Ghardaja","name:pt":"Gardaia","name:ro":"Provincia Ghardaïa","name:ru":"Гардая","name:se":"Ghardaïa eanangoddi","name:sh":"Gardaja","name:sr":"Гардаја","name:sv":"Ghardaïa","name:tg":"Вилояти Ғардоя","name:tl":"Lalawigan ng Ghardaïa","name:tr":"Gardaya Vilayeti","name:uk":"Гардая","name:ur":"غرادیہ","name:vi":"Ghardaïa","name:war":"Ghardaïa","name:zh":"盖尔达耶省","name:zu":"Ghardaïa Province","ref":"47","type":"boundary","wikidata":"Q17601","wikipedia":"ar:ولاية غرداية"},"id":"relation/1279666"},
{"type":"Feature","geometry":{"type":"Polygon","coordinates":[[[6.5849599,25.5529561],[6.354019,26.158496],[6.184566,26.27417],[6.139639,26.334038],[6.190633,26.452407],[6.318389,26.542928],[6.30218,26.615804],[5.765773,27.072765],[5.7769988,27.4124312],[5.471655,27.379589],[5.298112,27.212917],[5.318899,27.145079],[5.284791,27.015247],[5.209177,26.901514],[5.132029,26.86072],[5.127027,26.777124],[5.007038,26.630964],[4.901001,26.567194],[4.858585,26.500444],[4.726048,26.467325],[4.684515,26.517061],[4.601699,26.475636],[4.550144,26.542843],[4.390604,26.532127],[4.29916,26.397999],[4.215927,26.365971],[4.014853,26.181021],[3.859025,26.211214],[3.840708,26.273783],[3.751985,26.266422],[3.868631,26.06921],[3.817886,25.822237],[3.930601,25.609165],[3.913609,25.559635],[3.685802,25.385193],[3.587614,25.401058],[3.501785,25.35869],[3.401494,25.436678],[3.3838,25.597553],[3.316057,25.625315],[3.260539,25.538727],[3.121197,25.452284],[2.703427,25.491161],[2.594009,25.578039],[2.484735,25.594482],[2.279639,25.685011],[2.172146,25.682261],[2.110943,25.728098],[1.999898,25.493641],[1.903687,24.95237],[1.523065,24.744787],[1.4379783,24.6367227],[1.426958,23.997652],[1.425108,23.30928],[1.421393,22.664402],[1.416717,21.803706],[1.590536,21.830179],[1.7763237,21.8079672],[2.027864,21.818001],[2.947266,21.827799],[3.091319,21.903946],[3.298329,21.420601],[3.434424,21.419054],[3.460694,21.308817],[3.633756,21.254156],[3.700677,21.254959],[3.781121,21.192448],[3.934221,21.143116],[4.030375,21.039524],[4.052886,20.883511],[4.018852,20.444166],[4.199522,20.455339],[4.319574,20.493038],[4.497839,20.642122],[4.5891,20.619549],[4.635234,20.69174],[4.715339,20.921095],[4.682354,20.980911],[4.679873,21.129536],[4.782244,21.19434],[5.045902,21.155893],[5.384348,21.042564],[5.713673,21.022625],[5.75896,20.932899],[5.926246,20.907516],[6.254877,20.894854],[6.340116,21.165977],[6.484639,21.342619],[6.535535,21.559198],[6.811752,21.531754],[6.945302,21.452515],[7.133422,21.301252],[7.286952,21.227629],[7.316075,21.299534],[7.541007,21.188152],[7.649634,21.081123],[7.7944146,21.0467515],[8.434632,21.439707],[8.996974,21.77859],[9.051005,21.799959],[9.755983,22.210917],[10.238563,22.496408],[10.270553,23.322323],[9.960199,23.508752],[9.805975,23.555336],[9.215193,23.558432],[8.645961,23.21335],[8.444663,23.185906],[7.91148,23.087476],[7.65723,23.271172],[7.745212,23.354454],[7.534686,23.848024],[7.513872,24.281356],[7.530827,24.424899],[7.308362,24.747795],[7.118678,24.762117],[7.036053,24.809842],[6.852459,25.103178],[6.805485,25.242796],[6.5849599,25.5529561]]]},"properties":{"@id":"relation/1279667","ISO3166-2":"DZ-11","admin_level":"4","alt_name":"تامنراست;تامنغاست;تامنغست","alt_name:ar":"تامنراست;تامنغاست;تامنغست","alt_name:azb":"تمنراست اوستانی","alt_name:es":"Provincia de Tamanrasset","alt_name:fa":"استان تمنراست","alt_name:fr":"Tamanghasset","alt_name:kab":"Tawilayt n Tmenɣest","alt_name:pnb":"صوبہ تمنراست","alt_name:ur":"صوبہ تمنراست","boundary":"administrative","long_name":"ولاية تمنراست","long_name:ar":"ولاية تمنراست","long_name:en":"Tamanrasset Province","long_name:fr":"Wilaya de Tamanrasset","name":"Tamanrasset","name:ar":"تمنراست","name:ast":"Provincia de Tamanrasset","name:azb":"تمنراست","name:be":"Таманрасет","name:be-tarask":"Таманрасэт","name:ber":"ⵜⴰⵎⴰⵏⵖⴰⵙⴻⵜ","name:bg":"Таманрасет","name:ceb":"Wilaya de Tamanrasset","name:da":"Tamanrasset","name:de":"Tamanrasset","name:el":"Επαρχία Ταμανρασσέτ","name:en":"Tamanrasset","name:eo":"Provinco Tamanrasset","name:es":"Tamanrasset","name:et":"Tamanrasseti provints","name:eu":"Tamanrasseteko probintzia","name:fa":"تمنراست","name:fi":"Tamanrassetin maakunta","name:fr":"Tamanrasset","name:gl":"Vilaia de Tamanrasset","name:hi":"तमान्रस्सेट प्रांत","name:id":"Provinsi Tamanghasset","name:it":"Provincia di Tamanrasset","name:ja":"タマンラセット県","name:ka":"თამანრასეტის პროვინცია","name:kab":"Tamenɣast","name:ko":"타만라세트주","name:ks":"تمنراست","name:lad":"Tamanraset","name:lt":"Tamanraseto vilaja","name:ms":"Tamanghasset","name:nl":"Tamanrasset","name:no":"Tamanrasset","name:pl":"Prowincja Tamanrasset","name:pnb":"تمنراست","name:pt":"Tamanghasset","name:ro":"Provincia Tamanrasset","name:ru":"Таманрассет","name:sco":"Tamanrasset Province","name:se":"Tamanrasset eanangoddi","name:sh":"Tamanraset","name:sr":"Таманрасет","name:sv":"Tamanrasset","name:sw":"Wilaya ya Tamanghasset","name:tg":"Вилояти Таманғассет","name:tl":"Lalawigan ng Tamanrasset","name:tr":"Tamanrasset Vilayeti","name:uk":"Таманрассет","name:ur":"تمنراست","name:vec":"Tamanrasset","name:vi":"Tamanrasset","name:war":"Tamanrasset","name:wuu":"塔曼拉塞特省","name:zh":"塔曼拉塞特省","name:zu":"Tamanrasset Province","old_name":"فور لابرين","old_name:ar":"فور لابرين","old_name:fr":"Fort-Laperrine","population":"176637","population:date":"2008","ref":"11","source:population":"الديوان الوطني للإحصائيات (الجزائر)","type":"boundary","wikidata":"Q229467","wikipedia":"ar:ولاية تمنراست"},"id":"relation/1279667"},
{"type":"Feature","geometry":{"type":"Polygon","coordinates":[[[5.721875,29.758296],[6.449789,30.084465],[6.573908,30.045336],[7.570614,30.232689],[8.246716,30.349166],[9.473817,30.559038],[9.359636,31.000019],[9.1869754,31.675951],[9.0763986,32.0845929],[8.498487,32.068358],[7.539545,32.024753],[7.235724,32.003382],[7.0716384,32.0551312],[6.9554198,32.1165407],[6.5787367,32.2317571],[6.3175831,32.3288776],[6.1010983,32.6149072],[6.1315945,32.8979724],[5.9916085,32.8332282],[5.8813422,32.9985163],[5.7568191,33.0972628],[5.7914771,33.2666956],[5.7177664,33.4046628],[5.2732553,33.4165672],[5.249275,33.355255],[5.056323,33.49884],[4.937317,33.301513],[4.946751,33.205254],[5.025157,32.852914],[4.78118,32.495112],[4.469903,32.2139256],[4.43253,32.029891],[4.4192141,31.7983751],[4.409047,31.552183],[4.259617,31.236608],[4.033273,30.598999],[3.749851,29.807554],[3.666323,29.7156],[3.365646,29.217952],[2.996532,29.079757],[3.767205,28.514461],[4.52733,29.000421],[5.064654,29.340856],[5.721875,29.758296]]]},"properties":{"@id":"relation/1279811","ISO3166-2":"DZ-30","admin_level":"4","alt_name:el":"Ουάργκλα","alt_name:en":"Warqla","alt_name:kab":"Wergla","boundary":"administrative","long_name:ar":"ولاية ورقلة","long_name:en":"Ouargla Province","long_name:fr":"Wilaya d'Ouargla","name":"Ouargla","name:ar":"ورقلة","name:ast":"Provincia d'Ouargla","name:az":"Uarqla vilayəti","name:azb":"ورقله اوستانی","name:be":"Уаргла","name:be-tarask":"Уаргла","name:ber":"ⵡⴰⵔⴳⵍⴰ","name:bg":"Уаргла","name:ceb":"Wilaya de Ouargla","name:da":"Ouargla","name:de":"Ouargla","name:el":"Επαρχία Ουάργκλα","name:en":"Ouargla","name:eo":"Provinco Uargla","name:es":"Provincia de Uargla","name:eu":"Ouarglako probintzia","name:fa":"استان ورقله","name:fi":"Ouarglan maakunta","name:fr":"Ouargla","name:gl":"Vilaia de Ouargla","name:hi":"ऑर्ग्ला प्रांत","name:id":"Provinsi Ouargla","name:it":"Provincia di Ouargla","name:ja":"ワルグラ県","name:ka":"უარგლის პროვინცია","name:kab":"Tawilayt n Wergla","name:ko":"우아르글라주","name:lad":"Wargla","name:lt":"Uarglos vilaja","name:ms":"Wilayah Ouargla","name:nan":"Ouargla Séng","name:nl":"Ouargla","name:no":"Ouargla","name:pl":"Prowincja Warkala","name:pnb":"صوبہ ورقلہ","name:pt":"Uargla","name:ro":"Provincia Ouargla","name:ru":"Уаргла","name:sco":"Ouargla Province","name:se":"Ouargla eanangoddi","name:sh":"Vargla","name:sr":"Варгла","name:sv":"Ouargla","name:sw":"Wilaya ya Ouargla","name:tg":"Вилояти Варқла","name:tl":"Lalawigan ng Ouargla","name:tr":"Vurkla Vilayeti","name:uk":"Уаргла","name:ur":"صوبہ ورقلہ","name:vi":"Ouargla","name:zh":"瓦尔格拉省","name:zu":"Ouargla Province","ref":"30","type":"boundary","war":"Ouargla (lalawigan)","wikidata":"Q235709","wikipedia":"ar:ولاية ورقلة"},"id":"relation/1279811"},
{"type":"Feature","geometry":{"type":"Polygon","coordinates":[[[6.5849599,25.5529561],[6.99963,25.39584],[7.241391,25.26572],[7.43289,25.236729],[7.576032,25.188143],[7.716796,25.233063],[7.933666,25.21278],[8.018579,25.363523],[8.133407,25.450556],[8.349484,25.471527],[8.369664,25.529797],[8.616661,25.648226],[8.692623,25.641178],[8.847558,25.435373],[8.87542,25.358023],[9.050728,25.147062],[10.0357609,25.1534172],[10.032093,25.359573],[9.537615,26.002676],[9.398983,26.195638],[9.455908,26.25333],[9.512373,26.385101],[9.863299,26.519911],[9.913332,26.646871],[9.925362,26.861947],[9.862311,26.942328],[9.782495,27.256579],[9.813447,27.462886],[9.862791,27.504425],[9.942353,27.73245],[9.96204,27.885993],[9.832934,28.28595],[9.902313,28.759132],[9.871652,29.027662],[9.779948,29.424757],[9.538688,29.901201],[9.414854,30.042656],[9.415318,30.187552],[9.5592065,30.229061],[9.473817,30.559038],[8.246716,30.349166],[7.570614,30.232689],[6.573908,30.045336],[6.449789,30.084465],[5.721875,29.758296],[5.723342,29.00054],[5.729155,28.432714],[5.638444,28.107808],[5.7769988,27.4124312],[5.765773,27.072765],[6.30218,26.615804],[6.318389,26.542928],[6.190633,26.452407],[6.139639,26.334038],[6.184566,26.27417],[6.354019,26.158496],[6.5849599,25.5529561]]]},"properties":{"@id":"relation/1279816","ISO3166-2":"DZ-33","admin_level":"4","alt_name":"إيليزي;إلـيـزي","alt_name:ar":"إيليزي;إلـيـزي","alt_name:el":"Επαρχία Ιλιζί","alt_name:kab":"Tawilayt n Illizi","boundary":"administrative","long_name":"Wilaya d'Illizi","long_name:ar":"ولاية إليزي","long_name:azb":"الیزی اوستانی","long_name:en":"Illizi Province","long_name:fa":"استان الیزی","long_name:fr":"Wilaya d'Illizi","long_name:pnb":"صوبہ الیزی","long_name:ur":"صوبہ الیزی","name":"Illizi","name:ar":"إليزي","name:azb":"الیزی","name:be":"Ілізі","name:be-tarask":"Ілізі","name:ber":"ⵉⵍⵍⵉⵣⵉ","name:bg":"Илизи","name:ca":"Província d'Illizi","name:ceb":"Illizi","name:cs":"Illizi","name:da":"Illizi","name:de":"Illizi","name:el":"Ιλίζι","name:en":"Illizi","name:eo":"Provinco Ilizi","name:es":"Provincia de Illizi","name:eu":"Illiziko probintzia","name:fa":"الیزی","name:fi":"Illizin maakunta","name:fr":"Illizi","name:gl":"Vilaia de Illizi","name:hi":"इल्लिज़ि प्रांत","name:id":"Provinsi Illizi","name:it":"Provincia di Illizi","name:ja":"イリジ県","name:ka":"ილიზის პროვინცია","name:kab":"Illizi","name:ko":"일리지주","name:lad":"Illizi","name:lt":"Ilizio vilaja","name:ms":"Wilayah Illizi","name:nl":"Illizi","name:no":"Illizi","name:pl":"Prowincja Illizi","name:pnb":"الیزی","name:pt":"Illizi","name:ro":"Provincia Illizi","name:ru":"Иллизи","name:sco":"Illizi Province","name:se":"Illizi eanangoddi","name:sh":"Ilizi","name:sr":"Илизи","name:sv":"Illizi","name:sw":"Wilaya ya Illizi","name:tg":"Вилояти Иллизи","name:tl":"Lalawigan ng Illizi","name:tr":"İlizi Vilayeti","name:uk":"Іллізі","name:ur":"الیزی","name:vi":"Illizi","name:war":"Illizi","name:zh":"伊利济省","name:zu":"Illizi Province","official_name":"Wilaya d'Illizi","official_name:ar":"ولاية إليزي","official_name:azb":"الیزی اوستانی","official_name:fa":"استان الیزی","official_name:fr":"Wilaya d'Illizi","official_name:pnb":"صوبہ الیزی","official_name:ur":"صوبہ الیزی","old_name":"فور بوليناك","old_name:ar":"فور بوليناك","old_name:fr":"Fort-Polignac","population":"52333","population:date":"2008","ref":"33","source:population":"ONS","type":"boundary","wikidata":"Q233659","wikipedia":"fr:Wilaya d'Illizi"},"id":"relation/1279816"},
{"type":"Feature","geometry":{"type":"Polygon","coordinates":[[[7.235724,32.003382],[7.539545,32.024753],[8.498487,32.068358],[9.0763986,32.0845929],[8.800322,32.236214],[8.35683,32.502602],[8.322605,32.823472],[8.116149,33.049835],[8.117256,33.099813],[7.901517,33.185723],[7.8321519,33.1881161],[7.7492157,33.3273523],[7.7365763,33.424659],[7.6338507,33.5721128],[7.5244707,33.7975738],[7.5219807,33.9050755],[7.6515144,34.2008692],[7.7227578,34.1705548],[7.8088157,34.243762],[7.426616,34.274997],[7.230174,34.340484],[7.022063,34.33272],[7.0100622,34.154288],[6.936924,34.171182],[6.696909,34.305646],[6.701845,34.38582],[6.616708,34.303182],[6.522224,34.290231],[6.472696,34.339559],[6.165727,34.427277],[5.956126,34.384534],[5.9810926,34.2251446],[6.0799481,34.1578581],[6.1467472,33.9117752],[6.286677,33.911008],[6.327166,33.634393],[6.487855,33.223948],[6.6607925,32.725767],[6.995494,32.262058],[7.235724,32.003382]]]},"properties":{"@id":"relation/1280071","ISO3166-2":"DZ-39","admin_level":"4","alt_name:de":"El Oued","alt_name:el":"Επαρχία Ελ Ουέντ","alt_name:kab":"Tawilayt n Lwad","alt_name:pt":"Uádi","boundary":"administrative","long_name":"ولاية الوادي","long_name:ar":"ولاية الوادي","long_name:en":"El Oued Province","long_name:fr":"Wilaya d'El Oued","name":"El Oued","name:ar":"الوادي","name:ast":"Provincia d'El Oued","name:azb":"الوادی اوستانی","name:be":"Эль-Уэд","name:be-tarask":"Эль-Уэд","name:ber":"ⵍⵡⴰⴷ","name:bg":"Ел-Уед","name:ca":"Província d'El Oued","name:ceb":"El Oued","name:da":"El Oued","name:de":"Al-Wadi","name:el":"Ελ Ουέντ","name:en":"El Oued","name:eo":"Provinco El Ued","name:es":"Provincia de El Oued","name:eu":"El Ouedeko probintzia","name:fa":"استان الوادی","name:fr":"El Oued","name:gl":"Vilaia de El Oued","name:hi":"एल ऑड","name:id":"Provinsi El Oued","name:it":"Provincia di El Oued","name:ja":"エル・ウェッド県","name:ka":"ელ-უედის პროვინცია","name:kab":"Lwad","name:ko":"엘우에드주","name:lad":"El Wed","name:lt":"Uedo vilaja","name:ms":"Wilayah El Oued","name:nl":"El Oued","name:no":"El Oued","name:pl":"Prowincja Al-Wadi","name:pnb":"صوبہ وادی","name:pt":"Uede","name:ro":"Provincia El Oued","name:ru":"Эль-Уэд","name:sco":"El Oued Province","name:se":"El Oued eanangoddi","name:sh":"El Ujed","name:sr":"Ел Ујед","name:sv":"El Oued","name:sw":"Wilaya ya El Oued","name:tg":"Вилояти Ал-Водӣ","name:tl":"Lalawigan ng El Oued","name:tr":"El Vadi Vilayeti","name:uk":"Ель-Уед","name:ur":"صوبہ الوادی","name:vi":"El Oued","name:war":"El Oued","name:zh":"瓦迪省","name:zu":"El Oued Province","ref":"39","type":"boundary","wikidata":"Q233651","wikipedia":"ar:ولاية الوادي"},"id":"relation/1280071"},
{"type":"Feature","geometry":{"type":"Polygon","coordinates":[[[6.583368,34.771088],[6.533835,34.758549],[6.424164,34.835735],[6.421477,34.956668],[6.458921,35.022789],[6.4060858,35.0807084],[6.265815,35.049715],[6.144894,34.982735],[6.0498483,35.0702713],[5.991604,35.007945],[5.897796,35.034405],[5.879556,35.209447],[5.7481339,35.2856456],[5.613946,35.226114],[5.554679,35.156331],[5.585441,35.090724],[5.489262,35.046785],[5.303588,35.047355],[5.286743,35.004789],[4.986539,35.085079],[5.015375,34.986282],[4.995957,34.89341],[4.925189,34.860752],[5.1164814,34.8509031],[5.135964,34.7792865],[5.3082512,34.5870603],[5.293108,34.511089],[5.398342,34.449274],[5.956126,34.384534],[6.165727,34.427277],[6.472696,34.339559],[6.522224,34.290231],[6.616708,34.303182],[6.701845,34.38582],[6.681352,34.461531],[6.741432,34.562853],[6.733639,34.675092],[6.772515,34.76669],[6.673743,34.858243],[6.583368,34.771088]]]},"properties":{"@id":"relation/1280072","ISO3166-2":"DZ-07","admin_level":"4","alt_name:el":"Επαρχία Μπίσκρα","alt_name:kab":"Tawilayt n Tbeskert","boundary":"administrative","int_name":"Biskra","long_name:ar":"ولاية بسكرة","long_name:en":"Biskra Province","long_name:fr":"Wilaya de Biskra","name":"Biskra","name:ar":"بسكرة","name:ast":"Provincia de Biskra","name:az":"Biskra vilayəti","name:azb":"بسکره اوستانی","name:be":"Біскра","name:be-tarask":"Біскра","name:ber":"ⴱⴻⵙⴽⵔⴰ","name:bg":"Бискра","name:ca":"Província de Biskra","name:ceb":"Wilaya de Biskra","name:da":"Biskra","name:de":"Biskra","name:el":"Μπίσκρα","name:en":"Biskra","name:eo":"Provinco Biskra","name:es":"Provincia de Biskra","name:eu":"Biskrako probintzia","name:fa":"استان بسکره","name:fr":"Biskra","name:gl":"Vilaia de Biskra","name:hi":"बिस्क्रा प्रांत","name:ia":"Provincia de Biskra","name:id":"Provinsi Biskirah","name:it":"Provincia di Biskra","name:ja":"ビスクラ県","name:ka":"ბისკრის პროვინცია","name:kab":"Beskra","name:ko":"비스크라주","name:lad":"Biskra","name:lt":"Biskros vilaja","name:ms":"Wilayah Biskra","name:nl":"Biskra","name:no":"Biskra","name:pl":"Prowincja Biskira","name:pnb":"صوبہ بسکرہ","name:pt":"Biskra","name:ro":"Provincia Biskra","name:ru":"Бискра","name:se":"Biskra eanangoddi","name:sh":"Biskra","name:sr":"Бискра","name:sv":"Biskra","name:sw":"Wilaya ya Biskra","name:tg":"Вилояти Бискра","name:tl":"Lalawigan ng Biskra","name:tr":"Biskra Vilayeti","name:uk":"Біскра","name:ur":"صوبہ بسکرہ","name:vi":"Biskra","name:war":"Biskra","name:wuu":"比斯克拉省","name:zh":"比斯克拉省","name:zu":"Biskra Province","ref":"07","type":"boundary","website":"https://biskradz.com/","wikidata":"Q458402","wikipedia":"fr:Wilaya de Biskra"},"id":"relation/1280072"},
{"type":"Feature","geometry":{"type":"Polygon","coordinates":[[[4.170678,34.221107],[3.972267,34.363895],[3.988808,34.444794],[3.904362,34.523227],[3.920204,34.602406],[3.890057,34.768102],[3.656243,34.789011],[3.563934,34.936371],[3.566878,35.00684],[3.460634,35.177971],[3.665948,35.315422],[3.677398,35.508903],[3.473539,35.636609],[3.369487,35.760112],[3.253708,35.813126],[3.1935793,35.6829389],[3.062919,35.661301],[2.990258,35.832375],[2.87415,35.804932],[2.889663,35.633293],[2.642784,35.445586],[2.493116,35.511183],[2.285154,35.461909],[2.254438,35.553752],[2.078695,35.542089],[2.025931,35.477894],[2.406044,35.251759],[2.523635,35.33426],[2.613038,35.244254],[2.583955,35.08661],[2.650759,35.036282],[2.498038,34.987812],[2.428309,34.807048],[2.358886,34.78957],[2.366119,34.695157],[2.390983,34.448795],[2.450861,34.317305],[2.625661,34.125599],[2.788318,34.153221],[2.866896,34.255775],[2.933038,34.287673],[3.054522,34.249475],[3.155777,33.994521],[3.148323,33.947423],[3.221316,33.821956],[3.464958,33.760478],[3.648078,33.618278],[3.711818,33.526612],[4.087056,33.401487],[4.337535,33.202851],[4.479801,32.990462],[5.025157,32.852914],[4.946751,33.205254],[4.937317,33.301513],[5.056323,33.49884],[5.078817,33.606832],[4.861577,33.698384],[4.647574,33.735509],[4.55925,33.807008],[4.281273,33.909618],[4.40625,34.061963],[4.290577,34.084418],[4.195972,34.147903],[4.170678,34.221107]]]},"properties":{"@id":"relation/1280073","ISO3166-2":"DZ-17","admin_level":"4","alt_name:el":"Επαρχία Τζελφά","alt_name:kab":"Tawilayt n Lǧelfa","boundary":"administrative","long_name":"ولاية الجلفة","long_name:ar":"ولاية الجلفة","long_name:azb":"جلفه اوستانی","long_name:en":"Djelfa Province","long_name:fa":"استان جلفه","long_name:fr":"Wilaya de Djelfa","long_name:pnb":"صوبہ جلفہ","long_name:ur":"صوبہ الجلفہ","name":"Djelfa","name:ar":"الجلفة","name:ast":"Provincia de Djelfa","name:azb":"الجفله","name:be":"Джэльфа","name:be-tarask":"Джэльфа","name:ber":"ⴵⴻⵍⴼⴰ","name:bg":"Джелфа","name:ca":"Província de Djelfa","name:ceb":"Wilaya de Djelfa","name:da":"Djelfa","name:de":"Djelfa","name:el":"Ντζέλφα","name:en":"Djelfa","name:eo":"Provinco Ĝelfa","name:es":"Provincia de Djelfa","name:eu":"Djelfako probintzia","name:fa":"الجفله","name:fr":"Djelfa","name:gl":"Vilaia de Djelfa","name:hi":"जेल्फा प्रांत","name:ia":"Provincia de Djelfa","name:id":"Provinsi Jalfah","name:it":"Provincia di Djelfa","name:ja":"ジェルファ県","name:ka":"ჯელფის პროვინცია","name:kab":"Ǧelfa","name:kab-Arab":"جلفة","name:ko":"젤파주","name:lad":"Djelfa","name:lt":"Dželfos vilaja","name:ms":"Wilayah Djelfa","name:nl":"Djelfa","name:no":"Djelfa","name:pl":"Prowincja Dżilfa","name:pnb":"جلفہ","name:pt":"Djelfa","name:ro":"Provincia Djelfa","name:ru":"Джельфа","name:sco":"Djelfa Province","name:se":"Djelfa eanangoddi","name:sh":"Dželfa","name:sr":"Џелфа","name:sv":"Djelfa","name:sw":"Wilaya ya Djelfa","name:tg":"Вилояти Ҷелфа","name:tl":"Lalawigan ng Djelfa","name:tr":"Celfa Vilayeti","name:uk":"Джельфа","name:ur":"الجلفہ","name:vi":"Djelfa","name:war":"Djelfa","name:zh":"杰勒法省","name:zu":"Djelfa Province","ref":"17","type":"boundary","wikidata":"Q233233","wikipedia":"ar:ولاية الجلفة"},"id":"relation/1280073"},
{"type":"Feature","geometry":{"type":"Polygon","coordinates":[[[4.479801,32.990462],[4.337535,33.202851],[4.087056,33.401487],[3.711818,33.526612],[3.648078,33.618278],[3.464958,33.760478],[3.221316,33.821956],[3.148323,33.947423],[3.155777,33.994521],[3.054522,34.249475],[2.933038,34.287673],[2.866896,34.255775],[2.788318,34.153221],[2.625661,34.125599],[2.450861,34.317305],[2.390983,34.448795],[2.366119,34.695157],[2.224118,34.681289],[1.999381,34.507174],[1.767176,34.437327],[1.694683,34.376256],[1.667817,34.266196],[1.57668,34.269571],[1.335249,34.073319],[1.37319,33.975198],[1.569911,33.864681],[1.708469,33.902557],[1.795471,33.840674],[1.807711,33.700994],[1.93222,33.591396],[1.884866,33.415428],[2.029961,33.403932],[2.020169,33.338734],[2.183434,33.293873],[2.279689,33.311119],[2.269445,33.159007],[2.098555,33.16353],[2.106606,33.060232],[2.2399407,32.8040543],[2.722714,32.83983],[2.99902,32.898099],[3.393155,32.814297],[3.379737,32.927779],[3.211704,33.016698],[3.569787,33.026099],[3.668213,33.068205],[3.883893,33.030049],[4.479801,32.990462]]]},"properties":{"@id":"relation/1280081","ISO3166-2":"DZ-03","admin_level":"4","alt_name:azb":"الاغواط اوستانی","alt_name:el":"Επαρχία Λαγκουάτ","alt_name:fa":"استان الاغواط","alt_name:kab":"Tawilayt n Leɣwaṭ","alt_name:ur":"صوبہ الاغواط","boundary":"administrative","long_name":"ولاية الأغواط","long_name:ar":"ولاية الأغواط","long_name:en":"Laghouat Province","long_name:fr":"Wilaya de Laghouat","name":"Laghouat","name:ar":"الأغواط","name:ast":"Provincia de Laghouat","name:azb":"الاغواط","name:be":"Агуат","name:be-tarask":"Агуат","name:ber":"ⵍⴻⵖⵡⴰⵟ","name:bg":"Лагуат","name:ceb":"Wilaya de Laghouat","name:da":"Laghouat","name:de":"Laghouat","name:el":"Λαγκουάτ","name:en":"Laghouat","name:eo":"Provinco Laghuat","name:es":"Provincia de Laghouat","name:eu":"Laghouat probintzia","name:fa":"الاغواط","name:fi":"Laghouat","name:fr":"Laghouat","name:gl":"Vilaia de Laghouat","name:hi":"लाघौत प्रांत","name:ia":"Provincia Laghouat","name:it":"Provincia di Laghouat","name:ja":"ラグアット県","name:ka":"ლაგუატის პროვინცია","name:kab":"Leɣwaṭ","name:ko":"라구아트주","name:lad":"Laghouat","name:lt":"Laguato vilaja","name:ms":"Wilayah Laghouat","name:nl":"Laghouat","name:no":"Laghouat","name:pl":"Prowincja Al-Aghwat","name:pnb":"صوبہ اغواط","name:pt":"Laghouat","name:ro":"Provincia Laghouat","name:ru":"Лагуат","name:se":"Laghouat eanangoddi","name:sh":"Laguat","name:sr":"Лагуат","name:sv":"Laghouat","name:sw":"Wilaya ya Laghouat","name:tg":"Вилояти Ағуот","name:tl":"Lalawigan ng Laghouat","name:tr":"Lagvat Vilayeti","name:uk":"Лагуат","name:ur":"الاغواط","name:vi":"Laghouat","name:war":"Laghouat","name:wuu":"艾格瓦特省","name:zh":"艾格瓦特省","name:zu":"Laghouat Province","ref":"03","type":"boundary","wikidata":"Q231748","wikipedia":"ar:ولاية الأغواط"},"id":"relation/1280081"},
{"type":"Feature","geometry":{"type":"Polygon","coordinates":[[[7.8088157,34.243762],[7.856513,34.405304],[7.9284065,34.4186924],[8.205889,34.5777393],[8.2993555,34.7416478],[8.2529302,34.9152847],[8.3113047,34.957129],[8.3613222,35.1032412],[8.4544937,35.220054],[8.3123848,35.3127004],[8.3532695,35.4631447],[8.3560442,35.6697677],[8.2642708,35.7306553],[8.2908218,35.9569014],[8.191596,36.003776],[8.007297,35.961437],[7.863962,35.87876],[7.71904,35.895517],[7.812572,35.742168],[7.834243,35.63171],[7.547043,35.427981],[7.402952,35.394054],[7.4373006,35.1643161],[7.286219,34.997115],[7.401977,34.866475],[7.367551,34.772802],[7.37604,34.664937],[7.277804,34.537341],[7.230174,34.340484],[7.426616,34.274997],[7.8088157,34.243762]]]},"properties":{"@id":"relation/1280465","ISO3166-2":"DZ-12","admin_level":"4","alt_name":"التبسة;تبسه","alt_name:ar":"التبسة;تبسه","alt_name:el":"Επαρχία Τεμπέσα","alt_name:fr":"Tbessa","alt_name:kab":"Tawilayt n Tbessa","alt_name:pl":"Prowincja Tibissa","boundary":"administrative","long_name":"ولاية تبسة","long_name:ar":"ولاية تبسة","long_name:azb":"تبسه اوستانی","long_name:en":"Tébessa Province","long_name:fa":"استان تبسه","long_name:fr":"Wilaya de Tébessa","long_name:pnb":"صوبہ تیبازہ","long_name:ur":"صوبہ تبسہ","name":"Tébessa","name:ar":"تبسة","name:ast":"Provincia de Tébessa","name:azb":"تبسه","name:be":"Тэбеса","name:be-tarask":"Тэбэса","name:ber":"ⵜⴱⴻⵙⴰ","name:bg":"Тебеса","name:ceb":"Wilaya de Tébessa","name:de":"Tibissa","name:el":"Τεμπέσα","name:en":"Tébessa","name:eo":"Provinco Tebesa","name:es":"Provincia de Tébessa","name:eu":"Tebessako probintzia","name:fa":"تبسه","name:fr":"Tébessa","name:gl":"Vilaia de Tebessa","name:hi":"तेबेस्स प्रांत","name:id":"Provinsi Tebessa","name:it":"Provincia di Tébessa","name:ja":"テベッサ県","name:kab":"Tbesa","name:ko":"테베사주","name:la":"Theveste","name:lad":"Tebesa","name:lt":"Tebesos vilaja","name:ms":"Wilayah Tébessa","name:nl":"Tébessa","name:no":"Tébessa","name:pl":"Tibissa","name:pnb":"تیبازہ","name:pt":"Tébessa","name:ro":"Provincia Tébessa","name:ru":"Тебесса","name:se":"Tébessa eanangoddi","name:sh":"Tebesa","name:sr":"Тебеса","name:sv":"Tébessa","name:sw":"Wilaya ya Tebessa","name:tg":"Вилояти Табасса","name:tl":"Lalawigan ng Tébessa","name:tr":"Tebesa Vilayeti","name:uk":"Тебесса","name:ur":"تبسہ","name:vi":"Tébessa (tỉnh)","name:war":"Tébessa (lalawigan)","name:wuu":"泰贝萨省","name:zh":"泰贝萨","name:zu":"Tebessa Province","ref":"12","type":"boundary","wikidata":"Q267224","wikipedia":"ar:ولاية تبسة"},"id":"relation/1280465"},
{"type":"Feature","geometry":{"type":"Polygon","coordinates":[[[7.547043,35.427981],[7.482934,35.506236],[7.224049,35.629761],[7.134652,35.621452],[7.084964,35.545249],[7.00121,35.627062],[6.808553,35.61022],[6.7734133,35.6728814],[6.7918838,35.5733826],[6.7601908,35.5043959],[6.572545,35.4357631],[6.5802558,35.3443628],[6.55141,35.145108],[6.499641,35.108384],[6.597327,34.885002],[6.583368,34.771088],[6.673743,34.858243],[6.772515,34.76669],[6.733639,34.675092],[6.741432,34.562853],[6.681352,34.461531],[6.701845,34.38582],[6.696909,34.305646],[6.936924,34.171182],[7.0100622,34.154288],[7.022063,34.33272],[7.230174,34.340484],[7.277804,34.537341],[7.37604,34.664937],[7.367551,34.772802],[7.401977,34.866475],[7.286219,34.997115],[7.4373006,35.1643161],[7.402952,35.394054],[7.547043,35.427981]]]},"properties":{"@id":"relation/1280466","ISO3166-2":"DZ-40","admin_level":"4","alt_name:el":"Επαρχία Χενσέλα","alt_name:kab":"Tawilayt n Txencelt","boundary":"administrative","long_name":"ولاية خنشلة","long_name:ar":"ولاية خنشلة","long_name:azb":"خنشله اوستانی","long_name:en":"Khenchela Province","long_name:fa":"استان خنشله","long_name:fr":"Wilaya de Khenchela","long_name:pnb":"صوبہ خنشلہ","long_name:ur":"صوبہ خنشلہ","name":"Khenchela","name:ar":"خنشلة","name:ast":"Provincia de Jenchela","name:az":"Xenşela vilayəti","name:azb":"خنشله","name:be":"Хеншэла","name:be-tarask":"Хеншэла","name:ber":"ⵅⴻⵏⵛⵍⴰ","name:bg":"Хеншела","name:br":"Khenchela","name:ca":"Província de Khenchela","name:ceb":"Wilaya de Khenchela","name:da":"Khenchela","name:de":"Khenchela","name:el":"Χεντσέλα","name:en":"Khenchela","name:eo":"Provinco Ĥenŝela","name:es":"Provincia de Jenchela","name:eu":"Khenchelako probintzia","name:fa":"خنشله","name:fr":"Khenchela","name:gl":"Vilaia de Khenchela","name:hi":"खेन्छेला प्रांत","name:id":"Provinsi Khenchela","name:it":"Provincia di Khenchela","name:ja":"ヘンシュラ県","name:ka":"ხენშელის პროვინცია","name:kab":"Xencla","name:kab-Arab":"خنشلة","name:ko":"켄셸라주","name:ks":"خنشلہ","name:la":"Mascula","name:lad":"Jenshla","name:lt":"Chenšelos vilaja","name:ms":"Wilayah Khenchela","name:nl":"Khenchela","name:no":"Khenchela","name:pl":"Prowincja Chanszala","name:pnb":"خنشلہ","name:pt":"Khenchela","name:ro":"Provincia Khenchela","name:ru":"Хеншела","name:se":"Khenchela eanangoddi","name:sh":"Henšela","name:sr":"Хеншела","name:sv":"Khenchela","name:sw":"Wilaya ya Khenchela","name:tg":"Вилояти Хиншила","name:tl":"Lalawigan ng Khenchela","name:tr":"Henşle Vilayeti","name:uk":"Хеншела","name:ur":"خنشلہ","name:vi":"Khenchela","name:war":"Khenchela","name:zh":"汉舍莱省","name:zu":"Khenchela Province","ref":"40","type":"boundary","wikidata":"Q213950","wikipedia":"ar:ولاية خنشلة"},"id":"relation/1280466"},
{"type":"Feature","geometry":{"type":"Polygon","coordinates":[[[-1.005036,35.093473],[-1.251398,35.206584],[-1.4063162,35.2075146],[-1.506234,35.152324],[-1.5876237,35.238079],[-1.775564,35.1186505],[-1.9520071,35.0744095],[-2.1579244,35.101483],[-2.2184503,35.0481004],[-1.7392661,34.7436736],[-1.8391265,34.6281437],[-1.7518527,34.5175383],[-1.6877315,34.4931273],[-1.7829697,34.3916963],[-1.7053325,34.30687],[-1.6514166,34.0966739],[-1.486185,34.199877],[-1.270888,34.200909],[-1.125253,34.279905],[-1.026831,34.378637],[-0.845015,34.504167],[-0.782952,34.674388],[-0.79266,34.749614],[-0.888914,34.739817],[-0.869709,34.855375],[-0.9721657,34.9699095],[-0.912221,35.053841],[-1.005036,35.093473]]]},"properties":{"@id":"relation/1280702","ISO3166-2":"DZ-13","admin_level":"4","alt_name:azb":"تلمسان","alt_name:el":"Τλέμσεν","alt_name:fa":"تلمسان","alt_name:kab":"Tlemsen","alt_name:pnb":"تلمسان","alt_name:ur":"تلمسان","boundary":"administrative","long_name":"ولاية تلمسان","long_name:ar":"ولاية تلمسان","long_name:en":"Tlemcen Province","long_name:fr":"Wilaya de Tlemcen","name":"Tlemcen ⵜⵍⴻⵎⵙⴻⵏ تلمسان","name:ar":"تلمسان","name:az":"Tlemsen vilayəti","name:azb":"تلمسان اوستانی","name:be":"Тлемсен","name:be-tarask":"Тлемсэн","name:ber":"ⵜⵍⴻⵎⵙⴻⵏ","name:bg":"Тлемсен","name:ca":"Província de Tlemcen","name:ceb":"Wilaya de Tlemcen","name:de":"Tlemcen","name:el":"Επαρχία Τλεμσέν","name:en":"Tlemcen","name:es":"Provincia de Tremecén","name:eu":"Tilimsengo probintzia","name:fa":"استان تلمسان","name:fr":"Tlemcen","name:gl":"Vilaia de Tlemcen","name:hi":"त्लेम्सेन प्रांत","name:hu":"Tilimszán tartomány","name:id":"Provinsi Tilimsan","name:it":"Provincia di Tlemcen","name:ja":"トレムセン県","name:ka":"ტლემსენის პროვინცია","name:kab":"Tawilayt n Tlemsan","name:ko":"틀렘센주","name:ks":"تلمسان","name:lad":"Tlemsin","name:lt":"Tlemseno vilaja","name:ms":"Wilayah Tlemcen","name:nan":"Tlemcen Séng","name:nl":"Tlemcen","name:no":"Tlemcen","name:pl":"Prowincja Tilimsan","name:pnb":"صوبہ تلمسان","name:pt":"Tremecém","name:ro":"Provincia Tlemcen","name:ru":"Тлемсен","name:sco":"Tlemcen Province","name:se":"Tlemcen eanangoddi","name:sh":"Tlemsen","name:sr":"Тлемсен","name:sv":"Tlemcen","name:sw":"Wilaya ya Tlemcen","name:tg":"Вилояти Тлемсон","name:tl":"Lalawigan ng Tlemcen","name:tr":"Tlemsan Vilayeti","name:uk":"Тлемсен","name:ur":"صوبہ تلمسان","name:vi":"Tlemcen","name:war":"Tlemcen","name:wuu":"特莱姆森省","name:zh":"特莱姆森省","name:zu":"Tlemcen Province","ref":"13","type":"boundary","wikidata":"Q233632","wikipedia":"ar:ولاية تلمسان"},"id":"relation/1280702"},
{"type":"Feature","geometry":{"type":"Polygon","coordinates":[[[0.486753,35.097522],[0.439578,35.046918],[0.330419,35.076483],[0.176048,35.053393],[-0.174487,35.119495],[-0.238823,35.089887],[-0.230628,34.99495],[-0.310804,34.982347],[-0.347956,34.88426],[-0.302907,34.796197],[-0.103813,34.695534],[-0.034109,34.572413],[-0.23805,34.640645],[-0.196942,34.460172],[-0.07786,34.504402],[-0.020544,34.448165],[0.188937,34.337912],[0.291002,34.329033],[0.423153,34.404661],[0.50333,34.337685],[0.580809,34.351437],[0.726974,34.442019],[0.856444,34.415387],[0.933411,34.528878],[0.793197,34.575741],[0.659548,34.763492],[0.65047,34.865699],[0.798807,34.957145],[0.640813,35.114299],[0.486753,35.097522]]]},"properties":{"@id":"relation/1281260","ISO3166-2":"DZ-20","admin_level":"4","alt_name:el":"Επαρχία Σαϊντά","alt_name:es":"Provincia de Saida","alt_name:fa":"استان سعیده","alt_name:kab":"Tawilayt n Ssɛida","alt_name:lt":"Saidos vilaja","boundary":"administrative","long_name":"ولاية سعيدة","long_name:ar":"ولاية سعيدة","long_name:azb":"سعیده اوستانی","long_name:de":"Provinz Saida","long_name:en":"Saïda Province","long_name:es":"Provincia de Saída","long_name:fr":"Wilaya de Saïda","long_name:ur":"صوبہ سعیدہ","name":"Saïda","name:ar":"سعيدة","name:ast":"Provincia de Saida","name:az-Arab":"سعیده","name:azb":"سعیده","name:be":"Саіда","name:be-tarask":"Саіда","name:ber":"ⵙⵄⵉⴷⴰ","name:bg":"Саида","name:ca":"Província de Saïda","name:ceb":"Wilaya de Saïda","name:da":"Saida","name:de":"Saida","name:el":"Σαϊντά","name:en":"Saïda","name:eo":"Provinco Saida","name:es":"Saída","name:eu":"Saidako probintzia","name:fa":"سعیده","name:fi":"Saïdan maakunta","name:fr":"Saïda","name:gl":"Vilaia de Saida","name:hi":"सैदा प्रांत","name:ia":"Provincia de Saïda","name:id":"Provinsi Saida","name:it":"Provincia di Saida","name:ja":"サイダ県","name:ka":"საიდის პროვინცია","name:kab":"Sɛida","name:kab-Arab":"سعيدة","name:ko":"사이다주","name:ks":"سعیدہ","name:lad":"Sayida","name:lt":"Saida","name:nl":"Saïda","name:no":"Saïda","name:pl":"Prowincja Sa’ida","name:pnb":"صوبہ سعیدہ","name:pt":"Saïda","name:ro":"Provincia Saïda","name:ru":"Саида","name:se":"Saïda eanangoddi","name:sh":"Sajida","name:sr":"Сајида","name:sv":"Saïda","name:sw":"Wilaya ya Saida","name:tg":"Вилояти Саида","name:tl":"Lalawigan ng Saïda","name:tr":"Saida Vilayeti","name:uk":"Саїда","name:ur":"سعیدہ","name:vi":"Saïda","name:war":"Saïda","name:zh":"赛伊达省","name:zu":"Saïda Province","ref":"20","type":"boundary","wikidata":"Q233640","wikipedia":"ar:ولاية سعيدة","wikipedia:ar":"ولاية سعيدة","wikipedia:es":"Provincia de Saida"},"id":"relation/1281260"},
{"type":"Feature","geometry":{"type":"Polygon","coordinates":[[[2.078695,35.542089],[1.889138,35.5518],[1.652636,35.541887],[1.598723,35.607718],[1.390423,35.684488],[1.321276,35.622036],[1.257126,35.686661],[1.161546,35.625933],[1.063699,35.633611],[0.923417,35.540798],[0.830927,35.445208],[0.864088,35.336197],[0.798363,35.279016],[0.680226,35.31007],[0.5933947,35.1916462],[0.486753,35.097522],[0.640813,35.114299],[0.798807,34.957145],[0.65047,34.865699],[0.659548,34.763492],[0.793197,34.575741],[0.933411,34.528878],[0.856444,34.415387],[1.04311,34.384098],[1.012777,34.193947],[1.272314,34.206315],[1.335249,34.073319],[1.57668,34.269571],[1.667817,34.266196],[1.694683,34.376256],[1.767176,34.437327],[1.999381,34.507174],[2.224118,34.681289],[2.366119,34.695157],[2.358886,34.78957],[2.428309,34.807048],[2.498038,34.987812],[2.650759,35.036282],[2.583955,35.08661],[2.613038,35.244254],[2.523635,35.33426],[2.406044,35.251759],[2.025931,35.477894],[2.078695,35.542089]]]},"properties":{"@id":"relation/1281404","ISO3166-2":"DZ-14","admin_level":"4","alt_name:ar":"تيهرت;تاهرت","alt_name:el":"Επαρχία Τιαρέτ","alt_name:kab":"Tawilayt n Tihert","boundary":"administrative","long_name":"ولاية تيارت","long_name:ar":"ولاية تيارت","long_name:azb":"تیارت اوستانی","long_name:en":"Tiaret Province","long_name:fa":"استان تیارت","long_name:fr":"Wilaya de Tiaret","long_name:pnb":"صوبہ تیارت","long_name:ur":"صوبہ تیارت","name":"Tiaret","name:ar":"تيارت","name:ast":"Provincia de Tiaret","name:az":"Tiaret vilayəti","name:azb":"تیارت","name:be":"Тыярэт","name:be-tarask":"Тыярэт","name:ber":"ⵜⵢⴰⵔⴻⵜ","name:bg":"Тиарет","name:ca":"Província de Tiaret","name:ceb":"Wilaya de Tiaret","name:de":"Tiaret","name:el":"Τιαρέτ","name:en":"Tiaret","name:eo":"Provinco Tiaret","name:es":"Provincia de Tiaret","name:eu":"Tiaret probintzia","name:fa":"تیارت","name:fr":"Tiaret","name:gl":"Vilaia de Tiaret","name:hi":"टिअरेत प्रांत","name:id":"Provinsi Tiaret","name:it":"Provincia di Tiaret","name:ja":"ティアレット県","name:ka":"ტიარეტის პროვინცია","name:kab":"Tyaret","name:kab-Arab":"تيارت","name:ko":"티아레주","name:ks":"تیارت","name:lt":"Tiareto vilaja","name:ms":"Wilayah Tiaret","name:nl":"Tiaret","name:no":"Tiaret","name:pl":"Prowincja Tijarat","name:pnb":"تیارت","name:pt":"Tiaret","name:ro":"Provincia Tiaret","name:ru":"Тиарет","name:se":"Tiaret eanangoddi","name:sh":"Tijaret","name:sr":"Тијарет","name:sv":"Tiaret","name:sw":"Wilaya ya Tiaret","name:tg":"Вилояти Тиёрет","name:tl":"Lalawigan ng Tiaret","name:tr":"Tiyaret Vilayeti","name:uk":"Тіарет","name:ur":"تیارت","name:vi":"Tiaret","name:war":"Tiaret","name:wuu":"提亚雷特省","name:zh":"提亚雷特省","name:zu":"Tiaret Province","ref":"14","type":"boundary","wikidata":"Q233258","wikipedia":"ar:ولاية تيارت"},"id":"relation/1281404"},
{"type":"Feature","geometry":{"type":"Polygon","coordinates":[[[2.312894,35.877935],[2.075194,35.959175],[1.948252,35.947986],[1.872965,35.868693],[1.70816,35.917388],[1.553385,36.022176],[1.420787,35.932629],[1.39107,35.851367],[1.278307,35.782285],[1.257126,35.686661],[1.321276,35.622036],[1.390423,35.684488],[1.598723,35.607718],[1.652636,35.541887],[1.889138,35.5518],[2.078695,35.542089],[2.254438,35.553752],[2.286728,35.6315],[2.26897,35.726608],[2.312894,35.877935]]]},"properties":{"@id":"relation/1282090","ISO3166-2":"DZ-38","admin_level":"4","alt_name":"تيسمسيلت;ولاية تيسمسيلت","alt_name:ar":"تيسمسيلت;ولاية تيسمسيلت","alt_name:azb":"تیسمسیلت","alt_name:el":"Επαρχία Τισεμσίλτ","alt_name:fa":"تیسمسیلت","alt_name:kab":"Tawilayt n Tsemsilt","boundary":"administrative","long_name":"ولاية تسمسيلت","long_name:ar":"ولاية تسمسيلت","long_name:en":"Tissemsilt Province","long_name:fa":"استان تسمسیلت","long_name:fr":"Wilaya de Tissemsilt","long_name:pnb":"صوبہ تسمسیلت","long_name:ur":"صوبہ تسمسیلت","name":"Tissemsilt","name:ar":"تسمسيلت","name:ast":"Provincia de Tissemsilt","name:az":"Tissemsilt vilayəti","name:azb":"تسمسیلت","name:be":"Тысемсілт","name:be-tarask":"Тысэмсільт","name:ber":"ⵜⵉⵙⴻⵎⵙⵉⵍⵜ","name:bg":"Тисемсилт","name:ceb":"Wilaya de Tissemsilt","name:de":"Tissemsilt","name:el":"Τισεμσίλτ","name:en":"Tissemsilt","name:eo":"Provinco Tisemsilt","name:es":"Provincia de Tissemsilt","name:eu":"Tissemsilteko probintzia","name:fa":"تسمسیلت","name:fr":"Tissemsilt","name:gl":"Vilaia de Tissemsilt","name:hi":"टिस्सेम्सिल्त प्रांत","name:id":"Provinsi Tissemsilt","name:it":"Provincia di Tissemsilt","name:ja":"ティセムシルト県","name:ka":"ტისემსილტის პროვინცია","name:kab":"Tisemsilt","name:kab-Arab":"تسمسيلت","name:ko":"티셈실트주","name:ks":"تسمسیلت","name:lad":"Tissemsilt","name:lt":"Tisemsilto vilaja","name:ms":"Wilayah Tissemsilt","name:nl":"Tissemsilt","name:no":"Tissemsilt","name:ota":"تسمسيلت","name:pl":"Prowincja Tisamsilt","name:pnb":"تسمسیلت","name:pt":"Tissemsilt","name:ro":"Provincia Tissemsilt","name:ru":"Тисемсильт","name:se":"Tissemsilt eanangoddi","name:sh":"Tisemsilt","name:sr":"Тисемсилт","name:sv":"Tissemsilt","name:sw":"Wilaya ya Tissemsilt","name:tg":"Вилояти Тиссемсилт","name:tl":"Lalawigan ng Tissemsilt","name:tr":"Tissemsilt Vilayeti","name:uk":"Тіссемсілт","name:ur":"تسمسیلت","name:vi":"Tissemsilt","name:war":"Tissemsilt","name:zh":"提塞姆西勒特省","name:zu":"Tissemsilt Province","old_name":"فيالار","old_name:ar":"فيالار","ref":"38","type":"boundary","wikidata":"Q235805","wikipedia":"ar:ولاية تيسمسيلت"},"id":"relation/1282090"},
{"type":"Feature","geometry":{"type":"Polygon","coordinates":[[[1.39107,35.851367],[1.301257,35.943972],[1.191206,35.945573],[1.053655,36.020455],[0.9573241,36.0166342],[0.943224,36.135097],[0.890223,36.228027],[0.693788,36.206003],[0.603786,36.118539],[0.631806,36.004064],[0.43225,35.934223],[0.462825,35.872286],[0.40275,35.801072],[0.310317,35.782224],[0.227202,35.704474],[0.344807,35.551962],[0.438248,35.573504],[0.504237,35.5117771],[0.830927,35.445208],[0.923417,35.540798],[1.063699,35.633611],[1.161546,35.625933],[1.257126,35.686661],[1.278307,35.782285],[1.39107,35.851367]]]},"properties":{"@id":"relation/1282091","ISO3166-2":"DZ-48","admin_level":"4","alt_name:azb":"غلیزان اوستانی","alt_name:el":"Επαρχία Ρελιζάν","alt_name:kab":"Tawilayt n Ɣilizan","alt_name:pnb":"صوبہ غلیزان","boundary":"administrative","long_name":"ولاية غليزان","long_name:ar":"ولاية غليزان","long_name:en":"Relizane Province","long_name:fa":"استان غلیزان","long_name:fr":"Wilaya de Relizane","long_name:ur":"صوبہ غلیزان","name":"Relizane","name:ar":"غليزان","name:ast":"Provincia de Relizan","name:azb":"غلیزان","name:be":"Рэлізан","name:be-tarask":"Рэлізан","name:ber":"ⵉⵖⵉⵍ ⵉⵣⴰⵏ","name:bg":"Релизан","name:ca":"Província de Relizane","name:ceb":"Wilaya de Relizane","name:da":"Relizane","name:de":"Relizane","name:el":"Ρελιζάν","name:en":"Relizane","name:eo":"Provinco Relizan","name:es":"Provincia de Relizan","name:eu":"Relizaneko probintzia","name:fa":"غلیزان","name:fr":"Relizane","name:gl":"Vilaia de Relizane","name:hi":"रेलिज़ेन प्रांत","name:ia":"Provincia Relizane","name:id":"Provinsi Relizane","name:it":"Provincia di Relizane","name:ja":"ルリザンヌ県","name:ka":"რელიზანის პროვინცია","name:kab":"Iɣil n Yizan","name:kab-Arab":"غيل ني إزان","name:ko":"렐리잔주","name:ks":"غلیزان","name:lad":"Relizan","name:lt":"Relizano vilaja","name:nl":"Relizane","name:no":"Relizane","name:pl":"Prowincja Ghulajzan","name:pnb":"غلیزان","name:pt":"Relizane","name:ro":"Provincia Relizane","name:ru":"Гализан","name:se":"Relizane eanangoddi","name:sh":"Relizan","name:sr":"Релизан","name:sv":"Relizane","name:sw":"Wilaya ya Relizane","name:tg":"Вилояти Ғилизон","name:tl":"Lalawigan ng Relizane","name:tr":"Relizane Vilayeti","name:uk":"Релізан","name:ur":"غلیزان","name:vi":"Relizane","name:war":"Relizane","name:zh":"埃利赞省","name:zu":"Relizane Province","ref":"48","type":"boundary","wikidata":"Q236758","wikipedia":"ar:ولاية غليزان"},"id":"relation/1282091"},
{"type":"Feature","geometry":{"type":"Polygon","coordinates":[[[3.616687,35.913394],[3.551625,36.016924],[3.457238,36.041844],[3.564398,36.416319],[3.500728,36.45768],[3.424918,36.401304],[3.296272,36.504563],[3.202766,36.4934385],[3.0090825,36.3490143],[2.9061404,36.408579],[2.8463794,36.369677],[2.6924459,36.3729137],[2.6186196,36.3297501],[2.518897,36.3091114],[2.505318,36.2114244],[2.585731,36.101195],[2.457994,36.058704],[2.442024,35.951198],[2.312894,35.877935],[2.26897,35.726608],[2.286728,35.6315],[2.254438,35.553752],[2.285154,35.461909],[2.493116,35.511183],[2.642784,35.445586],[2.889663,35.633293],[2.87415,35.804932],[2.990258,35.832375],[3.062919,35.661301],[3.1935793,35.6829389],[3.253708,35.813126],[3.369487,35.760112],[3.511882,35.677802],[3.520354,35.806826],[3.616687,35.913394]]]},"properties":{"@id":"relation/1282111","ISO3166-2":"DZ-26","admin_level":"4","alt_name:el":"Επαρχία Μεντέα","alt_name:kab":"Tawilayt n Lemdeyya","boundary":"administrative","long_name:ar":"ولاية المدية","long_name:en":"Médéa Province","long_name:fr":"Wilaya de Médéa","name":"Médéa","name:ar":"المدية","name:ast":"Provincia de Médéa","name:azb":"مدیه اوستانی","name:be":"Медэа (правінцыя)","name:be-tarask":"Мэдэа","name:ber":"ⵎⴷⵉⵢⵢⴰ","name:bg":"Медеа","name:ceb":"Wilaya de Médéa","name:da":"Medea","name:de":"Medea","name:el":"Μεντέα","name:en":"Médéa","name:eo":"Provinco Medea","name:es":"Provincia de Médéa","name:eu":"Medeako probintzia","name:fa":"استان مدیه","name:fr":"Médéa","name:gl":"Vilaia de Medea","name:hi":"मेडी प्रांत","name:id":"Provinsi Medea","name:it":"Provincia di Médéa","name:ja":"メデア県","name:ka":"მედეას პროვინცია","name:kab":"Mdiyya","name:ko":"메데아주","name:lad":"Medea","name:lt":"Medėjos vilaja","name:ms":"Wilayah Médéa","name:nl":"Médéa","name:no":"Médéa","name:pl":"Prowincja Al-Madijja","name:pt":"Medea","name:ro":"Provincia Médéa","name:ru":"Медеа","name:sco":"Médéa Province","name:se":"Médéa eanangoddi","name:sh":"Medeja","name:sr":"Медеја","name:sv":"Médéa","name:sw":"Wilaya ya Medea","name:tg":"Вилояти Мадия","name:tl":"Lalawigan ng Médéa","name:tr":"Mediye Vilayeti","name:uk":"Медеа","name:ur":"صوبہ المدیہ","name:vi":"Médéa","name:war":"Médéa","name:zh":"麦迪亚省","name:zu":"Médéa Province","ref":"26","type":"boundary","wikidata":"Q235810","wikipedia":"fr:Wilaya de Médéa"},"id":"relation/1282111"},
{"type":"Feature","geometry":{"type":"Polygon","coordinates":[[[4.3745752,36.284345],[4.39225,36.400281],[4.364041,36.466856],[3.936193,36.453274],[3.863448,36.467082],[3.724505,36.582497],[3.498185,36.612833],[3.4608457,36.5705355],[3.307116,36.55278],[3.296272,36.504563],[3.424918,36.401304],[3.500728,36.45768],[3.564398,36.416319],[3.457238,36.041844],[3.551625,36.016924],[3.616687,35.913394],[3.715808,35.937457],[3.805096,35.860342],[4.0124197,35.9137405],[4.069475,36.0353381],[4.152456,36.153168],[4.270625,36.254179],[4.3745752,36.284345]]]},"properties":{"@id":"relation/1283093","ISO3166-2":"DZ-10","admin_level":"4","boundary":"administrative","long_name":"ولاية البويرة","long_name:ar":"ولاية البويرة","long_name:azb":"بویره اوستانی","long_name:de":"Provinz Bouira","long_name:el":"Επαρχία Μπουίρα","long_name:en":"Bouira Province","long_name:es":"Provincia de Albuira","long_name:fa":"استان بویره","long_name:fr":"Wilaya de Bouira","long_name:ur":"صوبہ البویرہ","name":"Bouira","name:ar":"البويرة","name:az-Arab":"بویره","name:azb":"بویره","name:ber":"ⵜⵓⴱⵉⵔⴻⵜ","name:de":"Bouira","name:el":"Μπουΐρα","name:en":"Bouira","name:es":"Albuira","name:fa":"بویره","name:fr":"Bouira","name:kab":"Tubiret","name:pt":"Bouira","name:tr":"Buira","name:ur":"بویرہ","old_name":"برج حمزة","old_name:ar":"برج حمزة","old_name:fr":"Coligny","old_name:tr":"Bordj Hamza","ref":"10","type":"boundary","wikidata":"Q233655","wikipedia":"ar:ولاية البويرة","wikipedia:ar":"ولاية البويرة"},"id":"relation/1283093"},
{"type":"Feature","geometry":{"type":"Polygon","coordinates":[[[8.2908218,35.9569014],[8.3460057,36.0970341],[8.3092696,36.1612929],[8.3845976,36.3035439],[8.40463,36.4234078],[8.1671025,36.4672273],[8.07655,36.438005],[7.959225,36.461609],[7.867732,36.405633],[7.836592,36.301298],[7.610282,36.231978],[7.445311,36.203898],[7.30312,36.227215],[7.315404,36.141907],[7.4381801,35.9122078],[7.647965,35.825248],[7.71904,35.895517],[7.863962,35.87876],[8.007297,35.961437],[8.191596,36.003776],[8.2908218,35.9569014]]]},"properties":{"@id":"relation/1283457","ISO3166-2":"DZ-41","admin_level":"4","alt_name:el":"Επαρχία Σουκ Αχράς","alt_name:kab":"Tawilayt n Suq Ahṛas","boundary":"administrative","long_name":"ولاية سوق أهراس","long_name:ar":"ولاية سوق أهراس","long_name:azb":"سوق اهراس اوستانی","long_name:en":"Souk Ahras Province","long_name:fa":"استان سوق اهراس","long_name:fr":"Wilaya de Souk Ahras","long_name:pnb":"صوبہ سوق اہراس","long_name:ur":"صوبہ سوق اھراس","name":"Souk Ahras","name:ar":"سوق أهراس","name:ast":"Provincia de Souk Ahras","name:azb":"سوق اهراس","name:be":"Сук-Ахрас","name:be-tarask":"Сук-Аграс","name:ber":"ⵙⵓⵇⴻⵀⵔⴰⵙ","name:bg":"Сук Ахрас","name:ca":"Província de Souk Ahras","name:ceb":"Wilaya de Souk Ahras","name:de":"Souk Ahras","name:el":"Σουκ Αχράς","name:en":"Souk Ahras","name:eo":"Provinco Suk Ahras","name:es":"Provincia de Souk Ahras","name:eu":"Souk Ahrasko probintzia","name:fa":"سوق اهراس","name:fr":"Souk Ahras","name:gl":"Vilaia de Souk Ahras","name:hi":"सूक अह्रस प्रांत","name:id":"Provinsi Souk Ahras","name:it":"Provincia di Souk Ahras","name:ja":"スーク・アフラース県","name:ka":"სუკ-აჰრასის პროვინცია","name:kab":"Suqehras","name:ko":"수크아라스주","name:lad":"Suk Ahras","name:lt":"Suk Ahraso vilaja","name:ms":"Wilayah Souk Ahras","name:nl":"Souk Ahras","name:no":"Souk Ahras","name:pl":"Prowincja Suk Ahras","name:pnb":"سوق اہراس","name:pt":"Souk Ahras","name:ro":"Provincia Souk Ahras","name:ru":"Сук-Ахрас","name:se":"Souk Ahras eanangoddi","name:sh":"Suk Ahras","name:sr":"Сук Ахрас","name:sv":"Souk Ahras","name:sw":"Wilaya ya Souk Ahras","name:tg":"Вилояти Суқ-Аҳрос","name:tl":"Lalawigan ng Souk Ahras","name:tr":"Sevk Ahras Vilayeti","name:uk":"Сук-Аграс","name:ur":"سوق اھراس","name:vi":"Souk Ahras","name:war":"Souk Ahras","name:zh":"苏格艾赫拉斯省","name:zu":"Souk Ahras Province","ref":"41","type":"boundary","wikidata":"Q236772","wikipedia":"ar:ولاية سوق أهراس"},"id":"relation/1283457"},
{"type":"Feature","geometry":{"type":"Polygon","coordinates":[[[4.364041,36.466856],[4.436994,36.490862],[4.554499,36.592502],[4.649921,36.759111],[4.583175,36.8830147],[4.2966869,36.9079745],[4.0338395,36.9000698],[3.969771,36.778301],[3.866022,36.762718],[3.81724,36.686056],[3.715829,36.64836],[3.724505,36.582497],[3.863448,36.467082],[3.936193,36.453274],[4.364041,36.466856]]]},"properties":{"@id":"relation/1283601","ISO3166-2":"DZ-15","admin_level":"4","alt_name:ber":"ⵜⵉⵣⵉ ⵡⴻⵣⵣⵓ","alt_name:el":"Επαρχία Τιζί Ουζού","alt_name:kab":"Tawilayt n Tizi Wezzu","boundary":"administrative","long_name":"Wilaya de Tizi Ouzou","long_name:ar":"ولاية تيزي وزو","long_name:azb":"تیزی وزو اوستانی","long_name:de":"Provinz Tizi Uzu","long_name:en":"Tizi Ouzou Province","long_name:es":"Provincia de Tizi Uzu","long_name:fa":"استان تیزی وزو","long_name:fr":"Wilaya de Tizi Ouzou","long_name:pnb":"صوبہ تیزی وزو","long_name:ur":"صوبہ تیزی وزو","name":"Tizi Ouzou","name:ar":"تيزي وزو","name:ast":"Provincia de Tizi Ouzou","name:az":"Tizi-Uzu vilayəti","name:azb":"تیزی وزو","name:be":"Тызі-Узу","name:be-tarask":"Тызі-Узу","name:ber":"ⵝⵉⵣⵉ ⵡⴻⵣⵣⵓ","name:bg":"Тизи Узу","name:ca":"Província de Tizi Uzu","name:ceb":"Wilaya de Tizi Ouzou","name:de":"Tizi Ouzou","name:el":"Τίζι Ούζου","name:en":"Tizi Ouzou","name:eo":"Provinco Tizi Uzu","name:es":"Tizi Uzu","name:eu":"Tizi Uzuko probintzia","name:fa":"تیزی وزو","name:fi":"Tizi Ouzoun maakunta","name:fr":"Tizi Ouzou","name:gl":"Vilaia de Tizi Ouzou","name:hi":"तिज़ि ओउज़ोउ प्रांत","name:id":"Provinsi Tizi Ouzou","name:it":"Provincia di Tizi Ouzou","name:ja":"ティジ・ウズー県","name:ka":"ტიზი-უზუს პროვინცია","name:kab":"Tizi Wezzu","name:ko":"티지우주주","name:ks":"تیزی وزو","name:lad":"Tizi Uzu","name:lt":"Tizi Uzu vilaja","name:ms":"Wilayah Tizi Ouzou","name:nl":"Tizi Ouzou","name:no":"Tizi Ouzou","name:pa-Arab":"تیزی وزو","name:pl":"Prowincja Tizi Wuzu","name:pnb":"تیزی وزو","name:pt":"Tizi Ouzou","name:ro":"Provincia Tizi Ouzou","name:ru":"Тизи-Узу","name:se":"Tizi Ouzou eanangoddi","name:sh":"Tizi Uzu","name:sr":"Тизи Узу","name:sv":"Tizi Ouzou","name:sw":"Wilaya ya Tizi Ouzou","name:tg":"Вилояти Тизи узу","name:tl":"Lalawigan ng Tizi Ouzou","name:tr":"Tizi Vuzu Vilayeti","name:uk":"Тізі-Узу","name:ur":"تیزی وزو","name:vi":"Tizi Ouzou","name:war":"Tizi Ouzou","name:wuu":"提济乌祖省","name:zh":"提济乌祖","ref":"15","type":"boundary","wikidata":"Q233645","wikipedia":"fr:Wilaya de Tizi Ouzou"},"id":"relation/1283601"},
{"type":"Feature","geometry":{"type":"Polygon","coordinates":[[[3.724505,36.582497],[3.715829,36.64836],[3.81724,36.686056],[3.866022,36.762718],[3.969771,36.778301],[4.0338395,36.9000698],[3.8713854,36.9137374],[3.4870166,36.7679004],[3.3601695,36.7819275],[3.2235673,36.6690178],[3.307116,36.55278],[3.4608457,36.5705355],[3.498185,36.612833],[3.724505,36.582497]]]},"properties":{"@id":"relation/1283608","ISO3166-2":"DZ-35","admin_level":"4","boundary":"administrative","long_name":"ولاية بومرداس","long_name:ar":"ولاية بومرداس","long_name:azb":"بومرداس اوستانی","long_name:de":"Provinz Bumerdes","long_name:el":"Επαρχία Μπουμερντές","long_name:en":"Boumerdès Province","long_name:fa":"استان بومرداس","long_name:fr":"Wilaya de Boumerdès","long_name:pnb":"صوبہ بومرداس","long_name:ur":"صوبہ بومرداس","name":"Boumerdès","name:ar":"بومرداس","name:ary":"بومرداس","name:arz":"بومرداس","name:az-Arab":"بومرداس","name:azb":"بومرداس","name:be":"Бумердэс","name:ber":"ⴱⵓⵎⴻⵔⴷⴰⵙ","name:bg":"Бумердес","name:da":"Boumerdès","name:de":"Bumerdes","name:el":"Μπουμέρντ","name:en":"Boumerdes","name:eo":"Provinco Bumerdes","name:es":"Bumerdés","name:fa":"بومرداس","name:fr":"Boumerdès","name:gl":"Vilaia de Boumerdes","name:hi":"बोउमेर्डेस प्रांत","name:id":"Provinsi Boumerdes","name:it":"Provincia di Boumerdès","name:ja":"ブメルデス県","name:ka":"ბუმერდესის პროვინცია","name:kab":"Bumerdas","name:kab-Arab":"بومرداس","name:ko":"부메르데스주","name:ks":"بومرداس","name:lt":"Bumerdeso vilaja","name:ms":"Wilayah Boumerdès","name:nl":"Boumerdès","name:no":"Boumerdès","name:pa-Arab":"بومرداس","name:pl":"Prowincja Bumardas","name:pnb":"بومرداس","name:pt":"Boumerdès","name:ro":"Provincia Boumerdès","name:ru":"Бумердес","name:se":"Boumerdès eanangoddi","name:sr":"Бумердес","name:sv":"Boumerdès","name:sw":"Wilaya ya Boumerdes","name:tg":"Вилояти Бумардос","name:tl":"Lalawigan ng Boumerdès","name:tr":"Bumerdas Vilayeti","name:uk":"Бумердес","name:ur":"بومرداس","name:vi":"Boumerdès","name:zh":"布米尔达斯省","old_name":"الصخرة السوداء","old_name:ar":"الصخرة السوداء","old_name:fr":"Rocher Noir","ref":"35","type":"boundary","wikidata":"Q236752","wikipedia":"ar:ولاية بومرداس","wikipedia:es":"Provincia de Bumerdés"},"id":"relation/1283608"},
{"type":"Feature","geometry":{"type":"Polygon","coordinates":[[[2.6186196,36.3297501],[2.4764792,36.412685],[2.253451,36.41579],[2.123103,36.447416],[2.055532,36.41728],[1.780569,36.435373],[1.712691,36.362817],[1.6423576,36.4567827],[1.5269042,36.3819659],[1.5928051,36.2837307],[1.568865,36.145932],[1.720168,35.979439],[1.70816,35.917388],[1.872965,35.868693],[1.948252,35.947986],[2.075194,35.959175],[2.312894,35.877935],[2.442024,35.951198],[2.457994,36.058704],[2.585731,36.101195],[2.505318,36.2114244],[2.518897,36.3091114],[2.6186196,36.3297501]]]},"properties":{"@id":"relation/1283678","ISO3166-2":"DZ-44","admin_level":"4","alt_name:el":"Επαρχία Αΐν Ντεφλά","alt_name:fr":"Aïn-Defla","alt_name:kab":"Tawilayt n Ɛin Defla","boundary":"administrative","long_name:ar":"ولاية عين الدفلى","long_name:en":"Aïn Defla Province","long_name:fr":"Wilaya d'Aïn Defla","name":"Aïn Defla","name:ar":"عين الدفلى","name:ast":"Provincia d'Aín Defla","name:az":"Ayn-Defla vilayəti","name:azb":"عین الدفلی اوستانی","name:be":"Айн-Дэфла","name:be-tarask":"Айн-Дэфла","name:ber":"ⵄⵉⵏ ⴷⴻⴼⵍⴰ","name:bg":"Айн Дефла","name:ca":"Província d'Ain Defla","name:ceb":"Wilaya de Aïn Defla","name:da":"Aïn Defla","name:de":"Ain Defla","name:el":"Αΐν Ντέφλα","name:en":"Aïn Defla","name:eo":"Provinco Ajn Defla","name:es":"Provincia de Aín Defla","name:eu":"Ain Deflako probintzia","name:fa":"استان عین الدفلی","name:fi":"Ain Deflan maakunta","name:fr":"Aïn Defla","name:frr":"Aïn Defla (Prowins)","name:gl":"Vilaia de Ain Defla","name:hi":"ऐन देल्फ्ल प्रांत","name:id":"Provinsi Ain Defla","name:it":"Provincia di ʿAyn Defla","name:ja":"アインデフラ県","name:ka":"აინ-დეფლის პროვინცია","name:kab":"Ɛin Defla","name:ko":"아인데플라주","name:lad":"Eyn Defla","name:lt":"Ain Deflos vilaja","name:ms":"Wilayah Aïn Defla","name:nl":"Aïn Defla","name:no":"Aïn Defla","name:pl":"Prowincja Ajn ad-Dafla","name:pt":"Aïn Defla","name:ro":"Provincia Aïn Defla","name:ru":"Айн-Дефла","name:se":"Aïn Defla eanangoddi","name:sh":"Ajn Defla","name:sq":"Ain Defla","name:sr":"Ајн Делфа","name:sv":"Aïn Defla","name:sw":"Wilaya ya Aïn Defla","name:tg":"Вилояти Айн-Дифла","name:tl":"Lalawigan ng Aïn Defla","name:tr":"Ayn el Defla Vilayeti","name:uk":"Айн-Дефля","name:ur":"صوبہ عین الدفلی","name:vi":"Aïn Defla","name:war":"Aïn Defla","name:wuu":"艾因迪夫拉省","name:zh":"艾因迪夫拉省","name:zu":"Aïn Defla Province","old_name":"Duperré","ref":"44","type":"boundary","wikidata":"Q168953","wikipedia":"fr:Wilaya d'Aïn Defla"},"id":"relation/1283678"},
{"type":"Feature","geometry":{"type":"Polygon","coordinates":[[[3.307116,36.55278],[3.2235673,36.6690178],[3.1113806,36.5815537],[2.922739,36.5967112],[2.8111775,36.6433138],[2.8166746,36.5988187],[2.6862287,36.557895],[2.5879359,36.4545436],[2.4764792,36.412685],[2.6186196,36.3297501],[2.6924459,36.3729137],[2.8463794,36.369677],[2.9061404,36.408579],[3.0090825,36.3490143],[3.202766,36.4934385],[3.296272,36.504563],[3.307116,36.55278]]]},"properties":{"@id":"relation/1283683","ISO3166-2":"DZ-09","admin_level":"4","alt_name:el":"Επαρχία Μπλιντά","alt_name:fa":"استان البلیده","alt_name:ja":"ブリダ県","alt_name:kab":"Tawilayt n Leblida","alt_name:pl":"Prowincja Al-Bulajda","alt_name:pnb":"صوبہ بلیدہ","alt_name:zh":"卜利达省","boundary":"administrative","long_name":"ولاية البليدة","long_name:ar":"ولاية البليدة","long_name:azb":"البلیده اوستانی","long_name:de":"Provinz Blida","long_name:en":"Blida Province","long_name:es":"Provincia de Blida","long_name:fr":"Wilaya de Blida","long_name:ur":"صوبہ البلیدہ","name":"Blida","name:ar":"البليدة","name:ast":"Provincia de Blida","name:az":"Blida vilayəti","name:az-Arab":"البلیده","name:azb":"البلیده","name:be":"Бліда","name:be-tarask":"Бліда","name:ber":"ⴱⵍⵉⴷⴰ","name:bg":"Блида","name:ca":"Província de Blida","name:ceb":"Wilaya de Blida","name:da":"Blida","name:de":"Blida","name:el":"Μπλίντα","name:en":"Blida","name:eo":"Provinco Blida","name:es":"Blida","name:eu":"Blidako probintzia","name:fa":"البلیده","name:fi":"Blidan maakunta","name:fr":"Blida","name:gl":"Vilaia de Blida","name:hi":"ब्लिडा प्रांत","name:ia":"Provincia de Blida","name:id":"Provinsi Bulidah","name:it":"Provincia di Blida","name:ja":"블리다","name:ka":"ბლიდის პროვინცია","name:kab":"Blida","name:kab-Arab":"البليدة","name:kk":"Блида","name:kk-Arab":"بلىيدا","name:ko":"블리다주","name:ks":"بلیدہ","name:lt":"Blidos vilaja","name:ms":"Wilayah Blida","name:nl":"Blida","name:no":"Blida","name:ota":"البلیده","name:pl":"Al-Bulajda","name:pnb":"بلیدہ","name:pt":"Blida","name:ro":"Provincia Blida","name:ru":"Блида","name:sco":"Bilda Province","name:se":"Blida eanangoddi","name:sh":"Blida","name:sr":"Блида","name:sv":"Blida","name:sw":"Wilaya ya Blida","name:tg":"Вилояти Блида","name:tl":"Lalawigan ng Blida","name:tr":"Blida Vilayeti","name:uk":"Бліда","name:ur":"بلیدہ","name:vi":"Blida","name:war":"Blida","name:wuu":"卜利达省","name:zh":"卜利达","name:zu":"Blida Province","ref":"09","type":"boundary","wikidata":"Q233637","wikipedia":"ar:ولاية البليدة","wikipedia:es":"Provincia de Blida"},"id":"relation/1283683"},
{"type":"Feature","geometry":{"type":"Polygon","coordinates":[[[1.691781,36.5530884],[1.3965404,36.5366636],[0.9354392,36.4464895],[0.900439,36.3890221],[0.7404979,36.3340333],[0.693788,36.206003],[0.890223,36.228027],[0.943224,36.135097],[0.9573241,36.0166342],[1.053655,36.020455],[1.191206,35.945573],[1.301257,35.943972],[1.39107,35.851367],[1.420787,35.932629],[1.553385,36.022176],[1.70816,35.917388],[1.720168,35.979439],[1.568865,36.145932],[1.5928051,36.2837307],[1.5269042,36.3819659],[1.6423576,36.4567827],[1.691781,36.5530884]]]},"properties":{"@id":"relation/1283740","ISO3166-2":"DZ-02","admin_level":"4","alt_name:el":"Επαρχία Σλεφ","alt_name:kab":"Tawilayt n Cclef","alt_name:lt":"Šelifo vilaja","alt_name:pl":"Prowincja Asz-Szalif","boundary":"administrative","long_name":"ولاية الشلف","long_name:ar":"ولاية الشلف","long_name:azb":"الشلف اوستانی","long_name:en":"Chlef Province","long_name:fa":"استان الشلف","long_name:fr":"Wilaya de Chlef","long_name:pnb":"صوبہ شلف","long_name:ur":"صوبہ الشلف","name":"Chlef","name:ar":"الشلف","name:ast":"Provincia de Chlef","name:azb":"الشلف","name:be":"Эш-Шэліф","name:be-tarask":"Шэліф","name:ber":"ⵛⵛⵍⴻⴼ","name:bg":"Шлеф","name:ca":"Província de Chlef","name:ceb":"Wilaya de Chlef","name:da":"Chlef","name:de":"Asch-Schalif","name:el":"Σλεφ","name:en":"Chlef","name:eo":"Provinco Ŝlef","name:es":"Provincia de Chlef","name:eu":"Chlefeko probintzia","name:fa":"الشلف","name:fi":"Chlefin maakunta","name:fr":"Chlef","name:gl":"Vilaia de Chlef","name:hi":"छलेफ प्रांत","name:ia":"Provincia de Chlef","name:id":"Provinsi Syilf","name:it":"Provincia di Chlef","name:ja":"シュレフ県","name:ka":"ჩლეფის პროვინცია","name:kab":"Cclef","name:ko":"슐레프주","name:la":"Castellum Tingitanum","name:lt":"Šelifas","name:ms":"Wilayah Chlef","name:nl":"Chlef","name:no":"Chlef","name:pl":"Szalif","name:pnb":"شلف","name:pt":"Chlef","name:ro":"Provincia Chlef","name:ru":"Эш-Шелифф","name:se":"Chlef eanangoddi","name:sh":"Šlef","name:sr":"Шлеф","name:sv":"Ech Cheliff","name:sw":"Wilaya ya Chlef","name:tg":"Вилояти Шлеф","name:tr":"Şelf Vilayeti","name:uk":"Шлеф","name:ur":"الشلف","name:vi":"Chlef","name:war":"Chlef","name:wuu":"谢里夫省","name:zh":"谢利夫","name:zu":"Chlef Province","old_name":"أورليانفيل;الأصنام","old_name:ar":"أورليانفيل;الأصنام","old_name:fr":"Orléansville;Al-Asnam","ref":"02","type":"boundary","wikidata":"Q231752","wikipedia":"ar:ولاية الشلف"},"id":"relation/1283740"},
{"type":"Feature","geometry":{"type":"Polygon","coordinates":[[[1.6423576,36.4567827],[1.712691,36.362817],[1.780569,36.435373],[2.055532,36.41728],[2.123103,36.447416],[2.253451,36.41579],[2.4764792,36.412685],[2.5879359,36.4545436],[2.6862287,36.557895],[2.8166746,36.5988187],[2.8111775,36.6433138],[2.803332,36.6986945],[2.555214,36.5918145],[2.4254377,36.5963967],[2.3059514,36.6372213],[1.9917033,36.5659518],[1.691781,36.5530884],[1.6423576,36.4567827]]]},"properties":{"@id":"relation/1286213","ISO3166-2":"DZ-42","admin_level":"4","alt_name":"Tefessedt","alt_name:el":"Επαρχία Τιπαζά","alt_name:eu":"Tipasako probintzia","alt_name:fa":"استان تیپازه","alt_name:id":"Provinsi Tipaza","alt_name:kab":"Tawilayt n Tipaza","alt_name:pnb":"صوبہ تبسہ","boundary":"administrative","long_name":"ولاية تيبازة","long_name:ar":"ولاية تيبازة","long_name:azb":"تیپازه اوستانی","long_name:de":"Provinz Tipasa","long_name:en":"Tipaza Province","long_name:es":"Provincia de Tipasa","long_name:fr":"Wilaya de Tipaza","long_name:ur":"صوبہ تیبازہ","name":"Tipaza","name:ar":"تيبازة","name:az":"Tipaza vilayəti","name:az-Arab":"تیپازه","name:azb":"تیپازه","name:be":"Тыпаса","name:be-tarask":"Тыпаза","name:ber":"ⵜⵉⵒⴰⵣⴰ","name:bg":"Типаза","name:ca":"Província de Tipaza","name:ceb":"Wilaya de Tipaza","name:de":"Tipasa","name:el":"Τιπαζά","name:en":"Tipaza","name:eo":"Provinco Tipazo","name:es":"Tipasa","name:eu":"Tipasa","name:fa":"تی‌پازه","name:fr":"Tipaza","name:gl":"Vilaia de Tipasa","name:hi":"टिपज़ा प्रांत","name:hu":"Tipáza tartomány","name:hy":"Տիպազա","name:ia":"Provincia de Tipaza","name:id":"Tipasa","name:it":"Provincia di Tipasa","name:ja":"ティパザ県","name:ka":"ტიპასის პროვინცია","name:kab":"Tibaẓa","name:kab-Arab":"تيبازة","name:ko":"티파자주","name:ks":"تیبازہ","name:lad":"Tipaza","name:lt":"Tipazos vilaja","name:nl":"Tipaza","name:no":"Tipaza","name:ota":"تیپازه","name:pl":"Prowincja Tipasa","name:pnb":"تبسہ","name:pt":"Tipaza","name:ro":"Provincia Tipaza","name:ru":"Типаза","name:se":"Tipaza eanangoddi","name:sh":"Tipasa","name:sk":"Tipasa","name:sr":"Типаса","name:sv":"Tipaza","name:sw":"Wilaya ya Tipasa","name:tg":"Вилояти Типоса","name:tl":"Lalawigan ng Tipaza","name:tr":"Tibaze Vilayeti","name:uk":"Тіпаза","name:ur":"تیبازہ","name:vi":"Tipaza","name:war":"Tipaza","name:zh":"提帕萨省","name:zu":"Tipaza Province","ref":"42","type":"boundary","wikidata":"Q235814","wikipedia":"ar:ولاية تيبازة","wikipedia:es":"Provincia de Tipasa"},"id":"relation/1286213"},
{"type":"Feature","geometry":{"type":"Polygon","coordinates":[[[7.6583947,36.6484577],[7.678147,36.737419],[7.8154826,36.8490428],[7.7604838,36.9291402],[7.6033606,36.9675274],[7.5131893,37.0419923],[7.2875762,37.0757507],[7.372845,36.902309],[7.398407,36.725787],[7.346692,36.65973],[7.497625,36.660528],[7.554292,36.608051],[7.6583947,36.6484577]]]},"properties":{"@id":"relation/1455599","ISO3166-2":"DZ-23","admin_level":"4","alt_name:az":"Annaba vilayəti","alt_name:ca":"Província d'Annaba","alt_name:eo":"Provinco Annaba","alt_name:gl":"Vilaia de Annaba","alt_name:id":"Provinsi 'Annabah","alt_name:it":"Provincia di Annaba","alt_name:kab":"Tawilayt n Ɛennaba","alt_name:pl":"Prowincja Annaba","alt_name:pt":"Anaba","alt_name:ro":"Provincia Annaba","alt_name:se":"Annaba eanangoddi","alt_name:tg":"Вилояти Анноба","alt_name:tl":"Lalawigan ng Annaba","alt_name:tr":"Annâbe Vilayeti","boundary":"administrative","long_name":"ولاية عنابة","long_name:ar":"ولاية عنابة","long_name:azb":"عنابه اوستانی","long_name:de":"Provinz Annaba","long_name:el":"Επαρχία Άναμπα","long_name:en":"Annaba Province","long_name:es":"Provincia de Annaba","long_name:fa":"استان عنابه","long_name:fr":"Wilaya d'Annaba","long_name:pnb":"صوبہ عنابہ","long_name:ur":"صوبہ عنابہ","name":"Annaba","name:ar":"عنابة","name:az":"Annaba","name:az-Arab":"عنابه","name:azb":"عنابه","name:be":"Анаба","name:be-tarask":"Анаба","name:ber":"ⵄⴻⵏⵏⴰⴱⴰ","name:bg":"Анаба","name:ca":"Annaba","name:ceb":"Annaba","name:da":"Annaba","name:de":"Annaba","name:el":"Αννάμπα","name:en":"Annaba","name:eo":"Annaba","name:es":"Annaba","name:eu":"Annabako probintzia","name:fa":"عنابه","name:fi":"Annaban maakunta","name:fr":"Annaba","name:gl":"Annaba","name:hi":"अन्नाबा प्रांत","name:id":"Annabah","name:it":"Annaba","name:ja":"アンナバ県","name:ka":"ანაბის პროვინცია","name:kab":"Ɛennaba","name:kab-Arab":"عنابة","name:kk-Arab":"اننابا","name:ko":"안나바주","name:ks":"عنابہ","name:lad":"Annaba","name:lt":"Anabos vilaja","name:ms":"Wilayah Annaba","name:nl":"Annaba","name:no":"Annaba","name:ota":"عنابه","name:pl":"Annaba","name:pnb":"عنابہ","name:pt":"Annaba","name:ro":"Annaba","name:ru":"Аннаба","name:se":"Annaba","name:sh":"Anaba","name:sr":"Анаба","name:sv":"Annaba","name:sw":"Wilaya ya Annaba","name:tg":"Анноба","name:tl":"Annaba","name:tr":"Annâbe","name:uk":"Аннаба","name:ur":"عنابہ","name:vi":"Annaba","name:war":"Annaba","name:wuu":"安纳巴省","name:zh":"安纳巴省","name:zu":"Annaba Province","ref":"23","type":"boundary","wikidata":"Q213944","wikipedia":"ar:ولاية عنابة","wikipedia:ar":"ولاية عنابة","wikipedia:es":"Provincia de Annaba"},"id":"relation/1455599"},
{"type":"Feature","geometry":{"type":"Polygon","coordinates":[[[7.6583947,36.6484577],[7.763889,36.622373],[7.794057,36.539185],[7.924794,36.530763],[7.959225,36.461609],[8.07655,36.438005],[8.1671025,36.4672273],[8.4468002,36.6236841],[8.4841468,36.7794849],[8.5724828,36.7731991],[8.6420767,36.9409263],[8.4244414,36.896881],[8.2710904,36.9164113],[8.2282019,36.952031],[7.9423153,36.8474559],[7.8154826,36.8490428],[7.678147,36.737419],[7.6583947,36.6484577]]]},"properties":{"@id":"relation/1455600","ISO3166-2":"DZ-36","admin_level":"4","alt_name:el":"Ελ Ταρφ","alt_name:kab":"Ṭṭaref","boundary":"administrative","long_name":"ولاية الطارف","long_name:ar":"ولاية الطارف","long_name:az-Arab":"الطارف","long_name:azb":"الطارف اوستانی","long_name:de":"Provinz El Tarf","long_name:en":"El Tarf Province","long_name:es":"Provincia de El Tarf","long_name:fa":"استان الطارف","long_name:fr":"Wilaya d'El Tarf","long_name:ur":"صوبہ الطارف","name":"El Tarf","name:ar":"الطارف","name:ast":"Provincia d'El Tarf","name:azb":"الطارف","name:be":"Эль-Тарф","name:be-tarask":"Эль-Тарэф","name:ber":"ⵟⵟⴰⵔⴻⴼ","name:bg":"Ел-Тарф","name:ca":"Província d'El Tarf","name:ceb":"El Tarf","name:da":"El Tarf","name:de":"El Tarf","name:el":"Επαρχία Ελ Ταρφ","name:en":"El Tarf","name:eo":"Provinco El Tarf","name:es":"El Tarf","name:eu":"El Tarefeko probintzia","name:fa":"الطارف","name:fr":"El Tarf","name:gl":"Vilaia de El Taref","name:hi":"एल तरेफ प्रांत","name:hu":"El Tarf tartomány","name:id":"Provinsi El Tarf","name:it":"Provincia di El Tarf","name:ja":"エル・タルフ県","name:ka":"ელ-ტარეფის პროვინცია","name:kab":"Tawilayt n Ṭṭaref","name:ko":"엘타르프주","name:ks":"الطارف","name:lad":"El Taref","name:lt":"Tarefo vilaja","name:nan":"El Taref Séng","name:nl":"El Tarf","name:no":"El Tarf","name:pl":"Prowincja At-Tarif","name:pt":"El Tarf","name:ro":"Provincia El Tarf","name:ru":"Эль-Тарф","name:se":"El Taref eanangoddi","name:sh":"El Tarf","name:sr":"Ел Тарф","name:sv":"El Tarf","name:sw":"Wilaya ya El Tarf","name:tg":"Вилояти Ал-Тарф","name:tl":"Lalawigan ng El Taref","name:tr":"El Tarif Vilayeti","name:uk":"Ат-Тарф","name:ur":"الطارف","name:vi":"El Taref","name:war":"El Taref","name:zh":"塔里夫省","name:zu":"El Taref Province","ref":"36","type":"boundary","wikidata":"Q236788","wikipedia":"ar:ولاية الطارف","wikipedia:es":"Provincia de El Tarf"},"id":"relation/1455600"},
{"type":"Feature","geometry":{"type":"Polygon","coordinates":[[[-4.8333344,25.0000001],[-4.0942582,24.5216077],[-3.602249,24.2031379],[-2.5943078,23.5507135],[-1.6680198,22.9511418],[-0.9231302,22.4689865],[-0.0609055,21.9108821],[0.5050126,21.5445723],[1.1665556,21.1163645],[1.191452,20.923902],[1.163867,20.790464],[1.178301,20.726311],[1.31655,20.740211],[1.353225,20.67702],[1.591125,20.600358],[1.675059,20.479643],[1.668216,20.406402],[1.797805,20.297876],[1.884198,20.294669],[2.002293,20.242449],[2.133539,20.244646],[2.273442,20.298845],[2.391153,20.14819],[2.4760498,20.0954299],[2.47915,20.205105],[2.351896,20.495742],[2.25975,20.623103],[2.262298,20.861722],[2.193769,21.089744],[2.091102,21.287226],[2.002398,21.393444],[1.838143,21.528939],[1.7763237,21.8079672],[1.590536,21.830179],[1.416717,21.803706],[1.421393,22.664402],[1.425108,23.30928],[1.426958,23.997652],[0.855661,24.138941],[0.346668,24.25783],[0.088665,24.324694],[0.00047,24.363655],[-0.63003,24.501106],[-1.361783,24.676205],[-2.043305,24.828209],[-2.853737,25.003246],[-3.242237,25.080599],[-4.024153,25.242573],[-4.8333344,25.0000001]]]},"properties":{"@id":"relation/6528163","ISO3166-2":"DZ-50","admin_level":"4","alt_name":"ولاية برج باجي مختار","alt_name:ar":"ولاية برج باجي مختار","alt_name:fa":"استان بوردج باجی مختار","alt_name:fr":"wilaya de Bordj Badji Mokhtar","alt_name:kab":"Tawilayt n Burǧ Baǧi Mextar","boundary":"administrative","long_name:ar":"ولاية برج باجي مختار","long_name:en":"Bordj Badji Mokhtar Province","long_name:fr":"wilaya de Bordj Badji Mokhtar","name":"Bordj Badji Mokhtar","name:ar":"برج باجي مختار","name:ber":"ⴱⵓⵔⴵ ⴱⴰⴵⵉ ⵎⵓⵅⵜⴰⵔ","name:de":"Bordj Badji Mokhtar","name:en":"Bordj Badji Mokhtar","name:eu":"Bordj Baji Mokhtarreko probintzia","name:fa":"برج باجی مختار","name:fi":"Bordj Badji Mokhtarin maakunta","name:fr":"Bordj Badji Mokhtar","name:ja":"ボルジュ・バジ・モウタール県","name:kab":"Burǧ Baǧi Moxṭaṛ","name:pt":"Bordj Badji Mokhtar","name:ru":"Бордж-Баджи-Мохтар","name:zu":"Bordj Baji Mokhtar Province","ref":"50","type":"boundary","wikidata":"Q76592938","wikipedia":"fr:Wilaya de Bordj Badji Mokhtar"},"id":"relation/6528163"},
{"type":"Feature","geometry":{"type":"Polygon","coordinates":[[[2.058992,31.659608],[1.098219,31.142572],[0.383871,30.701657],[0.004999,30.323118],[-0.175035,30.045464],[-0.627574,29.757966],[-0.691804,29.551425],[-0.6403635,29.2857005],[-0.665265,29.178679],[-0.920353,28.980902],[-0.660615,28.836451],[-0.216612,28.525105],[0.016856,28.482651],[0.395805,28.381924],[0.977867,28.481159],[1.188303,28.564756],[1.756058,28.556446],[2.0013061,28.4770458],[2.014971,28.729468],[2.040875,28.898653],[2.091465,29.08984],[1.903011,30.020382],[1.998916,30.381323],[2.0236368,30.5400881],[2.033337,30.991383],[2.058992,31.659608]]]},"properties":{"@id":"relation/6528164","ISO3166-2":"DZ-49","admin_level":"4","alt_name:ar":"ولاية تيميمون","alt_name:en":"Timimoune","alt_name:fr":"wilaya de Timimoune","alt_name:kab":"Timimun","boundary":"administrative","long_name:ar":"ولاية تيميمون","long_name:en":"Timimoune Province","long_name:fr":"Wilaya de Timimoune","name":"Timimoune","name:ar":"تيميمون","name:ber":"ⵜⵉⵎⵉⵎⵓⵏ","name:de":"Timimoun","name:en":"Timimoun Province","name:eu":"Timimoungo probintzia","name:fa":"استان تیمیمون","name:fi":"Timimounin maakunta","name:fr":"Timimoune","name:ja":"ティミムン県","name:kab":"Tawilayt n Timimun","name:pt":"Timimoun","name:ru":"Тимимун","name:zu":"Timimoun Province","ref":"49","type":"boundary","wikidata":"Q21606903","wikipedia":"fr:Wilaya de Timimoun"},"id":"relation/6528164"},
{"type":"Feature","geometry":{"type":"Polygon","coordinates":[[[5.7177664,33.4046628],[5.7914771,33.2666956],[5.7568191,33.0972628],[5.8813422,32.9985163],[5.9916085,32.8332282],[6.1315945,32.8979724],[6.1010983,32.6149072],[6.3175831,32.3288776],[6.5787367,32.2317571],[6.9554198,32.1165407],[7.0716384,32.0551312],[7.235724,32.003382],[6.995494,32.262058],[6.6607925,32.725767],[6.487855,33.223948],[6.327166,33.634393],[6.286677,33.911008],[6.1467472,33.9117752],[6.0313221,33.8610599],[6.0852656,33.4084332],[5.7177664,33.4046628]]]},"properties":{"@id":"relation/6822397","ISO3166-2":"DZ-55","admin_level":"4","alt_name":"Wilaya de Touggourt","alt_name:fa":"استان توگورت","alt_name:kab":"Tawilayt n Tuggurt","boundary":"administrative","long_name:ar":"ولاية تقرت","long_name:en":"Touggourt Province","long_name:fr":"Wilaya de Touggourt","name":"Touggourt","name:ar":"تقرت","name:azb":"تقورت","name:ber":"ⵜⵓⴳⵓⵔⵜ","name:ca":"Tuggurt","name:de":"Tuqurt","name:en":"Touggourt","name:eo":"Tugurt","name:es":"Tuqurt","name:eu":"Touggourteko probintzia","name:fa":"تقورت","name:fi":"Touggourtin maakunta","name:fr":"Touggourt","name:ja":"トゥーグラ","name:kab":"Tugurt","name:kk":"Туггурт қаласы","name:ko":"투구르트","name:lt":"Tugurtas","name:pl":"Tukkurt","name:pt":"Tugurte","name:ru":"Туггурт","name:zh":"图古尔特","name:zu":"Touggourt Province","ref":"55","type":"boundary","wikidata":"Q77103880","wikipedia":"fr:Wilaya de Touggourt"},"id":"relation/6822397"},
{"type":"Feature","geometry":{"type":"Polygon","coordinates":[[[0.383871,30.701657],[0.0750879,30.7400523],[-0.1065487,30.7152588],[-0.29775,30.7413894],[-0.5750841,30.8800925],[-1.0238465,30.8559326],[-1.3164267,30.8044976],[-1.5867755,30.8187184],[-1.8121458,30.7848625],[-1.963307,30.7315365],[-2.3503201,30.6876604],[-2.4290067,30.7430647],[-2.5526349,30.7088052],[-2.7933819,30.5268639],[-3.0987604,30.471305],[-3.5798548,30.3556891],[-3.6003076,30.5934043],[-3.6694002,30.6647953],[-3.8167992,30.590355],[-3.8865366,30.6106899],[-4.1483315,30.5851367],[-4.3296784,30.5215464],[-4.607478,30.282621],[-4.936618,30.140473],[-5.2888626,29.8811419],[-5.3177262,29.7890736],[-5.499998,29.563009],[-5.2655967,29.410204],[-4.889025,29.414617],[-4.6217905,29.3024891],[-4.4998013,28.9992234],[-4.3174621,28.484821],[-3.9912148,28.0011889],[-3.9719687,27.7021049],[-3.7015376,27.4344205],[-3.5652745,27.3447988],[-2.982572,27.300564],[-3.035772,27.34794],[-2.905482,27.769097],[-2.646516,28.072691],[-2.575738,28.222683],[-2.293748,28.424182],[-2.003547,28.796756],[-1.418585,28.952885],[-0.920353,28.980902],[-0.665265,29.178679],[-0.6403635,29.2857005],[-0.691804,29.551425],[-0.627574,29.757966],[-0.175035,30.045464],[0.004999,30.323118],[0.383871,30.701657]]]},"properties":{"@id":"relation/6824843","ISO3166-2":"DZ-52","admin_level":"4","alt_name":"ولاية بني عباس","alt_name:ar":"ولاية بني عباس","alt_name:en":"Béni Abbès Province","alt_name:fr":"wilaya de Béni Abbès","alt_name:kab":"Tawilayt n Bni Ɛebbas","boundary":"administrative","long_name:ar":"ولاية بني عباس","long_name:en":"Beni Abbes Province","long_name:fr":"wilaya de Béni Abbès","name":"Béni Abbès","name:ar":"بني عباس","name:ber":"ⴰⵢⵜ ⴰⴱⴱⴰⵙ","name:de":"Béni Abbès","name:en":"Beni Abbes","name:eu":"Beni Abbesko probintzia","name:fi":"Beni Abbesin maakunta","name:fr":"Béni Abbès","name:ja":"ベニ・アッベス県","name:kab":"At Ɛebbas","name:pt":"Béni Abbès","name:ru":"Бени-Аббес","name:zu":"Béni Abbès Province","ref":"52","type":"boundary","wikidata":"Q21606902","wikipedia":"fr:Wilaya de Béni Abbès"},"id":"relation/6824843"},
{"type":"Feature","geometry":{"type":"Polygon","coordinates":[[[2.0013061,28.4770458],[1.955206,28.346125],[1.814714,28.149153],[1.778505,27.75429],[1.696593,27.62985],[1.698698,27.386302],[1.779706,27.277275],[1.668614,27.030747],[1.630576,26.654334],[1.534117,26.622653],[1.418054,26.667109],[1.29797,26.626834],[1.189689,26.468476],[0.933021,26.236555],[1.052196,26.000568],[1.424835,25.526308],[1.42701,24.99292],[1.4379783,24.6367227],[1.523065,24.744787],[1.903687,24.95237],[1.999898,25.493641],[2.110943,25.728098],[2.172146,25.682261],[2.279639,25.685011],[2.484735,25.594482],[2.594009,25.578039],[2.703427,25.491161],[3.121197,25.452284],[3.260539,25.538727],[3.316057,25.625315],[3.3838,25.597553],[3.401494,25.436678],[3.501785,25.35869],[3.587614,25.401058],[3.685802,25.385193],[3.913609,25.559635],[3.930601,25.609165],[3.817886,25.822237],[3.868631,26.06921],[3.751985,26.266422],[3.840708,26.273783],[3.859025,26.211214],[4.014853,26.181021],[4.215927,26.365971],[4.29916,26.397999],[4.390604,26.532127],[4.550144,26.542843],[4.601699,26.475636],[4.684515,26.517061],[4.726048,26.467325],[4.858585,26.500444],[4.901001,26.567194],[5.007038,26.630964],[5.127027,26.777124],[5.132029,26.86072],[5.209177,26.901514],[5.284791,27.015247],[5.318899,27.145079],[5.298112,27.212917],[5.471655,27.379589],[5.7769988,27.4124312],[5.638444,28.107808],[5.729155,28.432714],[5.723342,29.00054],[5.721875,29.758296],[5.064654,29.340856],[4.52733,29.000421],[3.767205,28.514461],[2.996532,29.079757],[2.499139,29.045669],[2.040875,28.898653],[2.014971,28.729468],[2.0013061,28.4770458]]]},"properties":{"@id":"relation/6824900","ISO3166-2":"DZ-53","admin_level":"4","alt_name:fr":"Wilaya d'In Salah","alt_name:kab":"Tawilayt n In Ṣaleḥ","boundary":"administrative","long_name:ar":"ولاية عين صالح","long_name:en":"In Salah Province","long_name:fr":"wilaya d'In Salah","name":"In Salah","name:ar":"عين صالح","name:ber":"ⵄⵉⵏ ⵙⴰⵍⴻⵃ","name:de":"In Salah","name:en":"In Salah","name:eu":"In Salahko probintzia","name:fa":"استان صلاح","name:fi":"In Salahin maakunta","name:fr":"In Salah","name:ja":"イン・サラー県","name:kab":"In Ṣaleḥ","name:pt":"In Salah","name:ru":"Ин-Салах","name:zu":"In Salah Province","ref":"53","type":"boundary","wikidata":"Q76593022","wikipedia":"fr:Wilaya d'In Salah"},"id":"relation/6824900"},
{"type":"Feature","geometry":{"type":"Polygon","coordinates":[[[5.293108,34.511089],[5.193347,34.426465],[5.250951,34.3600355],[5.201684,34.287899],[5.368889,34.156981],[5.270235,33.976576],[5.2237486,33.8201088],[5.271175,33.734445],[5.282121,33.55842],[5.314112,33.470816],[5.2732553,33.4165672],[5.7177664,33.4046628],[6.0852656,33.4084332],[6.0313221,33.8610599],[6.1467472,33.9117752],[6.0799481,34.1578581],[5.9810926,34.2251446],[5.956126,34.384534],[5.398342,34.449274],[5.293108,34.511089]]]},"properties":{"@id":"relation/6825874","ISO3166-2":"DZ-57","admin_level":"4","alt_name:ar":"ولاية المغير","alt_name:fr":"Wilaya d' El M'Ghair","alt_name:kab":"Tawilayt n Lemɣir","boundary":"administrative","long_name:ar":"ولاية المغير","long_name:en":"El M'Ghair Province","long_name:fr":"wilaya d' El M'Ghair","name":"El M'Ghair","name:ar":"المغير","name:ber":"ⵍⴻⵎⵖⵉⵔ","name:de":"El M'Ghair","name:en":"El M'Ghair","name:eu":"El M'Ghairreko probintzia","name:fa":"استان المغیر","name:fr":"El M'Ghair","name:ja":"エル・ムエラ県","name:kab":"Lemɣir","name:pt":"El M'Ghair","name:zu":"El M'Ghair Province","ref":"57","type":"boundary","wikidata":"Q77103173","wikipedia":"fr:Wilaya d'El M'Ghair"},"id":"relation/6825874"},
{"type":"Feature","geometry":{"type":"Polygon","coordinates":[[[10.238563,22.496408],[11.00165,22.933373],[11.292563,23.116021],[11.997337,23.517178],[11.604258,24.264727],[11.422523,24.200501],[11.138312,24.39111],[11.07772,24.410991],[10.949659,24.532734],[10.706074,24.573067],[10.542053,24.533993],[10.356677,24.536972],[10.216372,24.650641],[10.153131,24.784131],[10.0377723,24.9656335],[10.0357609,25.1534172],[9.050728,25.147062],[8.87542,25.358023],[8.847558,25.435373],[8.692623,25.641178],[8.616661,25.648226],[8.369664,25.529797],[8.349484,25.471527],[8.133407,25.450556],[8.018579,25.363523],[7.933666,25.21278],[7.716796,25.233063],[7.576032,25.188143],[7.43289,25.236729],[7.241391,25.26572],[6.99963,25.39584],[6.5849599,25.5529561],[6.805485,25.242796],[6.852459,25.103178],[7.036053,24.809842],[7.118678,24.762117],[7.308362,24.747795],[7.530827,24.424899],[7.513872,24.281356],[7.534686,23.848024],[7.745212,23.354454],[7.65723,23.271172],[7.91148,23.087476],[8.444663,23.185906],[8.645961,23.21335],[9.215193,23.558432],[9.805975,23.555336],[9.960199,23.508752],[10.270553,23.322323],[10.238563,22.496408]]]},"properties":{"@id":"relation/6825876","ISO3166-2":"DZ-56","admin_level":"4","boundary":"administrative","long_name":"ولاية جانت","long_name:ar":"ولاية جانت","long_name:ber":"ⵝⴰⵏⴻⴲⴸⵉⵟ ⵏ ⴵⴰⵏⴻⵜ","long_name:de":"Provinz Djanet","long_name:en":"Djanet Province","long_name:es":"Provincia de Yanet","long_name:fr":"Wilaya de Djanet","long_name:kab":"Tanebḍit n Ǧanet","name":"Djanet","name:ar":"جانت","name:arz":"جانت","name:azb":"جانت","name:ber":"ⵊⴰⵏⴻⵜ","name:de":"Djanet","name:en":"Djanet","name:es":"Yanet","name:eu":"Djaneteko probintzia","name:fa":"جانت","name:fi":"Djanetin maakunta","name:fr":"Djanet","name:ja":"ジャーネット県","name:kab":"Ǧanet","name:ks":"جانت","name:pt":"Djanet","name:ru":"Джанет","name:ur":"جانت","name:zu":"Djanet Province","official_name":"ولاية جانت","official_name:ar":"ولاية جانت","official_name:ber":"ⵝⴰⵏⴻⴲⴸⵉⵟ ⵏ ⴵⴰⵏⴻⵜ","official_name:de":"Provinz Djanet","official_name:es":"Provincia de Yanet","official_name:fr":"wilaya de Djanet","official_name:kab":"Tanebḍit n Ǧanet","ref":"56","type":"boundary","wikidata":"Q77101547","wikipedia":"ar:ولاية جانت","wikipedia:ar":"ولاية جانت"},"id":"relation/6825876"},
{"type":"Feature","geometry":{"type":"Polygon","coordinates":[[[7.7944146,21.0467515],[7.649634,21.081123],[7.541007,21.188152],[7.316075,21.299534],[7.286952,21.227629],[7.133422,21.301252],[6.945302,21.452515],[6.811752,21.531754],[6.535535,21.559198],[6.484639,21.342619],[6.340116,21.165977],[6.254877,20.894854],[5.926246,20.907516],[5.75896,20.932899],[5.713673,21.022625],[5.384348,21.042564],[5.045902,21.155893],[4.782244,21.19434],[4.679873,21.129536],[4.682354,20.980911],[4.715339,20.921095],[4.635234,20.69174],[4.5891,20.619549],[4.497839,20.642122],[4.319574,20.493038],[4.199522,20.455339],[4.018852,20.444166],[4.052886,20.883511],[4.030375,21.039524],[3.934221,21.143116],[3.781121,21.192448],[3.700677,21.254959],[3.633756,21.254156],[3.460694,21.308817],[3.434424,21.419054],[3.298329,21.420601],[3.091319,21.903946],[2.947266,21.827799],[2.027864,21.818001],[1.7763237,21.8079672],[1.838143,21.528939],[2.002398,21.393444],[2.091102,21.287226],[2.193769,21.089744],[2.262298,20.861722],[2.25975,20.623103],[2.351896,20.495742],[2.47915,20.205105],[2.4760498,20.0954299],[2.56213,20.033097],[2.666225,20.051999],[2.8234504,19.9646818],[2.9748813,19.9531178],[3.144967,19.858551],[3.259589,19.817559],[3.229954,19.71077],[3.262769,19.43904],[3.178257,19.359073],[3.200581,19.277088],[3.122644,19.185182],[3.163375,19.114556],[3.357648,18.968147],[4.204962,19.134136],[4.33586,19.149627],[5.179,19.320476],[5.8117693,19.4440824],[6.437207,19.975381],[6.999176,20.454856],[7.459686,20.842495],[7.7944146,21.0467515]]]},"properties":{"@id":"relation/6825881","ISO3166-2":"DZ-54","admin_level":"4","alt_name":"إين قزام","alt_name:ar":"إين قزام","alt_name:fa":"عین قزام","alt_name:kab":"Tawilayt n In Gezzam","boundary":"administrative","long_name":"ولاية عين قزام","long_name:ar":"ولاية عين قزام","long_name:en":"In Guezzam Province","long_name:fr":"Wilaya d' In Guezzam","name":"In Guezzam","name:ar":"عين قزام","name:azb":"عین قزام","name:ber":"ⵄⵉⵏ ⴳⴻⵣⵣⴰⵎ","name:de":"In Guezzam","name:en":"In Guezzam","name:eu":"In Guezzamgo probintzia","name:fa":"استان گوئزام","name:fi":"In Guezzamin maakunta","name:fr":"In Guezzam","name:ja":"イン・ゲザム県","name:kab":"In Gezzam","name:kab-Arab":"عين ڤزام","name:ks":"عین قزام","name:ota":"عین قزام","name:pnb":"عین قزام","name:ps":"عین قزام","name:pt":"In Guezzam","name:ru":"Ин-Геззам","name:uk":"Ін-Геззам","name:ur":"عین قزام","name:zu":"In Guezzam Province","ref":"54","type":"boundary","wikidata":"Q77102475","wikipedia":"ar:ولاية عين قزام","wikipedia:ar":"ولاية عين قزام"},"id":"relation/6825881"},
{"type":"Feature","geometry":{"type":"Polygon","coordinates":[[[2.27686,32.549634],[2.360306,32.26157],[2.24162,32.196768],[2.27273,31.860117],[2.058992,31.659608],[2.033337,30.991383],[2.0236368,30.5400881],[1.998916,30.381323],[1.903011,30.020382],[2.091465,29.08984],[2.040875,28.898653],[2.499139,29.045669],[2.996532,29.079757],[3.365646,29.217952],[3.666323,29.7156],[3.749851,29.807554],[4.033273,30.598999],[4.259617,31.236608],[4.409047,31.552183],[4.4192141,31.7983751],[4.2321891,31.8765789],[4.146573,31.9421413],[3.8819356,32.0081604],[3.3541671,32.0963126],[2.9573504,32.1808375],[2.5229183,32.341023],[2.27686,32.549634]]]},"properties":{"@id":"relation/6825901","ISO3166-2":"DZ-58","admin_level":"4","alt_name:ar":"ولاية المنيعة","alt_name:fr":"wilaya d' El Meniaa","alt_name:kab":"Lemniɛa","boundary":"administrative","long_name:ar":"ولاية المنيعة","long_name:en":"El Meniaa Province","long_name:fr":"wilaya d' El Meniaa","name":"El Meniaa","name:ar":"المنيعة","name:ber":"ⵍⴻⵎⵏⵉⵄⴰ","name:de":"El Meniaa","name:en":"El Menia","name:eu":"El Meniako probintzia","name:fa":"استان ال منیا","name:fi":"El Meniaan maakunta","name:fr":"El Meniaa","name:ja":"エル・メニア県","name:kab":"Tawilayt n Lemniɛa","name:pt":"El Menia","name:ru":"Эль-Голеа","name:zu":"El Menia Province","ref":"58","type":"boundary","wikidata":"Q76520264","wikipedia":"fr:Wilaya d'El Meniaa"},"id":"relation/6825901"},
{"type":"Feature","geometry":{"type":"Polygon","coordinates":[[[5.293108,34.511089],[5.3082512,34.5870603],[5.135964,34.7792865],[5.1164814,34.8509031],[4.925189,34.860752],[4.703367,34.810155],[4.569772,34.684167],[4.284589,34.657982],[4.1540667,34.5122093],[4.1732627,34.3890993],[4.272859,34.266611],[4.170678,34.221107],[4.195972,34.147903],[4.290577,34.084418],[4.40625,34.061963],[4.281273,33.909618],[4.55925,33.807008],[4.647574,33.735509],[4.861577,33.698384],[5.078817,33.606832],[5.056323,33.49884],[5.249275,33.355255],[5.2732553,33.4165672],[5.314112,33.470816],[5.282121,33.55842],[5.271175,33.734445],[5.2237486,33.8201088],[5.270235,33.976576],[5.368889,34.156981],[5.201684,34.287899],[5.250951,34.3600355],[5.193347,34.426465],[5.293108,34.511089]]]},"properties":{"@id":"relation/10489092","ISO3166-2":"DZ-51","admin_level":"4","alt_name:fa":"استان اولاد جلال","alt_name:kab":"Tawilayt n Wlad Ǧellal","boundary":"administrative","long_name":"ولاية أولاد جلال","long_name:ar":"ولاية أولاد جلال","long_name:de":"Provinz Ouled Djellal","long_name:en":"Ouled Djellal Province","long_name:es":"Provincia de Ulad Yelal","long_name:fr":"wilaya d' Ouled Djellal","name":"Ouled Djellal","name:ar":"أولاد جلال","name:az-Arab":"اولاد جلال","name:azb":"اولاد جلال","name:ber":"ⵡⵍⴻⴷ ⴵⴻⵍⴰⵍ","name:de":"Ouled Djellal","name:en":"Ouled Djellal","name:es":"Ulad Yelal","name:eu":"Ouled Djellalgo probintzia","name:fa":"اولاد جلال","name:fi":"Ouled Djellalin maakunta","name:fr":"Ouled Djellal","name:ja":"ウレド・ジェラル県","name:kab":"Wled Ğellal","name:pt":"Ouled Djellal","name:ru":"Улед-Джеллал","name:zh":"奥拉德杰拉勒","name:zu":"Ouled Djellal Province","ref":"51","type":"boundary","wikidata":"Q77105251","wikipedia":"ar:ولاية أولاد جلال","wikipedia:ar":"ولاية أولاد جلال"},"id":"relation/10489092"}
]}